{"type":"FeatureCollection","features":[{"type":"Feature","geometry":{"type":"Polygon","coordinates":[[[8.94835,47.04988],[8.94841,47.04952],[8.94883,47.04908],[8.95004,47.0486],[8.95086,47.04848],[8.95145,47.04821],[8.95219,47.04746],[8.95279,47.04718],[8.95368,47.04717],[8.95434,47.04711],[8.95461,47.04712],[8.95557,47.04721],[8.9556,47.04721],[8.95643,47.04727],[8.95668,47.04727],[8.9569,47.04726],[8.95822,47.04706],[8.95872,47.04708],[8.95925,47.04699],[8.95983,47.04673],[8.96028,47.04663],[8.96076,47.04665],[8.96131,47.04682],[8.9621,47.04718],[8.96256,47.04726],[8.96329,47.04722],[8.96427,47.04742],[8.96503,47.04752],[8.96566,47.04755],[8.96646,47.04772],[8.96759,47.04774],[8.96825,47.0477],[8.96867,47.04773],[8.96876,47.04774],[8.96955,47.04776],[8.96982,47.04775],[8.97017,47.04772],[8.97128,47.04785],[8.97201,47.04787],[8.97252,47.04786],[8.97357,47.04797],[8.97441,47.04799],[8.9749,47.04807],[8.97522,47.04816],[8.97546,47.04827],[8.97564,47.04838],[8.97584,47.04856],[8.9762,47.04885],[8.97653,47.04916],[8.9767,47.04927],[8.97689,47.04936],[8.97793,47.04965],[8.97898,47.05038],[8.97965,47.05098],[8.97982,47.05111],[8.98113,47.0519],[8.98159,47.05212],[8.982,47.05244],[8.98229,47.05274],[8.98243,47.05287],[8.98315,47.05339],[8.98322,47.05344],[8.98367,47.05373],[8.98383,47.05381],[8.98426,47.05401],[8.98451,47.0541],[8.98507,47.05426],[8.98556,47.05453],[8.98582,47.05471],[8.98609,47.05493],[8.98636,47.05521],[8.98652,47.05548],[8.98664,47.05562],[8.98679,47.05575],[8.98697,47.05585],[8.98719,47.05594],[8.98759,47.05607],[8.98782,47.05619],[8.98813,47.05642],[8.98833,47.05651],[8.98889,47.05669],[8.98911,47.05681],[8.98934,47.05699],[8.98954,47.05719],[8.98976,47.05735],[8.99009,47.05757],[8.9903,47.05776],[8.99074,47.05822],[8.99089,47.05842],[8.99097,47.05862],[8.99109,47.0588],[8.99126,47.05897],[8.99152,47.05917],[8.9917,47.05928],[8.9919,47.05937],[8.99212,47.05943],[8.99227,47.05946],[8.99243,47.05949],[8.99294,47.05955],[8.99374,47.05962],[8.99419,47.05978],[8.99434,47.05983],[8.99456,47.05989],[8.99464,47.05991],[8.99492,47.05998],[8.99566,47.06002],[8.99792,47.06032],[9.00034,47.06038],[9.00089,47.06051],[9.00128,47.06066],[9.00146,47.06072],[9.00165,47.06076],[9.00216,47.06084],[9.0024,47.06086],[9.00265,47.06085],[9.00315,47.06079],[9.00341,47.06079],[9.00373,47.06079],[9.004,47.06079],[9.00477,47.06066],[9.00526,47.06067],[9.00594,47.06085],[9.00684,47.06086],[9.00777,47.06103],[9.00853,47.06123],[9.00934,47.06135],[9.01042,47.06166],[9.01085,47.06179],[9.0111,47.06188],[9.01145,47.06205],[9.01172,47.06219],[9.01189,47.06226],[9.01249,47.06245],[9.01267,47.06249],[9.01277,47.06251],[9.01355,47.06259],[9.01402,47.06273],[9.01418,47.06277],[9.01451,47.06282],[9.015,47.06288],[9.0156,47.06308],[9.016,47.06317],[9.01653,47.06325],[9.01793,47.06353],[9.01864,47.06371],[9.01891,47.06375],[9.0194,47.0638],[9.02007,47.06396],[9.02106,47.06426],[9.02169,47.06457],[9.02284,47.06486],[9.02395,47.06505],[9.02479,47.06525],[9.02565,47.06533],[9.02621,47.06556],[9.02662,47.06593],[9.02678,47.06635],[9.02681,47.06644],[9.02687,47.06658],[9.02692,47.06667],[9.02769,47.06794],[9.02782,47.06809],[9.02795,47.06823],[9.02812,47.06845],[9.02826,47.06917],[9.02824,47.06933],[9.02818,47.06948],[9.02813,47.06962],[9.02809,47.06973],[9.02807,47.06997],[9.02811,47.07039],[9.02818,47.07062],[9.0284,47.0711],[9.02851,47.0713],[9.02869,47.07147],[9.02881,47.07156],[9.029,47.07168],[9.02913,47.07175],[9.02933,47.07183],[9.02964,47.07198],[9.03,47.07223],[9.03029,47.07234],[9.03059,47.0724],[9.03112,47.07242],[9.03163,47.07251],[9.03204,47.07274],[9.03313,47.07374],[9.03367,47.0741],[9.03392,47.07435],[9.03455,47.0747],[9.03482,47.07497],[9.03506,47.07539],[9.03544,47.07589],[9.03561,47.07645],[9.03557,47.0768],[9.03567,47.07716],[9.03598,47.07746],[9.03673,47.07794],[9.03714,47.07811],[9.03737,47.07815],[9.03761,47.07817],[9.0385,47.07817],[9.03875,47.07816],[9.03926,47.07807],[9.04041,47.078],[9.04137,47.0782],[9.04209,47.07826],[9.04319,47.07863],[9.04394,47.07897],[9.04468,47.07927],[9.04478,47.0793],[9.04526,47.07946],[9.04547,47.07951],[9.04568,47.07954],[9.04613,47.07957],[9.04631,47.0796],[9.0465,47.07963],[9.0468,47.07968],[9.04702,47.07975],[9.04728,47.07987],[9.04745,47.07997],[9.04755,47.08003],[9.04773,47.08011],[9.04796,47.0802],[9.04822,47.08026],[9.0485,47.08027],[9.04877,47.08025],[9.04935,47.08012],[9.05026,47.07998],[9.05098,47.08005],[9.05153,47.08037],[9.05183,47.08081],[9.05188,47.08117],[9.05205,47.08148],[9.05238,47.08174],[9.05282,47.08189],[9.05355,47.08189],[9.05425,47.08163],[9.05474,47.08151],[9.05515,47.08128],[9.05539,47.08095],[9.05543,47.08077],[9.05554,47.07946],[9.05559,47.07925],[9.05581,47.07894],[9.05618,47.07871],[9.05665,47.07859],[9.05696,47.07857],[9.05808,47.0786],[9.05869,47.07863],[9.0592,47.07854],[9.05942,47.07844],[9.05961,47.07831],[9.05976,47.07816],[9.06049,47.07725],[9.06081,47.07696],[9.06101,47.07666],[9.06106,47.07628],[9.0611,47.07507],[9.0611,47.07478],[9.06109,47.07404],[9.06109,47.07402],[9.0611,47.07309],[9.0611,47.07301],[9.06118,47.07222],[9.06122,47.0712],[9.06141,47.07087],[9.06199,47.07054],[9.06275,47.07048],[9.06321,47.07055],[9.06375,47.07051],[9.06421,47.07032],[9.06527,47.06964],[9.06536,47.06958],[9.0655,47.06948],[9.06557,47.06942],[9.06624,47.06881],[9.06687,47.06832],[9.06734,47.06814],[9.06799,47.06797],[9.06828,47.06791],[9.06877,47.06791],[9.06922,47.06804],[9.06958,47.06826],[9.06971,47.06841],[9.07022,47.0695],[9.0703,47.06999],[9.07052,47.07037],[9.07056,47.07069],[9.07037,47.07117],[9.07039,47.07152],[9.0706,47.07184],[9.07098,47.07208],[9.07149,47.07223],[9.07198,47.0723],[9.07258,47.07227],[9.07285,47.07223],[9.07332,47.07212],[9.07349,47.07209],[9.07436,47.07196],[9.07459,47.07193],[9.07531,47.07188],[9.07591,47.07185],[9.07608,47.07185],[9.07659,47.07186],[9.07683,47.07188],[9.07707,47.07192],[9.07737,47.07199],[9.07788,47.07219],[9.07821,47.07245],[9.07893,47.07272],[9.07998,47.07277],[9.08024,47.07275],[9.08049,47.07271],[9.0811,47.07258],[9.08162,47.07238],[9.08204,47.0721],[9.08251,47.07191],[9.08389,47.07174],[9.0842,47.07177],[9.08434,47.07179],[9.08457,47.07181],[9.08466,47.07181],[9.085,47.07183],[9.08523,47.07182],[9.08546,47.07179],[9.08568,47.07173],[9.08605,47.07158],[9.08638,47.07151],[9.0866,47.07147],[9.08709,47.07142],[9.08728,47.0714],[9.08793,47.0713],[9.08875,47.07132],[9.08954,47.07141],[9.08999,47.07135],[9.09167,47.0707],[9.09263,47.07045],[9.09291,47.07035],[9.09314,47.07025],[9.09332,47.07015],[9.09347,47.07003],[9.0938,47.06963],[9.09399,47.06949],[9.09447,47.06931],[9.09508,47.06928],[9.09583,47.06935],[9.09612,47.06935],[9.09793,47.06923],[9.09794,47.06923],[9.09999,47.06909],[9.10021,47.06906],[9.10263,47.06859],[9.10417,47.06833],[9.10456,47.06829],[9.10495,47.06833],[9.10577,47.06846],[9.10594,47.06848],[9.10792,47.06863],[9.10819,47.06863],[9.10846,47.06859],[9.10871,47.06852],[9.10893,47.06841],[9.10912,47.06827],[9.10934,47.06794],[9.10949,47.06718],[9.10987,47.06666],[9.11017,47.06608],[9.11051,47.06584],[9.11121,47.06568],[9.1117,47.06572],[9.11246,47.06606],[9.11276,47.06614],[9.11468,47.0665],[9.11493,47.06653],[9.11558,47.06651],[9.11606,47.06644],[9.11646,47.06626],[9.11674,47.06598],[9.11701,47.06546],[9.11744,47.06496],[9.11755,47.06482],[9.11761,47.06466],[9.11763,47.0645],[9.11759,47.06416],[9.11762,47.06389],[9.11759,47.06374],[9.11753,47.0636],[9.11722,47.06308],[9.11702,47.06285],[9.11616,47.06212],[9.11598,47.06194],[9.11583,47.06161],[9.11588,47.06126],[9.11612,47.06096],[9.1163,47.06083],[9.11674,47.06067],[9.11724,47.06063],[9.11749,47.06066],[9.11774,47.06072],[9.11775,47.06072],[9.11783,47.06075],[9.11794,47.06077],[9.11828,47.06084],[9.11851,47.06087],[9.11933,47.06095],[9.12003,47.06115],[9.1205,47.06118],[9.12074,47.06115],[9.12096,47.06109],[9.12329,47.06031],[9.12406,47.06021],[9.12458,47.06032],[9.12706,47.06118],[9.1273,47.06125],[9.12755,47.06128],[9.12781,47.06127],[9.1283,47.06117],[9.12856,47.06103],[9.12876,47.0609],[9.1289,47.06074],[9.12899,47.06056],[9.12903,47.06038],[9.12901,47.06019],[9.12894,47.06001],[9.12577,47.05466],[9.12565,47.05435],[9.12457,47.04921],[9.12455,47.049],[9.12458,47.04883],[9.12478,47.04853],[9.12513,47.04829],[9.12602,47.048],[9.12639,47.04775],[9.12651,47.04759],[9.12671,47.04724],[9.12699,47.0466],[9.12752,47.04584],[9.12759,47.04551],[9.12747,47.04504],[9.12748,47.04484],[9.1276,47.04416],[9.12766,47.04396],[9.12792,47.04361],[9.12831,47.04332],[9.12844,47.04315],[9.12869,47.04248],[9.13035,47.04099],[9.13057,47.04083],[9.13079,47.04072],[9.13109,47.04063],[9.13413,47.03995],[9.13738,47.03928],[9.13792,47.03923],[9.13865,47.03943],[9.14801,47.04416],[9.14935,47.04487],[9.15001,47.04561],[9.15124,47.04629],[9.15261,47.04666],[9.15351,47.04729],[9.15436,47.04753],[9.15584,47.04784],[9.15774,47.04799],[9.15866,47.04821],[9.1591,47.04847],[9.15967,47.04897],[9.16015,47.04917],[9.16083,47.0493],[9.16217,47.04941],[9.16287,47.04955],[9.16542,47.0499],[9.16612,47.04982],[9.16702,47.04954],[9.16784,47.04956],[9.16876,47.04991],[9.16924,47.0503],[9.16953,47.05068],[9.16962,47.05114],[9.17007,47.05165],[9.17058,47.0519],[9.1711,47.05231],[9.17153,47.0525],[9.17203,47.05256],[9.17319,47.05255],[9.17375,47.05265],[9.1745,47.05296],[9.17497,47.0534],[9.17561,47.05388],[9.17646,47.05461],[9.17712,47.05496],[9.17756,47.05535],[9.17844,47.05597],[9.17902,47.05631],[9.17934,47.05668],[9.1801,47.0573],[9.18046,47.05749],[9.18131,47.05777],[9.18175,47.05799],[9.18211,47.05833],[9.1825,47.05886],[9.18347,47.05938],[9.18374,47.05963],[9.18424,47.06065],[9.18429,47.06111],[9.18465,47.06166],[9.1848,47.06219],[9.18473,47.06288],[9.18506,47.06341],[9.18519,47.06398],[9.18545,47.06431],[9.18679,47.06507],[9.18722,47.06551],[9.19019,47.06973],[9.19035,47.07006],[9.1909,47.07198],[9.19112,47.07227],[9.19147,47.07255],[9.19165,47.07289],[9.19162,47.07325],[9.19139,47.07357],[9.19094,47.07392],[9.19076,47.07428],[9.1907,47.0747],[9.19078,47.07515],[9.19083,47.07742],[9.19079,47.0777],[9.18926,47.08297],[9.1892,47.08349],[9.18893,47.08436],[9.18882,47.08515],[9.18881,47.08566],[9.18909,47.08631],[9.18921,47.08677],[9.1896,47.08761],[9.18958,47.08826],[9.19015,47.08982],[9.19016,47.09024],[9.18994,47.09059],[9.18943,47.09104],[9.189,47.09203],[9.18872,47.09254],[9.18819,47.09322],[9.18768,47.09394],[9.18744,47.09509],[9.18725,47.09583],[9.18682,47.0968],[9.18641,47.09737],[9.18629,47.09781],[9.1864,47.09829],[9.18637,47.09909],[9.18628,47.09996],[9.18664,47.10056],[9.18673,47.10088],[9.18671,47.10176],[9.1868,47.10205],[9.18705,47.10232],[9.18778,47.10283],[9.18797,47.10324],[9.18856,47.10393],[9.18879,47.10498],[9.18879,47.10544],[9.18891,47.10606],[9.18873,47.10646],[9.1884,47.10685],[9.18827,47.10722],[9.18839,47.10764],[9.18857,47.10789],[9.18911,47.10836],[9.18965,47.10914],[9.18998,47.10979],[9.18998,47.11047],[9.18967,47.11102],[9.18925,47.11153],[9.1891,47.11184],[9.18915,47.11271],[9.18911,47.11345],[9.18901,47.11442],[9.18878,47.1151],[9.18874,47.11543],[9.18881,47.11586],[9.18976,47.12283],[9.18963,47.12336],[9.18934,47.12362],[9.18863,47.12385],[9.14782,47.1289],[9.14759,47.12894],[9.13616,47.13192],[9.13567,47.13199],[9.11571,47.13274],[9.11515,47.13269],[9.11285,47.13222],[9.11039,47.13156],[9.10926,47.13135],[9.10811,47.13132],[9.10727,47.13139],[9.10626,47.13157],[9.10519,47.13186],[9.10395,47.13228],[9.10282,47.13275],[9.10197,47.13314],[9.10126,47.13324],[9.10079,47.13316],[9.09997,47.13279],[9.09973,47.13274],[9.09471,47.13187],[9.09385,47.13175],[9.09267,47.1317],[9.08813,47.13135],[9.08308,47.13094],[9.08144,47.13083],[9.07899,47.13059],[9.0745,47.13023],[9.06975,47.12983],[9.06876,47.12983],[9.06806,47.12999],[9.06743,47.13024],[9.06658,47.13068],[9.06616,47.13096],[9.06568,47.13138],[9.0649,47.13229],[9.06405,47.13309],[9.06308,47.13374],[9.0608,47.1351],[9.05879,47.13627],[9.05673,47.13741],[9.05478,47.13856],[9.05379,47.13924],[9.05064,47.14159],[9.02871,47.15739],[9.00808,47.1722],[9.00667,47.17322],[9.00599,47.1735],[9.00526,47.17348],[9.00461,47.17317],[9.00258,47.1715],[9.00069,47.16991],[8.99368,47.1641],[8.99316,47.16366],[8.9916,47.16213],[8.98921,47.15949],[8.97556,47.1442],[8.97527,47.14369],[8.97479,47.14325],[8.97461,47.14289],[8.97472,47.14231],[8.97469,47.14198],[8.97446,47.14136],[8.97385,47.14047],[8.97336,47.14001],[8.97285,47.13967],[8.97244,47.1391],[8.9721,47.1388],[8.97177,47.1386],[8.97046,47.13816],[8.96888,47.13738],[8.9683,47.13704],[8.96799,47.13656],[8.96813,47.13604],[8.96848,47.13569],[8.96906,47.13493],[8.9692,47.13459],[8.96915,47.13425],[8.96891,47.13394],[8.96846,47.13362],[8.96825,47.13309],[8.96842,47.13262],[8.96845,47.13227],[8.96861,47.13187],[8.96863,47.13154],[8.96878,47.1312],[8.96913,47.13071],[8.96913,47.13036],[8.96893,47.13004],[8.96858,47.12975],[8.96839,47.12947],[8.9682,47.12873],[8.9679,47.12818],[8.96782,47.12746],[8.96771,47.12713],[8.9677,47.12671],[8.96752,47.12635],[8.96721,47.12601],[8.96699,47.12561],[8.96634,47.12503],[8.96588,47.12409],[8.96581,47.12383],[8.96586,47.12343],[8.96579,47.12312],[8.96533,47.12233],[8.96522,47.12201],[8.96532,47.12149],[8.96544,47.1213],[8.96677,47.11963],[8.96718,47.1193],[8.96768,47.11913],[8.96826,47.11883],[8.96882,47.11868],[8.96984,47.1183],[8.97035,47.11822],[8.97121,47.11818],[8.97169,47.11807],[8.97208,47.11785],[8.97287,47.11694],[8.973,47.11673],[8.97358,47.11535],[8.97358,47.11484],[8.97323,47.11407],[8.97297,47.11374],[8.97249,47.11342],[8.97197,47.11288],[8.97159,47.11265],[8.97128,47.11236],[8.97106,47.11166],[8.97113,47.11095],[8.97109,47.11014],[8.97089,47.10982],[8.97025,47.10921],[8.96985,47.10896],[8.96958,47.10863],[8.96954,47.10825],[8.96989,47.10758],[8.9702,47.1072],[8.97055,47.10693],[8.97077,47.10666],[8.97086,47.10626],[8.97081,47.10586],[8.9712,47.1048],[8.97115,47.10449],[8.97093,47.10417],[8.97039,47.10378],[8.9692,47.10345],[8.96758,47.10279],[8.96659,47.10256],[8.96585,47.10233],[8.96468,47.10209],[8.96425,47.10192],[8.96338,47.10122],[8.96295,47.10105],[8.962,47.10081],[8.96093,47.10045],[8.96009,47.10021],[8.95969,47.1],[8.95902,47.0994],[8.9588,47.09908],[8.95859,47.09854],[8.95816,47.09798],[8.95742,47.09747],[8.9572,47.09708],[8.95713,47.09667],[8.95688,47.09633],[8.95674,47.09599],[8.95649,47.09568],[8.95582,47.09527],[8.9552,47.0946],[8.95453,47.09426],[8.95422,47.09397],[8.95402,47.09346],[8.95396,47.09253],[8.95389,47.09201],[8.95403,47.09137],[8.9544,47.09092],[8.95483,47.09071],[8.95534,47.09063],[8.95589,47.09065],[8.9564,47.09057],[8.95683,47.09036],[8.95709,47.0901],[8.95776,47.08978],[8.95946,47.0896],[8.96034,47.08956],[8.96087,47.08946],[8.96146,47.08921],[8.96257,47.08898],[8.96298,47.0888],[8.96357,47.08864],[8.9644,47.08832],[8.96561,47.08807],[8.96619,47.08788],[8.96735,47.08742],[8.96839,47.08718],[8.96882,47.08712],[8.97015,47.08714],[8.97126,47.08706],[8.97238,47.08683],[8.97316,47.08678],[8.97342,47.08671],[8.97416,47.08634],[8.97457,47.08589],[8.97454,47.08536],[8.97428,47.08506],[8.97155,47.08365],[8.97052,47.08305],[8.96975,47.08265],[8.96925,47.08217],[8.96813,47.08157],[8.96737,47.08138],[8.96679,47.08099],[8.96664,47.08065],[8.96673,47.08013],[8.96663,47.07978],[8.96634,47.07948],[8.96602,47.07929],[8.96545,47.07877],[8.96511,47.07828],[8.96445,47.07778],[8.96376,47.07746],[8.9619,47.07632],[8.96163,47.07602],[8.9616,47.07549],[8.96192,47.07495],[8.96195,47.0746],[8.96185,47.07425],[8.96193,47.07319],[8.9616,47.07249],[8.96157,47.07148],[8.96127,47.07101],[8.96088,47.0708],[8.96006,47.07063],[8.95962,47.07042],[8.95905,47.06976],[8.95874,47.06888],[8.95832,47.06815],[8.95802,47.06773],[8.95757,47.06739],[8.95721,47.06687],[8.95643,47.06606],[8.95613,47.06582],[8.95502,47.06536],[8.95468,47.06511],[8.95438,47.06457],[8.9539,47.06405],[8.95325,47.06342],[8.95303,47.06289],[8.95261,47.06232],[8.9525,47.06164],[8.95233,47.06134],[8.95201,47.0611],[8.95148,47.06088],[8.95098,47.06043],[8.95083,47.05989],[8.95054,47.05942],[8.95046,47.05886],[8.95029,47.05853],[8.95017,47.05806],[8.94981,47.05765],[8.94938,47.05679],[8.94939,47.05646],[8.94959,47.05584],[8.94954,47.05542],[8.94958,47.05498],[8.94918,47.05392],[8.94893,47.05356],[8.94885,47.05313],[8.94896,47.05199],[8.94853,47.05076],[8.94835,47.04988]]]},"properties":{"bfs_nr":1630,"name":"Glarus Nord"}},{"type":"Feature","geometry":{"type":"Polygon","coordinates":[[[8.87311,46.8412],[8.87329,46.8409],[8.8736,46.84057],[8.87394,46.83983],[8.87396,46.83952],[8.87375,46.83888],[8.87376,46.83837],[8.87397,46.83786],[8.87448,46.83728],[8.87457,46.83675],[8.87448,46.83638],[8.87451,46.83603],[8.87444,46.8354],[8.87459,46.83506],[8.8751,46.83466],[8.87587,46.83425],[8.87718,46.8334],[8.88135,46.82935],[8.88159,46.82889],[8.88159,46.82873],[8.88021,46.82035],[8.87991,46.81987],[8.87642,46.81707],[8.87614,46.81678],[8.8757,46.81611],[8.87566,46.8158],[8.87598,46.81492],[8.87675,46.81367],[8.8771,46.81332],[8.87758,46.81313],[8.8779,46.81308],[8.87844,46.81311],[8.87982,46.81345],[8.88029,46.81347],[8.88167,46.8137],[8.88225,46.81393],[8.88398,46.81411],[8.88501,46.81393],[8.8853,46.81394],[8.88622,46.81412],[8.88776,46.81422],[8.88834,46.81435],[8.88891,46.81436],[8.89022,46.81411],[8.89117,46.81356],[8.89195,46.8134],[8.89229,46.81343],[8.89321,46.81366],[8.8939,46.81376],[8.89512,46.81383],[8.89673,46.81413],[8.89761,46.81413],[8.89827,46.8142],[8.89874,46.81415],[8.89958,46.81388],[8.89995,46.81362],[8.90016,46.8131],[8.90009,46.81267],[8.90023,46.81232],[8.9008,46.8119],[8.90138,46.81169],[8.90237,46.81148],[8.9034,46.81113],[8.9046,46.81082],[8.90533,46.81071],[8.9061,46.81065],[8.90702,46.8103],[8.90796,46.8102],[8.90842,46.81029],[8.90891,46.81048],[8.90942,46.81057],[8.90986,46.81072],[8.91086,46.81094],[8.9113,46.81107],[8.91277,46.81134],[8.91374,46.81134],[8.9142,46.8112],[8.91455,46.81096],[8.91477,46.81047],[8.91454,46.80969],[8.91456,46.80902],[8.91443,46.80845],[8.91462,46.80804],[8.91475,46.8073],[8.91477,46.80677],[8.91496,46.80637],[8.91521,46.80566],[8.91517,46.80528],[8.91482,46.80472],[8.91476,46.80429],[8.91447,46.80359],[8.91441,46.80301],[8.91417,46.80265],[8.91364,46.80217],[8.91351,46.80183],[8.91357,46.80148],[8.91404,46.80098],[8.91429,46.80058],[8.91457,46.80033],[8.91528,46.79991],[8.91567,46.7994],[8.91608,46.79905],[8.9164,46.79893],[8.91709,46.79878],[8.91766,46.79879],[8.91818,46.79871],[8.91915,46.79823],[8.92001,46.79814],[8.92156,46.79821],[8.92279,46.7982],[8.92365,46.79829],[8.92396,46.79827],[8.92538,46.79805],[8.92637,46.79778],[8.92682,46.79757],[8.92724,46.79721],[8.92762,46.79698],[8.92812,46.79684],[8.92892,46.79692],[8.92991,46.79737],[8.93083,46.79759],[8.93277,46.79777],[8.93326,46.79794],[8.93374,46.79819],[8.93505,46.79871],[8.93574,46.79886],[8.93631,46.79885],[8.9371,46.79893],[8.93874,46.79923],[8.9394,46.79929],[8.94013,46.79943],[8.94051,46.7996],[8.94111,46.80014],[8.94141,46.80055],[8.94172,46.8008],[8.94246,46.80113],[8.94307,46.80154],[8.94434,46.80193],[8.94487,46.80221],[8.94513,46.80228],[8.94639,46.80243],[8.94743,46.80233],[8.95019,46.80263],[8.95086,46.80292],[8.95151,46.80358],[8.95194,46.80393],[8.95263,46.80439],[8.95317,46.80479],[8.95365,46.80499],[8.9542,46.80503],[8.95585,46.80487],[8.9568,46.80472],[8.95755,46.80454],[8.95835,46.80464],[8.96087,46.80549],[8.96161,46.80565],[8.96226,46.80574],[8.96365,46.80584],[8.96459,46.80606],[8.96536,46.80638],[8.96605,46.80647],[8.96688,46.80636],[8.96801,46.80642],[8.96898,46.8064],[8.96936,46.80648],[8.97046,46.8068],[8.97112,46.80694],[8.97248,46.80707],[8.97359,46.80712],[8.97426,46.8072],[8.97602,46.80754],[8.97721,46.80765],[8.97791,46.8076],[8.97902,46.80735],[8.98041,46.80722],[8.98105,46.8073],[8.98166,46.80748],[8.98268,46.80769],[8.9839,46.8081],[8.98557,46.80842],[8.98644,46.80844],[8.98769,46.80831],[8.98809,46.80834],[8.99018,46.80865],[8.99107,46.80884],[8.99355,46.80958],[8.99441,46.80981],[8.99517,46.80997],[8.99613,46.81034],[8.9969,46.81051],[8.999,46.81083],[9.00852,46.81116],[9.00886,46.8112],[9.00941,46.81139],[9.0176,46.81596],[9.01958,46.8171],[9.01983,46.81727],[9.02009,46.81767],[9.02134,46.82157],[9.02154,46.82188],[9.02414,46.8245],[9.02526,46.82553],[9.02552,46.82587],[9.02734,46.82981],[9.0275,46.83004],[9.02924,46.83182],[9.02991,46.83288],[9.03017,46.83315],[9.03132,46.83397],[9.03189,46.83427],[9.03351,46.83487],[9.03376,46.83499],[9.03418,46.83539],[9.03425,46.83572],[9.03414,46.83633],[9.03415,46.83661],[9.03405,46.83764],[9.03373,46.83856],[9.03376,46.83908],[9.03429,46.83987],[9.03457,46.84038],[9.0353,46.84146],[9.03561,46.84185],[9.03596,46.84243],[9.03666,46.84323],[9.03686,46.84355],[9.03697,46.84397],[9.03728,46.84437],[9.03768,46.84522],[9.03875,46.84645],[9.03929,46.84695],[9.03973,46.84725],[9.04014,46.84743],[9.0408,46.84787],[9.0425,46.84865],[9.04363,46.84904],[9.0448,46.84936],[9.0454,46.84965],[9.04586,46.85006],[9.04601,46.85038],[9.04599,46.85086],[9.0458,46.85139],[9.04569,46.85193],[9.04523,46.85297],[9.04505,46.85348],[9.04484,46.85468],[9.0447,46.855],[9.04431,46.85544],[9.04421,46.85582],[9.04424,46.85652],[9.04445,46.85718],[9.04441,46.85778],[9.04458,46.85833],[9.04458,46.8588],[9.04478,46.85939],[9.04505,46.85989],[9.04509,46.86015],[9.04512,46.86354],[9.04516,46.86479],[9.04529,46.86516],[9.04575,46.86556],[9.04657,46.86592],[9.04743,46.86656],[9.04821,46.86696],[9.04859,46.86708],[9.04997,46.86738],[9.05064,46.86747],[9.05121,46.8675],[9.05182,46.86767],[9.05233,46.86791],[9.05279,46.86804],[9.05431,46.86829],[9.05475,46.86852],[9.05539,46.86923],[9.05576,46.86945],[9.05683,46.86991],[9.05715,46.87014],[9.05784,46.87116],[9.05807,46.87141],[9.06101,46.87371],[9.06132,46.87389],[9.06213,46.87423],[9.06404,46.87495],[9.0648,46.87506],[9.06563,46.87487],[9.0659,46.87485],[9.06666,46.87495],[9.06755,46.87489],[9.06846,46.87479],[9.0695,46.87496],[9.07012,46.87502],[9.07097,46.87523],[9.07164,46.87534],[9.07215,46.87536],[9.07361,46.87511],[9.07418,46.87512],[9.07495,46.87524],[9.07568,46.87518],[9.07659,46.87516],[9.077,46.87507],[9.07772,46.8747],[9.07862,46.87439],[9.07906,46.87414],[9.07977,46.87396],[9.08064,46.8737],[9.08149,46.87356],[9.08249,46.87327],[9.08315,46.87312],[9.08402,46.87282],[9.08467,46.87243],[9.08514,46.87231],[9.0874,46.87234],[9.08779,46.87227],[9.08873,46.87197],[9.08987,46.87175],[9.09108,46.87165],[9.09172,46.87145],[9.09215,46.87126],[9.09278,46.87109],[9.09366,46.87098],[9.09412,46.87082],[9.09445,46.87055],[9.09462,46.87004],[9.09435,46.8692],[9.09441,46.86848],[9.09463,46.86773],[9.09484,46.86743],[9.09519,46.86719],[9.09561,46.86705],[9.09598,46.86684],[9.09625,46.86654],[9.09677,46.86613],[9.10102,46.86179],[9.10333,46.85992],[9.10364,46.85939],[9.10391,46.85598],[9.10441,46.85364],[9.10482,46.85267],[9.10515,46.85239],[9.10542,46.85227],[9.10922,46.85088],[9.10952,46.85079],[9.11108,46.85045],[9.11154,46.85046],[9.11218,46.85063],[9.11259,46.85089],[9.11297,46.85133],[9.11343,46.85162],[9.11383,46.85202],[9.11416,46.85226],[9.11481,46.8525],[9.11543,46.8526],[9.11671,46.85298],[9.11728,46.85341],[9.11801,46.8538],[9.11894,46.85438],[9.11966,46.85473],[9.12013,46.85484],[9.12141,46.85499],[9.12217,46.85489],[9.12266,46.85492],[9.12398,46.85538],[9.12475,46.85548],[9.12588,46.85592],[9.12637,46.85617],[9.12679,46.85652],[9.12709,46.85699],[9.12751,46.85735],[9.12769,46.85759],[9.12812,46.85842],[9.12836,46.85871],[9.12913,46.8591],[9.13011,46.85937],[9.13082,46.85966],[9.13164,46.85973],[9.13242,46.85963],[9.13277,46.85966],[9.13347,46.85983],[9.13389,46.86003],[9.13452,46.86048],[9.13629,46.86126],[9.13773,46.86166],[9.13978,46.86188],[9.1402,46.86206],[9.1405,46.86233],[9.14063,46.86266],[9.14057,46.8632],[9.14065,46.86352],[9.14089,46.8638],[9.14129,46.86403],[9.14157,46.86431],[9.14168,46.86463],[9.14171,46.8653],[9.14203,46.86572],[9.1429,46.86625],[9.14341,46.8669],[9.14396,46.86728],[9.1442,46.86759],[9.1445,46.86835],[9.1445,46.86919],[9.1447,46.86951],[9.14514,46.86987],[9.14547,46.87027],[9.14618,46.87075],[9.14655,46.87109],[9.14739,46.87147],[9.14809,46.87198],[9.14886,46.87228],[9.15007,46.87247],[9.15057,46.87249],[9.15171,46.87238],[9.15224,46.87228],[9.15306,46.87239],[9.15452,46.87294],[9.15523,46.87341],[9.15587,46.8737],[9.15619,46.87395],[9.15636,46.87427],[9.15624,46.87481],[9.15411,46.87812],[9.15403,46.87866],[9.15442,46.87914],[9.15514,46.87937],[9.15623,46.87942],[9.1568,46.87959],[9.15777,46.87966],[9.15907,46.87953],[9.16135,46.87935],[9.16871,46.87925],[9.17737,46.87911],[9.17755,46.8791],[9.18198,46.8786],[9.18317,46.87837],[9.18477,46.87796],[9.18613,46.87756],[9.18702,46.87713],[9.18775,46.87703],[9.18845,46.87723],[9.18884,46.87748],[9.18942,46.87767],[9.19101,46.87852],[9.19166,46.87878],[9.19232,46.87894],[9.19305,46.87905],[9.19399,46.87936],[9.19486,46.87953],[9.1953,46.87973],[9.19575,46.88006],[9.19635,46.88028],[9.19756,46.88055],[9.19813,46.88057],[9.19876,46.88046],[9.19934,46.88049],[9.19976,46.88063],[9.20066,46.88122],[9.20116,46.88184],[9.20206,46.88264],[9.20265,46.88296],[9.20307,46.88308],[9.2036,46.88313],[9.20402,46.88328],[9.20434,46.88353],[9.20525,46.88514],[9.20536,46.88552],[9.20589,46.88611],[9.20612,46.88672],[9.20645,46.88707],[9.20712,46.88741],[9.20858,46.88794],[9.20898,46.88812],[9.21096,46.88927],[9.21129,46.88957],[9.21268,46.89146],[9.21324,46.89185],[9.21384,46.89199],[9.21429,46.8922],[9.21458,46.89252],[9.21485,46.89296],[9.21527,46.89325],[9.21573,46.89369],[9.21646,46.89412],[9.21766,46.89473],[9.21892,46.89605],[9.21952,46.89687],[9.21989,46.89711],[9.22045,46.8976],[9.22127,46.89816],[9.2217,46.89879],[9.22213,46.8992],[9.22237,46.89957],[9.2231,46.90033],[9.22353,46.90072],[9.22425,46.90121],[9.22453,46.90168],[9.22456,46.90193],[9.22494,46.90286],[9.22526,46.90351],[9.22582,46.90416],[9.22628,46.90456],[9.22646,46.90488],[9.22663,46.9054],[9.22695,46.90569],[9.22743,46.9059],[9.22852,46.9062],[9.22932,46.9063],[9.22996,46.90643],[9.23114,46.90676],[9.23189,46.90706],[9.23252,46.90742],[9.23308,46.90755],[9.23351,46.90772],[9.23419,46.90814],[9.23468,46.90827],[9.23517,46.90829],[9.23638,46.90843],[9.23681,46.90843],[9.23763,46.90831],[9.23835,46.90815],[9.23916,46.90802],[9.23966,46.90805],[9.24011,46.9082],[9.24059,46.90864],[9.2409,46.90907],[9.24168,46.91098],[9.24217,46.91148],[9.24299,46.91199],[9.24356,46.91245],[9.24415,46.91325],[9.24445,46.91399],[9.24469,46.91434],[9.24504,46.91456],[9.24646,46.91497],[9.24733,46.91528],[9.24829,46.91575],[9.24869,46.91605],[9.24885,46.91639],[9.24885,46.9168],[9.24903,46.91761],[9.24926,46.91817],[9.24953,46.91902],[9.24994,46.91976],[9.25122,46.92139],[9.25135,46.92161],[9.25153,46.92225],[9.25152,46.92279],[9.25131,46.92313],[9.25063,46.92386],[9.25052,46.92436],[9.25067,46.92468],[9.25122,46.92528],[9.25168,46.92561],[9.25213,46.92619],[9.25252,46.92696],[9.25253,46.92729],[9.25237,46.92776],[9.25197,46.9283],[9.25189,46.9286],[9.25155,46.92899],[9.25136,46.92932],[9.2513,46.93002],[9.25137,46.93045],[9.25139,46.93116],[9.25128,46.93156],[9.25093,46.93204],[9.25069,46.93298],[9.25065,46.9334],[9.25033,46.93434],[9.24997,46.93486],[9.2488,46.93563],[9.24801,46.93592],[9.24753,46.93622],[9.24622,46.93663],[9.24498,46.93723],[9.24359,46.93769],[9.24294,46.93786],[9.24203,46.93823],[9.24111,46.93851],[9.24044,46.93893],[9.23983,46.93918],[9.23949,46.93945],[9.23932,46.93979],[9.23934,46.94089],[9.23878,46.94175],[9.2383,46.94237],[9.23811,46.94281],[9.23783,46.94322],[9.23763,46.94376],[9.23725,46.94412],[9.23672,46.94446],[9.2364,46.94478],[9.2363,46.9451],[9.2363,46.94555],[9.23639,46.94603],[9.23702,46.94734],[9.23714,46.94797],[9.2371,46.94853],[9.23672,46.94923],[9.23668,46.94978],[9.23694,46.9505],[9.23699,46.95085],[9.23683,46.95146],[9.23687,46.95206],[9.2366,46.95271],[9.23658,46.95296],[9.23671,46.95415],[9.23684,46.95447],[9.23712,46.95473],[9.23773,46.95498],[9.24047,46.95553],[9.24321,46.95601],[9.24441,46.9564],[9.24477,46.95668],[9.245,46.95709],[9.24576,46.95813],[9.24596,46.95847],[9.24608,46.95885],[9.24594,46.95956],[9.24582,46.95984],[9.24508,46.96104],[9.2446,46.96161],[9.24439,46.96232],[9.24392,46.96294],[9.24343,46.96395],[9.24332,46.96434],[9.24293,46.96513],[9.24276,46.96576],[9.24292,46.9664],[9.24298,46.96694],[9.24318,46.96741],[9.2432,46.9677],[9.24337,46.96806],[9.24352,46.96872],[9.24385,46.96921],[9.24396,46.96985],[9.24406,46.97091],[9.24432,46.97125],[9.24469,46.97147],[9.24497,46.97175],[9.2451,46.97213],[9.24517,46.97296],[9.24542,46.9733],[9.24591,46.97371],[9.24607,46.97409],[9.24669,46.97527],[9.24678,46.97563],[9.24646,46.97734],[9.24641,46.97784],[9.24654,46.97831],[9.24647,46.97866],[9.24621,46.97897],[9.24522,46.97955],[9.24479,46.97994],[9.24444,46.98036],[9.24406,46.98071],[9.24374,46.98179],[9.2437,46.98213],[9.24384,46.98247],[9.2441,46.98278],[9.24429,46.98317],[9.24478,46.98358],[9.24503,46.98394],[9.24517,46.98442],[9.24521,46.98491],[9.24538,46.98524],[9.24592,46.98573],[9.24655,46.98703],[9.24656,46.98753],[9.24638,46.98786],[9.24591,46.98832],[9.24578,46.98864],[9.24587,46.98964],[9.24574,46.99006],[9.2457,46.99047],[9.24538,46.99113],[9.24541,46.99168],[9.24558,46.99215],[9.24629,46.99303],[9.24676,46.99335],[9.24702,46.99366],[9.24746,46.99442],[9.24786,46.9947],[9.24893,46.995],[9.24931,46.99524],[9.24953,46.99557],[9.24953,46.99629],[9.24971,46.9971],[9.24973,46.99762],[9.24954,46.99814],[9.24867,46.99925],[9.24816,47.00024],[9.2478,47.00058],[9.2473,47.00093],[9.24684,47.00153],[9.24593,47.00298],[9.2456,47.00326],[9.24517,47.00346],[9.24484,47.00373],[9.24469,47.00407],[9.24461,47.00463],[9.24446,47.005],[9.24338,47.00599],[9.24313,47.00685],[9.24288,47.00737],[9.24288,47.00792],[9.24249,47.00847],[9.24237,47.00879],[9.24238,47.00939],[9.24221,47.01019],[9.24237,47.01075],[9.24241,47.0112],[9.2423,47.01181],[9.24225,47.0125],[9.24232,47.013],[9.24275,47.01424],[9.24283,47.01483],[9.24262,47.01529],[9.24192,47.0162],[9.24171,47.01673],[9.24138,47.01727],[9.24108,47.01758],[9.24043,47.01794],[9.2402,47.01822],[9.23998,47.01875],[9.23975,47.01904],[9.23908,47.01953],[9.23882,47.02013],[9.23857,47.02044],[9.23786,47.02109],[9.23679,47.02173],[9.23653,47.02203],[9.23641,47.02255],[9.23647,47.02322],[9.23619,47.02373],[9.2356,47.02402],[9.23472,47.02416],[9.23423,47.02431],[9.23362,47.0246],[9.2327,47.02499],[9.23202,47.02524],[9.23044,47.02568],[9.23003,47.02589],[9.22948,47.02638],[9.22861,47.02681],[9.22838,47.0271],[9.22822,47.02757],[9.22825,47.02791],[9.22805,47.0284],[9.22759,47.02876],[9.22653,47.02929],[9.22557,47.02969],[9.22525,47.02987],[9.22478,47.03035],[9.22437,47.03085],[9.22382,47.03118],[9.22309,47.03146],[9.22261,47.03174],[9.22219,47.03223],[9.22161,47.03251],[9.22107,47.03263],[9.22026,47.03297],[9.21972,47.03303],[9.21884,47.03295],[9.21794,47.03309],[9.21744,47.03306],[9.21616,47.03284],[9.21536,47.03288],[9.21448,47.03308],[9.21403,47.03326],[9.21303,47.03353],[9.21267,47.03374],[9.21229,47.03414],[9.21159,47.03464],[9.21113,47.03485],[9.21005,47.03503],[9.2096,47.03524],[9.20922,47.03554],[9.20874,47.03571],[9.20803,47.03576],[9.20714,47.03568],[9.20665,47.03553],[9.2062,47.03526],[9.2051,47.03478],[9.2046,47.03472],[9.20406,47.03474],[9.20356,47.03484],[9.20274,47.03487],[9.20196,47.03502],[9.2014,47.03498],[9.20013,47.03454],[9.19873,47.03392],[9.1979,47.03371],[9.19685,47.03323],[9.19617,47.0331],[9.19553,47.03292],[9.19515,47.03271],[9.19481,47.03231],[9.1944,47.03206],[9.19307,47.03163],[9.19253,47.03136],[9.19201,47.03117],[9.19161,47.03091],[9.1906,47.03043],[9.19004,47.03006],[9.1894,47.02977],[9.1888,47.02932],[9.18828,47.02908],[9.18723,47.02882],[9.18677,47.02854],[9.18572,47.02814],[9.18528,47.02782],[9.18457,47.02753],[9.18349,47.02697],[9.18289,47.02674],[9.18151,47.02626],[9.18087,47.02608],[9.18016,47.02602],[9.17949,47.02615],[9.17912,47.02614],[9.17863,47.02625],[9.1779,47.02664],[9.17745,47.02682],[9.17716,47.02706],[9.17683,47.02748],[9.17616,47.02793],[9.17563,47.02837],[9.17517,47.02856],[9.17465,47.02861],[9.17407,47.02851],[9.17289,47.02801],[9.17207,47.02749],[9.17169,47.02732],[9.17089,47.02708],[9.16983,47.02671],[9.16934,47.02662],[9.16831,47.02658],[9.16697,47.02685],[9.16595,47.02692],[9.16569,47.02698],[9.16474,47.02738],[9.16438,47.02766],[9.16421,47.02795],[9.16378,47.02834],[9.16289,47.02866],[9.16207,47.02901],[9.16135,47.02923],[9.16053,47.02961],[9.16012,47.02989],[9.15964,47.03004],[9.15904,47.03011],[9.15852,47.0303],[9.15802,47.03039],[9.15751,47.03034],[9.15703,47.0302],[9.15647,47.0302],[9.15596,47.03034],[9.14859,47.03391],[9.13829,47.03902],[9.1378,47.03919],[9.1357,47.03962],[9.13538,47.03967],[9.13488,47.03963],[9.13443,47.03947],[9.1341,47.0392],[9.13386,47.03864],[9.13373,47.03848],[9.13355,47.03834],[9.13334,47.03823],[9.13119,47.03732],[9.13076,47.03707],[9.13009,47.03655],[9.12994,47.03642],[9.12982,47.03627],[9.12952,47.03582],[9.1294,47.03559],[9.12915,47.03491],[9.12899,47.03465],[9.12835,47.03397],[9.12775,47.03354],[9.12743,47.03325],[9.1272,47.03287],[9.12703,47.0327],[9.12647,47.03225],[9.126,47.03202],[9.12518,47.03126],[9.12506,47.03102],[9.1244,47.02901],[9.12417,47.02854],[9.12353,47.02783],[9.12331,47.0272],[9.12292,47.02682],[9.12277,47.02646],[9.12287,47.02555],[9.12292,47.02481],[9.12289,47.02462],[9.12254,47.024],[9.12238,47.02384],[9.12217,47.02371],[9.12192,47.02362],[9.12167,47.02354],[9.12147,47.02345],[9.12107,47.02314],[9.12054,47.02265],[9.12047,47.02257],[9.12007,47.02215],[9.11986,47.02198],[9.11875,47.02126],[9.11858,47.02113],[9.11815,47.02078],[9.11797,47.02065],[9.11701,47.02021],[9.11661,47.01998],[9.11646,47.01986],[9.11633,47.01969],[9.11632,47.01968],[9.11622,47.01943],[9.1161,47.01923],[9.11563,47.01876],[9.11535,47.01842],[9.11497,47.01802],[9.11461,47.01733],[9.11406,47.01686],[9.11394,47.0167],[9.11382,47.01635],[9.11389,47.01584],[9.11365,47.01535],[9.11281,47.01471],[9.11256,47.01456],[9.11176,47.01419],[9.11114,47.01402],[9.11057,47.01403],[9.11014,47.01416],[9.10963,47.01447],[9.10871,47.01497],[9.10742,47.01557],[9.10671,47.01585],[9.10654,47.01592],[9.10646,47.01595],[9.10613,47.01606],[9.10579,47.01615],[9.10445,47.01622],[9.10307,47.01644],[9.10262,47.01662],[9.10231,47.01691],[9.10219,47.01726],[9.1023,47.01766],[9.1024,47.01833],[9.10255,47.01874],[9.10267,47.01923],[9.10268,47.01947],[9.10264,47.01965],[9.10254,47.01983],[9.10239,47.01998],[9.1022,47.02012],[9.10141,47.02046],[9.10106,47.02053],[9.10078,47.02054],[9.10053,47.02052],[9.10008,47.02038],[9.09984,47.02025],[9.09975,47.02017],[9.09941,47.0199],[9.09923,47.01972],[9.09899,47.01945],[9.09849,47.01895],[9.09832,47.01884],[9.09812,47.01875],[9.0979,47.01868],[9.09767,47.01865],[9.09632,47.01863],[9.0949,47.01867],[9.09446,47.01878],[9.09393,47.019],[9.09291,47.01909],[9.09245,47.01902],[9.09179,47.01876],[9.09099,47.01833],[9.0906,47.0182],[9.08977,47.01805],[9.0889,47.01795],[9.0882,47.01768],[9.08734,47.01708],[9.08687,47.01697],[9.08638,47.01699],[9.08574,47.01723],[9.08498,47.01773],[9.08471,47.01798],[9.08458,47.01824],[9.08416,47.01942],[9.08412,47.01952],[9.08369,47.02042],[9.08365,47.02053],[9.08339,47.02143],[9.08337,47.02162],[9.0834,47.02233],[9.08324,47.02296],[9.083,47.02324],[9.08257,47.02348],[9.08131,47.02402],[9.08102,47.02428],[9.08093,47.02443],[9.08088,47.02459],[9.08085,47.02476],[9.08086,47.025],[9.08093,47.0252],[9.08103,47.02535],[9.08119,47.02554],[9.08128,47.02564],[9.08203,47.02631],[9.08223,47.02653],[9.08249,47.02689],[9.08259,47.02706],[9.08263,47.02722],[9.08264,47.02738],[9.08252,47.0277],[9.08225,47.02796],[9.08144,47.0283],[9.0792,47.02881],[9.07879,47.02899],[9.07814,47.02932],[9.07764,47.02941],[9.07701,47.02941],[9.07634,47.02959],[9.07583,47.02966],[9.07508,47.0295],[9.07464,47.02921],[9.07406,47.02895],[9.07356,47.02886],[9.07304,47.02892],[9.07264,47.02906],[9.07214,47.02915],[9.07163,47.0291],[9.07035,47.02858],[9.06822,47.02764],[9.06411,47.02594],[9.0634,47.02554],[9.06264,47.02536],[9.06163,47.02497],[9.0612,47.02485],[9.06066,47.02477],[9.06045,47.02471],[9.06021,47.0246],[9.06012,47.02455],[9.05993,47.02444],[9.05962,47.02422],[9.0591,47.02405],[9.05882,47.02403],[9.05877,47.02403],[9.05841,47.02401],[9.05803,47.02396],[9.05768,47.02389],[9.05746,47.02383],[9.05712,47.02377],[9.05623,47.02371],[9.05566,47.02352],[9.05504,47.02342],[9.05406,47.02345],[9.05381,47.02349],[9.05357,47.02356],[9.05342,47.02363],[9.0531,47.02378],[9.05309,47.02379],[9.05278,47.02392],[9.052,47.02401],[9.05125,47.02388],[9.05002,47.02388],[9.04954,47.02376],[9.04892,47.02343],[9.0482,47.02325],[9.04787,47.02314],[9.04775,47.0231],[9.04771,47.02309],[9.0477,47.02309],[9.04729,47.02297],[9.04724,47.02295],[9.04693,47.02281],[9.0467,47.02267],[9.0464,47.02254],[9.04595,47.02239],[9.04493,47.02222],[9.04389,47.02195],[9.04292,47.02181],[9.04269,47.0218],[9.04214,47.02178],[9.04142,47.02183],[9.04068,47.02161],[9.04045,47.02144],[9.0404,47.02139],[9.04025,47.02124],[9.04,47.02094],[9.03969,47.02064],[9.03893,47.02],[9.03875,47.01982],[9.03866,47.0197],[9.0386,47.01963],[9.03834,47.01929],[9.03713,47.01796],[9.03649,47.01744],[9.03625,47.01682],[9.03603,47.01652],[9.03574,47.01633],[9.03542,47.01598],[9.03527,47.01586],[9.03472,47.01548],[9.0347,47.01547],[9.03381,47.01484],[9.03373,47.01479],[9.03354,47.01468],[9.03337,47.01459],[9.03258,47.01424],[9.0317,47.01402],[9.03119,47.01396],[9.03048,47.01403],[9.02971,47.01401],[9.0292,47.01394],[9.02891,47.01383],[9.02878,47.01377],[9.0285,47.01366],[9.02829,47.01359],[9.02807,47.01355],[9.02734,47.01346],[9.02677,47.01335],[9.02644,47.01326],[9.02594,47.01302],[9.02567,47.01292],[9.02541,47.01284],[9.02529,47.01282],[9.02501,47.01278],[9.02481,47.01277],[9.02451,47.01274],[9.02437,47.01272],[9.02417,47.01268],[9.0234,47.0125],[9.02271,47.0124],[9.02171,47.01204],[9.02079,47.01139],[9.02053,47.01123],[9.02028,47.0111],[9.01967,47.01083],[9.01879,47.01024],[9.01821,47.00995],[9.01748,47.00939],[9.01727,47.0091],[9.01721,47.0084],[9.01717,47.00822],[9.01709,47.00805],[9.01696,47.00789],[9.01678,47.00776],[9.01657,47.00765],[9.01643,47.0076],[9.01603,47.00747],[9.01553,47.00727],[9.01543,47.00723],[9.01453,47.00682],[9.01299,47.00627],[9.0122,47.00609],[9.00978,47.00545],[9.00879,47.00534],[9.0085,47.00527],[9.00818,47.00517],[9.00791,47.00506],[9.00772,47.00495],[9.00753,47.00479],[9.00735,47.0046],[9.00719,47.00439],[9.00683,47.0038],[9.0066,47.00337],[9.00625,47.00309],[9.00533,47.0027],[9.00474,47.00258],[9.00404,47.00235],[9.00344,47.00224],[9.00217,47.00165],[9.00161,47.00149],[9.00112,47.00124],[9.0006,47.00105],[8.99995,47.00078],[8.99963,47.00061],[8.99939,47.00039],[8.99878,46.99969],[8.99867,46.99953],[8.9986,46.99936],[8.99856,46.99917],[8.9986,46.99884],[8.99853,46.9985],[8.99828,46.99821],[8.99761,46.99778],[8.9973,46.99736],[8.99694,46.99714],[8.9966,46.997],[8.99625,46.99673],[8.99614,46.99656],[8.99605,46.99611],[8.99583,46.99578],[8.99547,46.99548],[8.9952,46.99492],[8.99505,46.99475],[8.99485,46.99461],[8.99473,46.99454],[8.99454,46.99445],[8.99432,46.99438],[8.9933,46.99414],[8.99273,46.99394],[8.99246,46.99388],[8.99187,46.99382],[8.99144,46.9937],[8.99108,46.99348],[8.99036,46.9932],[8.98954,46.99296],[8.98902,46.99252],[8.98873,46.99178],[8.98868,46.99132],[8.9883,46.99083],[8.98746,46.99043],[8.98685,46.98995],[8.98627,46.98961],[8.9859,46.98943],[8.98505,46.98892],[8.98472,46.98855],[8.98451,46.9884],[8.984,46.98818],[8.98353,46.98787],[8.98318,46.98769],[8.98292,46.98747],[8.98269,46.98733],[8.98243,46.98723],[8.98223,46.98717],[8.98182,46.98701],[8.98163,46.98691],[8.98139,46.98675],[8.98099,46.98637],[8.98061,46.98619],[8.97973,46.98587],[8.97941,46.98558],[8.9793,46.98537],[8.97927,46.98531],[8.97921,46.98503],[8.9792,46.98483],[8.97917,46.98467],[8.97911,46.9845],[8.97907,46.98429],[8.97906,46.9842],[8.979,46.98399],[8.97878,46.98353],[8.97871,46.98329],[8.97871,46.98311],[8.97893,46.9825],[8.97881,46.98194],[8.97857,46.98153],[8.97849,46.98123],[8.97798,46.98057],[8.97796,46.98008],[8.97788,46.97974],[8.97761,46.97945],[8.97742,46.97934],[8.97697,46.97919],[8.97564,46.97896],[8.9754,46.97891],[8.97512,46.97883],[8.97484,46.97873],[8.97455,46.97858],[8.97436,46.97849],[8.97415,46.97843],[8.97393,46.97839],[8.97334,46.97834],[8.973,46.97828],[8.97274,46.97822],[8.97218,46.97802],[8.97162,46.9779],[8.97086,46.9776],[8.96928,46.97716],[8.9686,46.97705],[8.96814,46.97686],[8.96767,46.9765],[8.96752,46.97641],[8.96726,46.97628],[8.96707,46.9762],[8.96658,46.97604],[8.96556,46.97575],[8.96524,46.97567],[8.96499,46.9756],[8.96491,46.97557],[8.96468,46.97548],[8.96419,46.97518],[8.96396,46.97506],[8.96363,46.97494],[8.96339,46.97488],[8.96312,46.97479],[8.96308,46.97478],[8.96283,46.97466],[8.96274,46.97462],[8.96249,46.97446],[8.96248,46.97445],[8.96228,46.97427],[8.96196,46.97389],[8.96157,46.97367],[8.96062,46.9734],[8.96024,46.97324],[8.95976,46.97292],[8.9591,46.97276],[8.95824,46.97279],[8.95753,46.97258],[8.95702,46.97221],[8.95582,46.97158],[8.95563,46.9715],[8.95542,46.97144],[8.955,46.97134],[8.95436,46.97114],[8.95382,46.97106],[8.9531,46.97081],[8.95195,46.97061],[8.95172,46.97053],[8.95083,46.96999],[8.95013,46.96963],[8.94985,46.96931],[8.94956,46.96845],[8.94962,46.96811],[8.95012,46.96728],[8.95048,46.96701],[8.95112,46.96675],[8.95173,46.96624],[8.95267,46.96588],[8.95299,46.96561],[8.95322,46.96523],[8.9537,46.96478],[8.95395,46.9642],[8.95432,46.96386],[8.95556,46.96312],[8.95626,46.96291],[8.95729,46.96234],[8.95871,46.96211],[8.96061,46.96155],[8.96112,46.96153],[8.9616,46.96144],[8.96226,46.96116],[8.96305,46.96099],[8.96426,46.96093],[8.96512,46.96092],[8.96561,46.96079],[8.966,46.96061],[8.96667,46.96044],[8.96743,46.96001],[8.96833,46.9598],[8.96953,46.95981],[8.97,46.95969],[8.97037,46.95947],[8.9706,46.95916],[8.97064,46.95882],[8.97049,46.95849],[8.96997,46.95813],[8.96925,46.9579],[8.96862,46.95754],[8.96818,46.95737],[8.96765,46.95731],[8.96696,46.95703],[8.96652,46.9566],[8.96599,46.95634],[8.96515,46.95608],[8.96478,46.95582],[8.96442,46.9553],[8.96412,46.95506],[8.96352,46.95475],[8.96324,46.95443],[8.96267,46.954],[8.96248,46.95371],[8.96236,46.95332],[8.96215,46.95309],[8.96202,46.95275],[8.96192,46.95214],[8.96201,46.95128],[8.96198,46.95047],[8.96177,46.94937],[8.96156,46.94879],[8.96144,46.94796],[8.96116,46.94723],[8.96079,46.94694],[8.96036,46.94673],[8.96004,46.94642],[8.95972,46.94576],[8.95944,46.94544],[8.95886,46.94494],[8.95836,46.94445],[8.95807,46.94407],[8.95764,46.94335],[8.95752,46.94295],[8.95756,46.94262],[8.95747,46.94232],[8.95672,46.94103],[8.95664,46.94084],[8.95654,46.94016],[8.95568,46.93918],[8.95559,46.93864],[8.95589,46.93802],[8.956,46.93761],[8.95604,46.93707],[8.95636,46.93662],[8.95758,46.93593],[8.95783,46.93564],[8.95811,46.9351],[8.95819,46.93475],[8.95807,46.93441],[8.95772,46.934],[8.95765,46.93366],[8.95795,46.93313],[8.95942,46.93178],[8.95982,46.93159],[8.96029,46.93152],[8.96113,46.93156],[8.9616,46.93145],[8.96236,46.93114],[8.96287,46.93074],[8.96392,46.92914],[8.9641,46.92847],[8.96406,46.92812],[8.96376,46.92747],[8.9633,46.92687],[8.96304,46.92663],[8.96271,46.92647],[8.96195,46.92633],[8.96089,46.92642],[8.96012,46.92628],[8.95968,46.9261],[8.95918,46.92599],[8.95861,46.92601],[8.95812,46.92594],[8.95762,46.92578],[8.95693,46.92576],[8.9558,46.92603],[8.95528,46.92604],[8.95461,46.92593],[8.9542,46.92577],[8.95388,46.92552],[8.95329,46.92523],[8.95259,46.92511],[8.95165,46.92508],[8.95116,46.92512],[8.95037,46.92534],[8.94927,46.92537],[8.94876,46.92526],[8.94836,46.92502],[8.94805,46.92454],[8.94771,46.92419],[8.94672,46.92374],[8.94625,46.92364],[8.94572,46.92361],[8.94485,46.92332],[8.94435,46.92305],[8.94371,46.92251],[8.94324,46.92222],[8.94273,46.9221],[8.94206,46.92211],[8.94098,46.92229],[8.94048,46.92227],[8.93978,46.92209],[8.93937,46.92189],[8.93889,46.92135],[8.93824,46.92104],[8.93789,46.9208],[8.93739,46.92035],[8.93648,46.91999],[8.93611,46.91975],[8.9359,46.91942],[8.936,46.91885],[8.93766,46.91614],[8.93859,46.91432],[8.93958,46.9128],[8.93995,46.91216],[8.9404,46.91167],[8.94221,46.90985],[8.94241,46.90955],[8.94345,46.90651],[8.94357,46.90628],[8.94397,46.90594],[8.94546,46.90511],[8.94587,46.90469],[8.94665,46.90318],[8.94679,46.90297],[8.94742,46.90248],[8.94795,46.902],[8.94851,46.90168],[8.94894,46.90156],[8.94996,46.90157],[8.95094,46.90171],[8.95147,46.90164],[8.95188,46.90146],[8.95224,46.90115],[8.95282,46.90082],[8.95315,46.90053],[8.95328,46.90018],[8.95314,46.89942],[8.95291,46.89855],[8.95301,46.8982],[8.95396,46.89717],[8.95406,46.89686],[8.95405,46.89626],[8.95461,46.89443],[8.95617,46.89052],[8.95631,46.88977],[8.95716,46.88814],[8.95721,46.88765],[8.95684,46.88649],[8.95681,46.88613],[8.95764,46.88092],[8.95779,46.87967],[8.95773,46.87933],[8.95607,46.87567],[8.95598,46.87551],[8.95547,46.87515],[8.95062,46.87327],[8.9501,46.87316],[8.9488,46.87303],[8.94818,46.87278],[8.94758,46.87242],[8.94733,46.87234],[8.94635,46.87218],[8.94591,46.87199],[8.94556,46.87171],[8.94516,46.87148],[8.94413,46.87127],[8.94352,46.87111],[8.94284,46.8711],[8.94186,46.87089],[8.94125,46.87058],[8.94064,46.87],[8.93973,46.86937],[8.93914,46.86902],[8.93882,46.86876],[8.93806,46.86844],[8.93751,46.86812],[8.93614,46.86764],[8.93569,46.86739],[8.93526,46.86693],[8.9343,46.8662],[8.93405,46.86587],[8.9337,46.86561],[8.93299,46.86544],[8.93197,46.86548],[8.93148,46.86536],[8.93098,46.86509],[8.92986,46.86481],[8.92905,46.86471],[8.92799,46.86434],[8.92692,46.86425],[8.92645,46.86416],[8.92412,46.86349],[8.92333,46.86335],[8.92292,46.86319],[8.92164,46.86253],[8.92101,46.86217],[8.92028,46.86192],[8.91939,46.86147],[8.91802,46.86068],[8.91749,46.86055],[8.91658,46.86045],[8.91588,46.8602],[8.91474,46.86012],[8.91371,46.86015],[8.91295,46.86031],[8.91138,46.86035],[8.91035,46.86066],[8.90982,46.86078],[8.90934,46.8608],[8.90848,46.86059],[8.90773,46.86026],[8.90726,46.85976],[8.90612,46.85874],[8.9055,46.85833],[8.90481,46.85779],[8.90388,46.85724],[8.90311,46.8566],[8.90283,46.85627],[8.90252,46.85604],[8.90188,46.85575],[8.90141,46.85545],[8.90075,46.8549],[8.90045,46.85451],[8.90033,46.85418],[8.90011,46.85387],[8.8995,46.85326],[8.89933,46.85283],[8.89889,46.85232],[8.89743,46.85138],[8.8966,46.85082],[8.89616,46.85026],[8.89548,46.84959],[8.89505,46.8494],[8.89453,46.84927],[8.89336,46.84909],[8.89289,46.84894],[8.89187,46.84851],[8.8913,46.84845],[8.89079,46.84851],[8.88981,46.84842],[8.88884,46.84823],[8.88814,46.84779],[8.88768,46.84762],[8.88707,46.84752],[8.88649,46.84736],[8.886,46.84716],[8.8853,46.84677],[8.88438,46.84635],[8.88302,46.84599],[8.88105,46.84526],[8.88063,46.84515],[8.87992,46.84506],[8.87935,46.84491],[8.8785,46.84446],[8.87756,46.84406],[8.87684,46.84392],[8.87566,46.84378],[8.87532,46.84366],[8.87443,46.84321],[8.87382,46.84262],[8.87316,46.84214],[8.87296,46.84179],[8.87299,46.84142],[8.87311,46.8412]]]},"properties":{"bfs_nr":1631,"name":"Glarus S\u00fcd"}},{"type":"Feature","geometry":{"type":"Polygon","coordinates":[[[8.89386,47.02243],[8.89431,47.02178],[8.89523,47.02121],[8.8957,47.02107],[8.89633,47.02105],[8.89685,47.02092],[8.89722,47.02074],[8.89795,47.02063],[8.8989,47.02076],[8.89939,47.02092],[8.89989,47.02098],[8.90038,47.0209],[8.90178,47.02043],[8.90265,47.01992],[8.90365,47.01945],[8.90522,47.01876],[8.90657,47.01837],[8.90758,47.01792],[8.90902,47.0175],[8.90949,47.01744],[8.91002,47.01727],[8.91046,47.01703],[8.91077,47.01663],[8.91111,47.01574],[8.91119,47.01531],[8.91108,47.01498],[8.91079,47.01461],[8.91073,47.01415],[8.91166,47.0094],[8.91224,47.00876],[8.91244,47.00863],[8.91387,47.00806],[8.91453,47.00774],[8.91519,47.00758],[8.91571,47.00723],[8.91605,47.00665],[8.91671,47.00615],[8.91695,47.00581],[8.91703,47.00543],[8.91692,47.00434],[8.91695,47.0038],[8.91704,47.00348],[8.91757,47.00287],[8.91793,47.00262],[8.91823,47.00221],[8.9188,47.00163],[8.91924,47.00131],[8.91999,47.00105],[8.92073,47.00102],[8.92133,47.00121],[8.92182,47.00126],[8.92231,47.00118],[8.9228,47.00094],[8.92314,47.00059],[8.92391,47.00001],[8.92607,46.99868],[8.92725,46.99818],[8.9279,46.99786],[8.92838,46.99755],[8.92918,46.99687],[8.92974,46.99626],[8.93017,46.99567],[8.93047,46.99491],[8.93054,46.99457],[8.93085,46.99401],[8.93127,46.99361],[8.93145,46.99334],[8.93172,46.99256],[8.93208,46.9921],[8.93225,46.99176],[8.9324,46.99121],[8.93264,46.99089],[8.93359,46.99037],[8.93389,46.99008],[8.93409,46.98959],[8.93436,46.98932],[8.93508,46.98901],[8.93593,46.98878],[8.93625,46.98853],[8.93662,46.98769],[8.93699,46.9874],[8.93746,46.98724],[8.93798,46.98723],[8.93855,46.98735],[8.93921,46.98736],[8.93997,46.98747],[8.9405,46.98745],[8.94098,46.98729],[8.94132,46.98701],[8.94148,46.98666],[8.94133,46.98595],[8.94132,46.98544],[8.94104,46.98496],[8.94076,46.98466],[8.94034,46.98445],[8.93922,46.98404],[8.93676,46.98343],[8.93567,46.98314],[8.93448,46.98295],[8.93394,46.98276],[8.93331,46.9824],[8.93306,46.98212],[8.93298,46.98179],[8.93321,46.98128],[8.93534,46.97901],[8.94486,46.96812],[8.94544,46.96774],[8.94591,46.96765],[8.94663,46.96775],[8.9476,46.96819],[8.94863,46.96902],[8.9489,46.96917],[8.94995,46.96957],[8.9508,46.96997],[8.95154,46.97049],[8.95204,46.97069],[8.95322,46.97085],[8.95397,46.97112],[8.95437,46.97117],[8.95517,46.9714],[8.95568,46.97153],[8.95593,46.97164],[8.9569,46.97214],[8.95739,46.97252],[8.95777,46.97271],[8.95823,46.97279],[8.95906,46.97277],[8.95972,46.97293],[8.96025,46.97326],[8.96055,46.97337],[8.96161,46.9737],[8.96195,46.97392],[8.96231,46.9743],[8.96245,46.97443],[8.96253,46.97449],[8.9627,46.97459],[8.96287,46.97469],[8.96304,46.97476],[8.96317,46.97481],[8.96335,46.97487],[8.96354,46.97491],[8.96403,46.9751],[8.96468,46.97548],[8.96486,46.97556],[8.96503,46.97561],[8.9652,46.97566],[8.96552,46.97574],[8.96615,46.97593],[8.96662,46.97605],[8.96702,46.97618],[8.9673,46.9763],[8.96745,46.97637],[8.96769,46.97652],[8.96811,46.97686],[8.96877,46.97712],[8.96932,46.97718],[8.97076,46.97757],[8.97166,46.97796],[8.97211,46.97805],[8.97245,46.97816],[8.97306,46.97829],[8.97328,46.97833],[8.97386,46.97839],[8.97419,46.97844],[8.97443,46.97852],[8.97475,46.97869],[8.97506,46.97881],[8.97544,46.97892],[8.9756,46.97895],[8.97685,46.97917],[8.97734,46.97932],[8.97779,46.97971],[8.97793,46.98011],[8.97791,46.98058],[8.97803,46.98091],[8.97836,46.98124],[8.9788,46.98201],[8.97889,46.98237],[8.97884,46.9827],[8.97869,46.98303],[8.97868,46.98324],[8.97874,46.98344],[8.97897,46.98393],[8.97906,46.98426],[8.97907,46.98432],[8.9791,46.98446],[8.97916,46.98463],[8.9792,46.98487],[8.97921,46.98508],[8.97925,46.98526],[8.97931,46.98542],[8.9794,46.98559],[8.97972,46.98587],[8.98077,46.98627],[8.9813,46.98671],[8.9815,46.98684],[8.98189,46.98704],[8.98216,46.98715],[8.98264,46.98731],[8.98283,46.98742],[8.98306,46.98761],[8.98327,46.98775],[8.984,46.98818],[8.98461,46.98849],[8.98503,46.98892],[8.98581,46.98942],[8.98638,46.98968],[8.9868,46.98992],[8.98746,46.99043],[8.98829,46.99084],[8.98867,46.99132],[8.98872,46.99182],[8.98901,46.99252],[8.98954,46.99297],[8.99012,46.99314],[8.99094,46.99346],[8.99154,46.99375],[8.99181,46.99382],[8.99243,46.99387],[8.99321,46.99412],[8.99426,46.99437],[8.99453,46.99445],[8.99475,46.99456],[8.99498,46.99472],[8.99513,46.99489],[8.99534,46.99538],[8.99596,46.99603],[8.99608,46.99648],[8.99619,46.99667],[8.99652,46.99697],[8.99692,46.99715],[8.99727,46.9974],[8.99741,46.9976],[8.99776,46.99794],[8.99816,46.99819],[8.99849,46.99862],[8.99854,46.99919],[8.9986,46.99939],[8.99867,46.99953],[8.99876,46.99966],[8.99943,47.00044],[8.99963,47.00061],[8.99988,47.00075],[9.00062,47.00105],[9.00092,47.00117],[9.00168,47.00156],[9.0023,47.00171],[9.00351,47.00227],[9.00392,47.00234],[9.00453,47.00253],[9.00547,47.00277],[9.00636,47.00324],[9.00663,47.00349],[9.00721,47.00442],[9.00732,47.00456],[9.00756,47.00482],[9.00772,47.00496],[9.00791,47.00507],[9.00813,47.00515],[9.00856,47.00529],[9.00879,47.00534],[9.00985,47.00547],[9.01222,47.00609],[9.01306,47.0063],[9.01459,47.00684],[9.01545,47.00724],[9.01551,47.00726],[9.01609,47.0075],[9.01655,47.00765],[9.01693,47.00789],[9.01715,47.00822],[9.01721,47.00861],[9.01722,47.00903],[9.0174,47.00939],[9.01811,47.0099],[9.01885,47.01028],[9.01969,47.01086],[9.02021,47.01107],[9.02072,47.01134],[9.02153,47.01198],[9.02195,47.01218],[9.0228,47.01243],[9.02351,47.01252],[9.02421,47.01269],[9.02433,47.01271],[9.02456,47.01275],[9.02476,47.01277],[9.02494,47.01278],[9.02535,47.01283],[9.02574,47.01295],[9.02588,47.013],[9.02644,47.01326],[9.0267,47.01334],[9.02737,47.01347],[9.02829,47.0136],[9.02855,47.01368],[9.02873,47.01375],[9.02898,47.01387],[9.02918,47.01395],[9.02964,47.01403],[9.03041,47.01404],[9.03119,47.01397],[9.03176,47.01403],[9.03249,47.01422],[9.03303,47.0145],[9.03337,47.01461],[9.03364,47.01474],[9.0337,47.01478],[9.03383,47.01486],[9.03471,47.01548],[9.03472,47.01549],[9.03517,47.01579],[9.03586,47.01651],[9.03615,47.01711],[9.03641,47.01741],[9.03718,47.01801],[9.03833,47.01927],[9.03861,47.01964],[9.03864,47.01969],[9.03878,47.01985],[9.0389,47.01997],[9.03968,47.02063],[9.04027,47.02126],[9.04037,47.02137],[9.04052,47.0215],[9.0407,47.02164],[9.04117,47.02181],[9.04171,47.02185],[9.04197,47.02181],[9.04235,47.02179],[9.04292,47.02182],[9.04389,47.02196],[9.04484,47.02221],[9.04595,47.0224],[9.04719,47.02293],[9.04744,47.02303],[9.04786,47.02315],[9.04857,47.02339],[9.04898,47.02354],[9.04938,47.02377],[9.04982,47.0239],[9.05125,47.02389],[9.05201,47.02402],[9.0528,47.02393],[9.05303,47.02383],[9.05323,47.02372],[9.05338,47.02365],[9.05361,47.02356],[9.05389,47.02348],[9.05422,47.02345],[9.05512,47.02345],[9.05564,47.02354],[9.0562,47.02372],[9.05706,47.02377],[9.05797,47.02395],[9.05847,47.02401],[9.05894,47.02405],[9.05953,47.02421],[9.05997,47.02448],[9.0603,47.02465],[9.06052,47.02474],[9.06075,47.0248],[9.06115,47.02484],[9.06167,47.02498],[9.06264,47.02537],[9.0634,47.02554],[9.06405,47.02591],[9.06821,47.02764],[9.07034,47.02858],[9.07094,47.02901],[9.0716,47.02929],[9.07237,47.02927],[9.07295,47.02905],[9.07346,47.02896],[9.07397,47.02902],[9.07442,47.02921],[9.07493,47.02962],[9.0754,47.02977],[9.07674,47.02996],[9.07729,47.02991],[9.07775,47.0297],[9.07805,47.02942],[9.07878,47.029],[9.0792,47.02881],[9.08153,47.02828],[9.08225,47.02796],[9.08252,47.0277],[9.08264,47.02738],[9.08264,47.02722],[9.08259,47.02706],[9.08251,47.02692],[9.08221,47.02649],[9.08207,47.02635],[9.08131,47.02566],[9.08117,47.02551],[9.08106,47.02538],[9.08088,47.02504],[9.08086,47.0247],[9.08093,47.02443],[9.08102,47.02428],[9.08132,47.02402],[9.08261,47.02346],[9.08301,47.02324],[9.08325,47.02296],[9.0834,47.02237],[9.08337,47.02167],[9.08341,47.02138],[9.0837,47.02039],[9.08412,47.0195],[9.08415,47.01944],[9.08458,47.01824],[9.08471,47.01798],[9.08502,47.0177],[9.08579,47.01724],[9.08626,47.01713],[9.08676,47.01715],[9.08721,47.01729],[9.08775,47.01762],[9.0891,47.01803],[9.08979,47.01808],[9.0909,47.01831],[9.09172,47.01873],[9.09254,47.01906],[9.09302,47.01913],[9.09412,47.01907],[9.09455,47.01897],[9.09528,47.01869],[9.09629,47.01863],[9.09767,47.01866],[9.09791,47.0187],[9.09832,47.01885],[9.0985,47.01896],[9.09898,47.01944],[9.09926,47.01975],[9.09938,47.01987],[9.09976,47.02019],[9.09984,47.02024],[9.09988,47.02027],[9.10007,47.02039],[9.10029,47.02047],[9.10053,47.02052],[9.10078,47.02054],[9.10103,47.02053],[9.10111,47.02052],[9.10141,47.02046],[9.10207,47.02019],[9.10228,47.02008],[9.10245,47.01995],[9.10257,47.0198],[9.10266,47.01963],[9.10269,47.01946],[9.10268,47.01928],[9.10255,47.01871],[9.10242,47.01838],[9.10235,47.0178],[9.10225,47.01743],[9.10235,47.01691],[9.10266,47.01662],[9.10311,47.01644],[9.10438,47.01623],[9.10579,47.01615],[9.10606,47.01608],[9.10647,47.01594],[9.10652,47.01592],[9.10671,47.01585],[9.10745,47.01556],[9.10865,47.015],[9.10981,47.01438],[9.11019,47.01416],[9.11065,47.01403],[9.11115,47.01403],[9.11182,47.01422],[9.11249,47.01453],[9.11287,47.01475],[9.11364,47.01536],[9.11388,47.01585],[9.11382,47.01635],[9.11385,47.01651],[9.11392,47.01667],[9.11403,47.01686],[9.11415,47.017],[9.11464,47.01742],[9.11503,47.01811],[9.11538,47.01847],[9.11579,47.01896],[9.11606,47.01921],[9.11629,47.01962],[9.11635,47.01973],[9.11646,47.01986],[9.11664,47.02002],[9.11693,47.02018],[9.11796,47.02065],[9.11819,47.02081],[9.11861,47.02116],[9.11872,47.02124],[9.1198,47.02194],[9.12011,47.02219],[9.12048,47.02259],[9.12053,47.02264],[9.12108,47.02315],[9.1213,47.02334],[9.12153,47.02349],[9.12179,47.02359],[9.12204,47.02367],[9.12224,47.02376],[9.12256,47.02403],[9.12289,47.02463],[9.12291,47.02481],[9.12285,47.0253],[9.12285,47.02566],[9.12251,47.02655],[9.12259,47.0269],[9.12294,47.02731],[9.1233,47.02791],[9.12385,47.02841],[9.12397,47.02871],[9.12441,47.02916],[9.12452,47.02939],[9.1251,47.03114],[9.12519,47.03131],[9.12574,47.03193],[9.12607,47.03216],[9.12661,47.03239],[9.12709,47.03277],[9.12722,47.03291],[9.12742,47.03325],[9.1277,47.03351],[9.1284,47.03402],[9.12896,47.03462],[9.12916,47.03495],[9.12941,47.03563],[9.12949,47.03578],[9.12984,47.0363],[9.12994,47.03642],[9.13006,47.03653],[9.13082,47.03712],[9.13111,47.03728],[9.13329,47.03821],[9.13368,47.03845],[9.1339,47.03874],[9.134,47.03941],[9.13372,47.03988],[9.13304,47.04019],[9.13103,47.04064],[9.13078,47.04072],[9.13057,47.04082],[9.13039,47.04095],[9.12936,47.04187],[9.12894,47.04215],[9.1287,47.04243],[9.12844,47.04315],[9.1283,47.04332],[9.12791,47.04361],[9.12774,47.04381],[9.12765,47.04396],[9.1276,47.04412],[9.12747,47.04488],[9.12746,47.04504],[9.12758,47.04551],[9.12752,47.04584],[9.12696,47.04665],[9.12686,47.04684],[9.12679,47.04707],[9.12669,47.04728],[9.12653,47.04755],[9.12638,47.04775],[9.12602,47.04799],[9.12513,47.04829],[9.12494,47.0484],[9.12478,47.04853],[9.12466,47.04867],[9.12458,47.04883],[9.12454,47.049],[9.12456,47.04917],[9.12566,47.0544],[9.12574,47.05461],[9.12891,47.05997],[9.12901,47.06019],[9.12899,47.06056],[9.12875,47.0609],[9.12829,47.06116],[9.12781,47.06127],[9.1273,47.06124],[9.12701,47.06116],[9.12452,47.0603],[9.12406,47.06021],[9.12335,47.06029],[9.12101,47.06107],[9.12074,47.06114],[9.1205,47.06117],[9.12003,47.06114],[9.11934,47.06095],[9.11857,47.06088],[9.11822,47.06083],[9.11799,47.06078],[9.11762,47.06068],[9.11737,47.06063],[9.1171,47.06062],[9.11684,47.06064],[9.11659,47.0607],[9.11636,47.06079],[9.11616,47.06092],[9.116,47.06106],[9.11589,47.06123],[9.11583,47.0614],[9.11583,47.06158],[9.11587,47.06176],[9.11597,47.06193],[9.11612,47.06208],[9.11699,47.06282],[9.11724,47.06311],[9.11749,47.06354],[9.11758,47.06375],[9.11758,47.06404],[9.1176,47.06429],[9.11763,47.0645],[9.11754,47.06482],[9.11741,47.065],[9.11695,47.06553],[9.11676,47.06589],[9.11649,47.0662],[9.11583,47.06647],[9.11493,47.06652],[9.11462,47.06649],[9.11284,47.06616],[9.11247,47.06606],[9.1117,47.06572],[9.11121,47.06567],[9.11072,47.06575],[9.11051,47.06584],[9.11017,47.06608],[9.10988,47.06663],[9.10946,47.06707],[9.10931,47.06743],[9.10933,47.06785],[9.10902,47.06832],[9.10863,47.06853],[9.10814,47.06862],[9.10783,47.06862],[9.10598,47.06848],[9.10573,47.06845],[9.10488,47.06831],[9.10456,47.06829],[9.10425,47.06831],[9.10268,47.06858],[9.10264,47.06859],[9.10027,47.06905],[9.09993,47.06909],[9.09794,47.06923],[9.09792,47.06923],[9.09619,47.06935],[9.09576,47.06934],[9.09501,47.06928],[9.09447,47.06931],[9.09398,47.06949],[9.0938,47.06963],[9.09347,47.07002],[9.09331,47.07015],[9.09309,47.07027],[9.09298,47.07032],[9.09255,47.07047],[9.09155,47.07073],[9.09002,47.07131],[9.08943,47.07138],[9.08865,47.07131],[9.0879,47.07129],[9.08681,47.07144],[9.08667,47.07146],[9.08629,47.07152],[9.08605,47.07157],[9.08552,47.07177],[9.08526,47.07181],[9.08493,47.07182],[9.08468,47.07181],[9.08455,47.0718],[9.08439,47.07179],[9.08401,47.07173],[9.08389,47.07172],[9.08364,47.07171],[9.08252,47.07177],[9.0818,47.07206],[9.08154,47.07231],[9.08114,47.07254],[9.08085,47.07263],[9.08027,47.07274],[9.08001,47.07275],[9.07975,47.07272],[9.07933,47.07261],[9.07864,47.07228],[9.07702,47.07191],[9.07683,47.07188],[9.07664,47.07186],[9.07605,47.07185],[9.07594,47.07185],[9.07539,47.07187],[9.07533,47.07188],[9.07455,47.07193],[9.0744,47.07195],[9.07346,47.0721],[9.07343,47.0721],[9.07284,47.07214],[9.07235,47.07202],[9.07183,47.07163],[9.0717,47.07129],[9.07186,47.07078],[9.07189,47.07042],[9.0717,47.07008],[9.07134,47.06982],[9.0705,47.06952],[9.0701,47.06916],[9.06977,47.06849],[9.06967,47.06833],[9.06952,47.0682],[9.06934,47.06808],[9.06913,47.06799],[9.0689,47.06793],[9.06865,47.06789],[9.06841,47.06789],[9.06816,47.06793],[9.06717,47.06818],[9.06673,47.06836],[9.06656,47.06849],[9.06625,47.0688],[9.06558,47.06941],[9.06548,47.06949],[9.06538,47.06957],[9.06525,47.06966],[9.06481,47.06993],[9.06455,47.07007],[9.06432,47.07015],[9.06381,47.0702],[9.06294,47.06998],[9.06244,47.06993],[9.06195,47.07001],[9.06153,47.07021],[9.06127,47.07051],[9.06118,47.07085],[9.06118,47.07223],[9.0611,47.07302],[9.0611,47.07308],[9.06109,47.07403],[9.0611,47.07478],[9.0611,47.07505],[9.0611,47.07508],[9.06107,47.07619],[9.06103,47.07641],[9.06095,47.07657],[9.06073,47.07684],[9.06048,47.07726],[9.05981,47.0781],[9.05948,47.07839],[9.05906,47.07855],[9.05853,47.0786],[9.0569,47.07857],[9.05665,47.07858],[9.0564,47.07863],[9.05617,47.0787],[9.05597,47.07881],[9.0558,47.07894],[9.05567,47.07908],[9.05558,47.07925],[9.05554,47.07942],[9.05544,47.08063],[9.05539,47.08085],[9.05518,47.08116],[9.05481,47.08139],[9.05434,47.08151],[9.05302,47.08154],[9.05251,47.08142],[9.05212,47.08117],[9.05161,47.08041],[9.05127,47.08015],[9.05081,47.08],[9.0503,47.07997],[9.04924,47.08014],[9.04875,47.08024],[9.04848,47.08026],[9.04795,47.08019],[9.04765,47.08008],[9.04757,47.08004],[9.04743,47.07996],[9.04723,47.07984],[9.04696,47.07972],[9.04666,47.07965],[9.04606,47.07954],[9.04571,47.07953],[9.04546,47.0795],[9.04516,47.07943],[9.0448,47.07931],[9.04466,47.07926],[9.04321,47.07864],[9.04238,47.07833],[9.0421,47.07825],[9.04137,47.07819],[9.04038,47.07799],[9.03939,47.07805],[9.03869,47.07815],[9.03837,47.07817],[9.0377,47.07817],[9.03734,47.07814],[9.03683,47.07798],[9.03598,47.07744],[9.0357,47.07711],[9.03561,47.07639],[9.03536,47.07568],[9.03481,47.07485],[9.03412,47.07443],[9.03367,47.07405],[9.03296,47.07357],[9.03257,47.0731],[9.03193,47.07262],[9.03172,47.07252],[9.03125,47.07241],[9.03076,47.07241],[9.0303,47.07234],[9.02964,47.07196],[9.02935,47.07184],[9.02908,47.07173],[9.02905,47.07171],[9.02876,47.07153],[9.02875,47.07152],[9.02855,47.07133],[9.02845,47.07116],[9.02821,47.07068],[9.02811,47.07033],[9.02808,47.07003],[9.02811,47.06967],[9.02822,47.06942],[9.02827,47.06921],[9.02824,47.06875],[9.02812,47.06842],[9.02801,47.06828],[9.02785,47.06813],[9.02767,47.06789],[9.02693,47.0667],[9.02686,47.06656],[9.02677,47.06633],[9.02663,47.06591],[9.0262,47.06553],[9.02569,47.06533],[9.02479,47.06525],[9.02398,47.06506],[9.0229,47.06487],[9.02253,47.06477],[9.02235,47.06471],[9.02178,47.06458],[9.02158,47.06451],[9.02106,47.06423],[9.02011,47.06397],[9.0194,47.06378],[9.01871,47.06372],[9.01801,47.06354],[9.01705,47.06333],[9.0167,47.06328],[9.0164,47.06323],[9.01634,47.06322],[9.01594,47.06316],[9.01581,47.06313],[9.01556,47.06305],[9.01517,47.0629],[9.01495,47.06285],[9.01459,47.06282],[9.0141,47.06275],[9.01406,47.06274],[9.01383,47.06266],[9.01371,47.06262],[9.0135,47.06256],[9.01327,47.06253],[9.01298,47.06252],[9.01267,47.06249],[9.01245,47.06243],[9.01193,47.06227],[9.01172,47.06219],[9.01139,47.06201],[9.01116,47.0619],[9.01097,47.06183],[9.01087,47.0618],[9.01038,47.06165],[9.00934,47.06135],[9.00862,47.06124],[9.00783,47.06104],[9.00714,47.06089],[9.00682,47.06085],[9.00594,47.06084],[9.00526,47.06067],[9.00477,47.06065],[9.004,47.06079],[9.00345,47.06079],[9.00307,47.0608],[9.00295,47.06081],[9.00247,47.06085],[9.00208,47.06083],[9.0017,47.06077],[9.00146,47.06072],[9.00124,47.06065],[9.00082,47.06049],[9.00034,47.06038],[8.99783,47.06031],[8.99652,47.06013],[8.99561,47.05994],[8.99489,47.05995],[8.99454,47.05989],[8.99417,47.05975],[8.99405,47.05969],[8.99379,47.05962],[8.99291,47.05955],[8.99247,47.05949],[8.99217,47.05944],[8.9919,47.05937],[8.9917,47.05928],[8.99148,47.05914],[8.99131,47.05901],[8.99113,47.05884],[8.99103,47.05869],[8.99089,47.05839],[8.99079,47.05827],[8.99028,47.05774],[8.9902,47.05766],[8.99005,47.05754],[8.98982,47.05739],[8.98949,47.05714],[8.98931,47.05696],[8.98915,47.05683],[8.98907,47.05678],[8.98892,47.0567],[8.98876,47.05663],[8.9883,47.05648],[8.98775,47.05612],[8.98748,47.05602],[8.98713,47.05591],[8.98689,47.0558],[8.98671,47.05566],[8.98656,47.0555],[8.98644,47.05531],[8.98628,47.05511],[8.98613,47.05497],[8.98578,47.05468],[8.98561,47.05456],[8.98547,47.05448],[8.98526,47.05435],[8.98482,47.05415],[8.9844,47.05406],[8.98416,47.05396],[8.98387,47.05383],[8.98364,47.0537],[8.98323,47.05345],[8.98314,47.05338],[8.98248,47.0529],[8.98225,47.05271],[8.98197,47.0524],[8.98159,47.05212],[8.9814,47.05203],[8.98108,47.05187],[8.97987,47.05114],[8.97961,47.05094],[8.97895,47.05035],[8.97795,47.04965],[8.97707,47.0494],[8.97683,47.04933],[8.97663,47.04922],[8.97618,47.04883],[8.97598,47.04867],[8.97571,47.04844],[8.97552,47.04829],[8.97527,47.04818],[8.9752,47.04815],[8.97506,47.04811],[8.97482,47.04805],[8.9745,47.04799],[8.97431,47.04798],[8.97416,47.04797],[8.97366,47.04797],[8.97279,47.04788],[8.97246,47.04786],[8.97211,47.04786],[8.97123,47.04784],[8.97017,47.04771],[8.96989,47.04774],[8.96948,47.04776],[8.96879,47.04774],[8.96864,47.04773],[8.96811,47.04769],[8.96753,47.04772],[8.96646,47.04772],[8.96573,47.04755],[8.96551,47.04753],[8.96494,47.04751],[8.96433,47.04743],[8.96396,47.04735],[8.96358,47.04723],[8.96306,47.04719],[8.96259,47.04723],[8.96208,47.04716],[8.96126,47.0468],[8.96076,47.04664],[8.96028,47.04663],[8.95983,47.04673],[8.95925,47.04698],[8.95872,47.04708],[8.95815,47.04706],[8.95788,47.04709],[8.95724,47.04721],[8.95683,47.04726],[8.95675,47.04727],[8.95637,47.04726],[8.95561,47.04721],[8.95556,47.0472],[8.95455,47.04711],[8.95434,47.04711],[8.95366,47.04716],[8.95301,47.04712],[8.95252,47.0472],[8.95212,47.04741],[8.95141,47.04819],[8.95082,47.04848],[8.94998,47.0486],[8.94932,47.04888],[8.94822,47.04914],[8.94769,47.04913],[8.94723,47.04902],[8.94599,47.04909],[8.94549,47.04895],[8.94502,47.04873],[8.94418,47.04842],[8.94329,47.04823],[8.94213,47.04777],[8.94124,47.04764],[8.9408,47.04746],[8.93999,47.04679],[8.93943,47.04639],[8.93878,47.04573],[8.93834,47.04492],[8.93795,47.04462],[8.93721,47.04389],[8.93676,47.04366],[8.93554,47.04327],[8.93507,47.04318],[8.93433,47.04283],[8.93338,47.04257],[8.93211,47.04238],[8.93103,47.04218],[8.92987,47.04178],[8.92915,47.04159],[8.92764,47.0409],[8.92678,47.04058],[8.92615,47.0404],[8.92541,47.04006],[8.9245,47.03971],[8.92363,47.03892],[8.92328,47.03873],[8.92172,47.03826],[8.92031,47.03809],[8.91872,47.03796],[8.91824,47.03799],[8.91716,47.03832],[8.91581,47.03852],[8.91533,47.03872],[8.91482,47.03924],[8.91441,47.03946],[8.9139,47.03956],[8.91198,47.03933],[8.9109,47.03944],[8.91024,47.03945],[8.90959,47.03957],[8.90907,47.03956],[8.90788,47.03927],[8.9072,47.03884],[8.90655,47.03857],[8.90611,47.03846],[8.90488,47.03849],[8.90414,47.03864],[8.9035,47.03861],[8.90316,47.03852],[8.90231,47.03814],[8.90149,47.03764],[8.90098,47.03722],[8.90065,47.03669],[8.90053,47.03602],[8.90057,47.03507],[8.90088,47.03392],[8.90126,47.03338],[8.90135,47.03306],[8.90126,47.03259],[8.90111,47.03227],[8.90107,47.03194],[8.90123,47.03159],[8.90156,47.03116],[8.90217,47.03071],[8.90305,47.02976],[8.90328,47.02934],[8.90318,47.02847],[8.90334,47.02767],[8.90321,47.02731],[8.90287,47.02701],[8.90097,47.02624],[8.90048,47.02612],[8.89807,47.02589],[8.89644,47.02556],[8.89595,47.02539],[8.89553,47.02497],[8.89538,47.02443],[8.89514,47.02414],[8.89476,47.02392],[8.89412,47.02373],[8.89365,47.0233],[8.89357,47.02294],[8.89386,47.02243]]]},"properties":{"bfs_nr":1632,"name":"Glarus"}}]}