{"type":"FeatureCollection","features":[{"type":"Feature","properties":{"name":"Lake Geneva"},"geometry":{"type":"Polygon","coordinates":[[[6.916530725026064,46.441942115635555],[6.935370029162499,46.42310281149912],[6.913881447881863,46.404263507362685],[6.86766627992219,46.40249732259991],[6.812481369543869,46.40916907342285],[6.821069609466031,46.4271568092544],[6.68187078836627,46.4543332418544],[6.519117629826024,46.45636797256505],[6.425632297836222,46.415806890420996],[6.335202283262582,46.40371624618216],[6.252969943279233,46.360420777831024],[6.2195510170119075,46.31188440912923],[6.233284281078257,46.307185434306405],[6.182975320213927,46.238830867914686],[6.133227782728682,46.20468462916742],[6.140292521779855,46.220285927905394],[6.145885440195343,46.22646757457517],[6.153244543373631,46.23117740060928],[6.160014918297662,46.268856008882125],[6.176499309417039,46.30005860635808],[6.318382818694516,46.451067403576616],[6.3345728456867505,46.46137014802625],[6.3528234215689,46.46725743056888],[6.419055350173551,46.47314471311151],[6.435834105420042,46.4796207239084],[6.49500129497352,46.51317823440141],[6.510896957838611,46.51759369630838],[6.597734375342469,46.5223035223425],[6.620106049004477,46.51935988107118],[6.784361231943933,46.47844326739988],[6.871198649447791,46.45872087088205],[6.916530725026064,46.441942115635555]]]}},{"type":"Feature","properties":{"name":"Bodensee"},"geometry":{"type":"Polygon","coordinates":[[[9.55285584761728,47.51225008188629],[9.517826516488611,47.4928220494956],[9.494571750445232,47.488112223461485],[9.402141414525886,47.54345267936225],[9.398020316746027,47.544041407616504],[9.380652833245279,47.574360912711086],[9.371233181177047,47.58113128763512],[9.206683634110448,47.64736321623974],[9.197800632016053,47.65602688494909],[9.21483205672579,47.65509571803124],[9.256560890607817,47.658707689322654],[9.3947138829082,47.62032611404998],[9.495603733167979,47.55145511660757],[9.558720390845059,47.54189320833633],[9.561520978901507,47.50821978826573],[9.55285584761728,47.51225008188629]]]}},{"type":"Feature","properties":{"name":null},"geometry":{"type":"Polygon","coordinates":[[[9.015935679729125,47.67915454196995],[8.997390739719833,47.67415035180872],[8.981200712727599,47.66237578672346],[8.944699560963272,47.654427955290885],[8.918772985860949,47.65286846205164],[8.926747809578584,47.655197746812],[8.941518078374864,47.65627868922287],[8.946062394991174,47.65949801072678],[8.974849491128511,47.66898310416468],[8.979916102553535,47.67342139005353],[8.99873026932648,47.67806533050684],[9.021169032988508,47.68671124416279],[9.075894367786084,47.67861875871027],[9.09345175404664,47.67955959413708],[9.103275101862286,47.676588669425485],[9.111882882993685,47.67181293538771],[9.015935679729125,47.67915454196995]]]}},{"type":"Feature","properties":{"name":"Lago di Como"},"geometry":{"type":"Polygon","coordinates":[[[8.847853763136953,46.16730038502169],[8.849031219645468,46.16494547200463],[8.84167211646718,46.154348363427914],[8.758342576945312,46.10293467551411],[8.742343244389065,46.12231125200153],[8.724266024471987,46.11020845615274],[8.713991510603709,46.09723169622894],[8.70472832321889,46.099774946470816],[8.710680079893592,46.1104881084853],[8.733346117682714,46.13050486913025],[8.763371258650153,46.149344173266655],[8.795162584380364,46.164356743750375],[8.831369372017576,46.17171584692866],[8.841083388212923,46.17142148280155],[8.847853763136953,46.16730038502169]]]}}]}