{"type":"FeatureCollection","features":[{"type":"Feature","geometry":{"type":"Polygon","coordinates":[[[8.42931,46.94614],[8.42905,46.94577],[8.42903,46.94545],[8.42918,46.94513],[8.42984,46.94463],[8.42999,46.94446],[8.43027,46.94408],[8.4305,46.94389],[8.43071,46.94378],[8.43116,46.94366],[8.43218,46.94361],[8.43268,46.94345],[8.43304,46.94317],[8.43315,46.943],[8.4332,46.94281],[8.43324,46.94252],[8.43322,46.94226],[8.43308,46.94167],[8.43333,46.94115],[8.43395,46.94063],[8.43405,46.94031],[8.43406,46.93993],[8.43402,46.93922],[8.4339,46.93855],[8.43386,46.93797],[8.4339,46.93775],[8.43399,46.93758],[8.43415,46.93739],[8.43435,46.9372],[8.43451,46.93708],[8.43469,46.93697],[8.43526,46.93668],[8.43533,46.93664],[8.43629,46.9362],[8.43695,46.93582],[8.43843,46.93513],[8.43889,46.93486],[8.43918,46.93472],[8.43945,46.93465],[8.44086,46.93453],[8.44146,46.93464],[8.44221,46.93488],[8.44245,46.93494],[8.44271,46.93497],[8.44297,46.93496],[8.44322,46.93491],[8.44346,46.93483],[8.44388,46.93466],[8.4441,46.93455],[8.44427,46.9344],[8.44499,46.9337],[8.44543,46.93321],[8.44577,46.93297],[8.44602,46.93283],[8.44638,46.93267],[8.44704,46.93241],[8.4473,46.93233],[8.44781,46.93227],[8.44886,46.93226],[8.44915,46.93224],[8.45004,46.93201],[8.45026,46.93193],[8.45046,46.93183],[8.45062,46.93171],[8.45075,46.93156],[8.45084,46.93141],[8.45118,46.93056],[8.45122,46.93043],[8.4513,46.93001],[8.45151,46.92958],[8.45192,46.92927],[8.45251,46.92896],[8.45287,46.92873],[8.45357,46.9284],[8.45447,46.92756],[8.45456,46.92741],[8.45487,46.92675],[8.45493,46.92658],[8.45489,46.92623],[8.45466,46.92592],[8.45428,46.92569],[8.4538,46.92558],[8.45329,46.9256],[8.45158,46.92614],[8.45135,46.92623],[8.45095,46.92642],[8.4506,46.92656],[8.44985,46.92679],[8.44955,46.92686],[8.44946,46.92688],[8.44915,46.92691],[8.44889,46.9269],[8.44842,46.92679],[8.44804,46.92656],[8.44781,46.92625],[8.44772,46.92589],[8.44743,46.9254],[8.44739,46.92504],[8.44744,46.92461],[8.4475,46.92393],[8.44751,46.92359],[8.44755,46.92339],[8.44774,46.92308],[8.44809,46.92284],[8.44888,46.92255],[8.44906,46.92242],[8.4492,46.92225],[8.44926,46.92216],[8.44927,46.92215],[8.44957,46.92169],[8.44965,46.92151],[8.44975,46.92118],[8.44987,46.92091],[8.45023,46.92038],[8.45049,46.92011],[8.45078,46.91991],[8.45103,46.91979],[8.45177,46.91952],[8.45231,46.91933],[8.4526,46.91919],[8.45347,46.91864],[8.45368,46.91848],[8.45391,46.91826],[8.45405,46.91809],[8.45421,46.91785],[8.45509,46.91677],[8.45581,46.91596],[8.45594,46.91578],[8.45625,46.91519],[8.45672,46.91448],[8.45681,46.91437],[8.4569,46.91426],[8.45692,46.91423],[8.45697,46.91417],[8.45709,46.91397],[8.45719,46.91343],[8.45708,46.91252],[8.45709,46.91231],[8.45714,46.91215],[8.45737,46.91186],[8.45819,46.91148],[8.45859,46.91124],[8.45937,46.91093],[8.45945,46.91088],[8.45966,46.91072],[8.45982,46.91055],[8.45991,46.91034],[8.46018,46.90999],[8.46033,46.90976],[8.46086,46.9085],[8.46098,46.90801],[8.46127,46.90752],[8.46143,46.907],[8.46166,46.90647],[8.46198,46.90618],[8.46358,46.90517],[8.4641,46.90495],[8.46464,46.90491],[8.46625,46.90519],[8.4668,46.90515],[8.46735,46.905],[8.46806,46.90501],[8.46937,46.90541],[8.47063,46.90592],[8.47223,46.90639],[8.47403,46.90681],[8.47484,46.90717],[8.47602,46.90733],[8.47726,46.90744],[8.47824,46.9078],[8.47903,46.90791],[8.48021,46.90835],[8.48085,46.90853],[8.48138,46.90896],[8.482,46.90993],[8.48258,46.9104],[8.48307,46.91096],[8.48395,46.91176],[8.48406,46.91194],[8.48426,46.91285],[8.48452,46.91337],[8.48463,46.91381],[8.48497,46.91696],[8.48514,46.91734],[8.48574,46.91806],[8.4861,46.91833],[8.48685,46.9185],[8.48779,46.9184],[8.48905,46.91843],[8.48989,46.91852],[8.49034,46.9187],[8.49066,46.919],[8.49078,46.91935],[8.49075,46.91958],[8.49032,46.92117],[8.49031,46.92167],[8.49013,46.92206],[8.49008,46.92241],[8.48988,46.92295],[8.48987,46.92366],[8.49,46.92404],[8.48994,46.92506],[8.48996,46.92572],[8.49032,46.92658],[8.49056,46.92699],[8.4906,46.92779],[8.4908,46.92809],[8.49086,46.9284],[8.49092,46.92859],[8.49095,46.92878],[8.49094,46.92893],[8.49088,46.92912],[8.49052,46.92988],[8.4904,46.93007],[8.49008,46.93034],[8.48964,46.9305],[8.48934,46.93054],[8.4855,46.93084],[8.48524,46.93088],[8.48499,46.93095],[8.48477,46.93106],[8.48459,46.93119],[8.48446,46.93135],[8.48435,46.93189],[8.48463,46.93249],[8.48464,46.93269],[8.48459,46.933],[8.48463,46.93319],[8.48473,46.93337],[8.485,46.93375],[8.48526,46.93432],[8.48596,46.93509],[8.48658,46.93563],[8.48705,46.936],[8.48735,46.93645],[8.48774,46.93675],[8.48787,46.93689],[8.48798,46.93709],[8.48815,46.93751],[8.48817,46.93754],[8.48867,46.93887],[8.48871,46.93926],[8.48853,46.93959],[8.48838,46.93974],[8.48814,46.93988],[8.48759,46.94017],[8.48742,46.94027],[8.48729,46.94038],[8.48718,46.94051],[8.48681,46.94105],[8.48673,46.9412],[8.48656,46.94166],[8.48656,46.94167],[8.48635,46.94223],[8.48625,46.94243],[8.4861,46.94267],[8.48603,46.94283],[8.48594,46.94344],[8.48585,46.94371],[8.48579,46.94383],[8.48573,46.944],[8.48573,46.94431],[8.4857,46.94459],[8.48566,46.94477],[8.48557,46.94501],[8.48552,46.9451],[8.48549,46.94518],[8.48534,46.94556],[8.48533,46.94557],[8.48518,46.946],[8.48507,46.9464],[8.48504,46.94657],[8.48521,46.94705],[8.48552,46.9473],[8.48572,46.94739],[8.48595,46.94746],[8.48771,46.94785],[8.48826,46.94805],[8.48851,46.9482],[8.48878,46.94849],[8.48887,46.94884],[8.48878,46.94927],[8.48874,46.94972],[8.48876,46.94994],[8.48889,46.95048],[8.48915,46.95139],[8.48938,46.95168],[8.48955,46.95179],[8.48975,46.95189],[8.48997,46.95196],[8.49292,46.95265],[8.4954,46.95313],[8.49686,46.95356],[8.49709,46.95367],[8.49732,46.95386],[8.49754,46.95407],[8.49761,46.95414],[8.49776,46.95426],[8.49789,46.95435],[8.49809,46.95447],[8.49827,46.95461],[8.4986,46.95516],[8.49857,46.95558],[8.49857,46.95577],[8.49857,46.95581],[8.49861,46.95638],[8.49861,46.9564],[8.49863,46.95666],[8.49861,46.9569],[8.49858,46.95703],[8.49853,46.9574],[8.49852,46.95745],[8.4985,46.95777],[8.49841,46.95811],[8.49827,46.95848],[8.49841,46.95899],[8.49873,46.95926],[8.49894,46.95936],[8.49918,46.95943],[8.49943,46.95947],[8.49968,46.95947],[8.5002,46.95939],[8.50063,46.95937],[8.50081,46.95935],[8.50107,46.95931],[8.50161,46.95922],[8.5029,46.95925],[8.50372,46.95922],[8.50405,46.95926],[8.50451,46.9594],[8.50474,46.95945],[8.50542,46.95952],[8.50587,46.95969],[8.5062,46.95991],[8.50701,46.96029],[8.50786,46.96063],[8.50837,46.96094],[8.50886,46.96108],[8.50963,46.96101],[8.51006,46.9608],[8.51039,46.96054],[8.5109,46.96032],[8.5114,46.96026],[8.51189,46.96034],[8.51226,46.96049],[8.51331,46.96088],[8.51413,46.96112],[8.51449,46.96128],[8.51585,46.96154],[8.51645,46.96158],[8.51699,46.96169],[8.51743,46.96184],[8.51789,46.96212],[8.51839,46.96233],[8.51853,46.9624],[8.51925,46.96277],[8.51935,46.96282],[8.52018,46.96331],[8.52038,46.9634],[8.52093,46.96362],[8.52096,46.96364],[8.52118,46.96372],[8.52175,46.96398],[8.52272,46.96429],[8.52297,46.96435],[8.52302,46.96436],[8.52348,46.96445],[8.52397,46.96462],[8.52443,46.96491],[8.52535,46.96539],[8.5261,46.96572],[8.52642,46.96617],[8.52645,46.96652],[8.52628,46.96685],[8.52609,46.96703],[8.52595,46.96718],[8.52587,46.96734],[8.52582,46.96746],[8.52581,46.9675],[8.52576,46.96766],[8.52574,46.96781],[8.52573,46.96794],[8.5257,46.96813],[8.52523,46.96898],[8.51979,46.97904],[8.51948,46.97939],[8.51904,46.97959],[8.51819,46.97964],[8.497,46.97648],[8.49627,46.97652],[8.46556,46.98419],[8.46489,46.98425],[8.45186,46.98364],[8.45155,46.98361],[8.45092,46.98334],[8.45058,46.98285],[8.44801,46.97221],[8.44784,46.9719],[8.44667,46.97055],[8.44635,46.97014],[8.44636,46.96941],[8.44626,46.96893],[8.44631,46.96832],[8.446,46.96726],[8.44593,46.96711],[8.44542,46.96623],[8.4454,46.96621],[8.44514,46.96581],[8.44513,46.96579],[8.4445,46.96477],[8.44444,46.96466],[8.44407,46.96389],[8.44377,46.96335],[8.44351,46.96267],[8.4435,46.96263],[8.44343,46.96248],[8.44335,46.96235],[8.44301,46.96186],[8.44249,46.96136],[8.44218,46.96074],[8.44187,46.9605],[8.44136,46.96029],[8.44067,46.95978],[8.4405,46.95949],[8.44044,46.9591],[8.4406,46.95858],[8.44045,46.95807],[8.4399,46.95761],[8.43962,46.95697],[8.43917,46.95644],[8.439,46.95605],[8.4389,46.95591],[8.43864,46.95569],[8.43822,46.95524],[8.43802,46.95507],[8.43779,46.95492],[8.43763,46.95477],[8.43752,46.95463],[8.4375,46.95461],[8.43738,46.95448],[8.43724,46.95436],[8.43699,46.95417],[8.43697,46.95415],[8.4367,46.95396],[8.43661,46.9539],[8.4364,46.95372],[8.43628,46.95363],[8.43622,46.95359],[8.43613,46.95353],[8.43596,46.95336],[8.43582,46.95321],[8.43563,46.95303],[8.43492,46.9527],[8.43439,46.95232],[8.43408,46.95174],[8.43372,46.95134],[8.43316,46.95054],[8.4329,46.95027],[8.43224,46.94988],[8.432,46.94971],[8.43182,46.94954],[8.43156,46.94915],[8.43136,46.94892],[8.43134,46.94889],[8.43081,46.94834],[8.43065,46.94815],[8.43011,46.94732],[8.42942,46.94628],[8.42931,46.94614]]]},"properties":{"bfs_nr":1501,"name":"Beckenried"}},{"type":"Feature","geometry":{"type":"Polygon","coordinates":[[[8.389,46.96548],[8.38942,46.9656],[8.38945,46.96561],[8.39051,46.96588],[8.39053,46.96589],[8.39185,46.96621],[8.39367,46.9667],[8.39538,46.96721],[8.3954,46.96721],[8.39575,46.96732],[8.39579,46.96733],[8.39612,46.96744],[8.39616,46.96745],[8.39649,46.96757],[8.39653,46.96758],[8.39687,46.9677],[8.39689,46.96771],[8.39712,46.96778],[8.39736,46.96781],[8.39761,46.96781],[8.39785,46.96778],[8.39808,46.96773],[8.39829,46.96764],[8.39847,46.96753],[8.39862,46.96739],[8.40011,46.96577],[8.40016,46.96572],[8.40017,46.96571],[8.40124,46.96456],[8.40129,46.9645],[8.40185,46.9639],[8.40247,46.96323],[8.40274,46.96294],[8.40276,46.96292],[8.40421,46.96141],[8.40456,46.96104],[8.40458,46.96102],[8.40557,46.95992],[8.40659,46.9588],[8.40696,46.95838],[8.40699,46.95835],[8.40926,46.95601],[8.40967,46.95566],[8.41024,46.95509],[8.41099,46.95468],[8.41122,46.95449],[8.41133,46.95435],[8.41148,46.95391],[8.41159,46.95375],[8.41177,46.95357],[8.41185,46.9535],[8.41187,46.95349],[8.41224,46.9532],[8.4125,46.95303],[8.4127,46.95292],[8.41312,46.95265],[8.41356,46.9524],[8.41369,46.95231],[8.41402,46.95206],[8.41418,46.95191],[8.41438,46.95167],[8.41449,46.9515],[8.41501,46.95045],[8.41521,46.94968],[8.41525,46.94906],[8.4154,46.94885],[8.41544,46.94881],[8.41547,46.94877],[8.41586,46.94838],[8.41587,46.94837],[8.41612,46.94809],[8.41664,46.94764],[8.41757,46.94702],[8.418,46.94683],[8.41851,46.94676],[8.41905,46.94683],[8.41975,46.94677],[8.42126,46.9462],[8.42144,46.9461],[8.42175,46.94586],[8.42189,46.94574],[8.42216,46.94547],[8.42221,46.94542],[8.42247,46.94524],[8.42272,46.94513],[8.42346,46.94498],[8.42392,46.94495],[8.42443,46.94495],[8.4248,46.94498],[8.42573,46.94511],[8.42676,46.94531],[8.42776,46.9455],[8.42848,46.94561],[8.42893,46.9458],[8.42914,46.94597],[8.42944,46.94631],[8.43067,46.94818],[8.43078,46.94831],[8.43133,46.94889],[8.43136,46.94892],[8.43153,46.9491],[8.43171,46.94938],[8.43182,46.94954],[8.43196,46.94968],[8.43207,46.94977],[8.4322,46.94986],[8.43261,46.9501],[8.4329,46.95028],[8.43318,46.95057],[8.43398,46.95177],[8.43421,46.95231],[8.43482,46.95279],[8.4354,46.95298],[8.43577,46.95318],[8.436,46.95342],[8.43621,46.9536],[8.43644,46.95375],[8.43663,46.95391],[8.43668,46.95395],[8.43696,46.95415],[8.4372,46.95433],[8.43741,46.95451],[8.43752,46.95464],[8.43766,46.9548],[8.43779,46.95492],[8.43785,46.95497],[8.43827,46.95529],[8.43858,46.95564],[8.4389,46.95591],[8.43916,46.95643],[8.43961,46.957],[8.43978,46.95746],[8.43994,46.95768],[8.44036,46.95805],[8.44051,46.95839],[8.44039,46.95902],[8.44047,46.95944],[8.44064,46.95976],[8.44133,46.96029],[8.44206,46.9607],[8.44234,46.96117],[8.44251,46.9614],[8.44301,46.96186],[8.44322,46.96222],[8.44347,46.96258],[8.44378,46.96337],[8.44408,46.9639],[8.44445,46.96468],[8.44449,46.96475],[8.44514,46.9658],[8.44514,46.96581],[8.4454,46.9662],[8.44542,46.96624],[8.44591,46.96707],[8.44601,46.9673],[8.44629,46.96826],[8.44624,46.96889],[8.44634,46.96949],[8.44626,46.97],[8.44641,46.97035],[8.44682,46.97073],[8.44781,46.97186],[8.44802,46.97225],[8.45051,46.98253],[8.45042,46.98307],[8.45015,46.98335],[8.4495,46.98359],[8.44919,46.98362],[8.42864,46.984],[8.42824,46.98398],[8.42786,46.98389],[8.41926,46.98095],[8.41886,46.98077],[8.41608,46.97916],[8.41565,46.97899],[8.41492,46.97897],[8.41448,46.97911],[8.41412,46.97934],[8.41365,46.97951],[8.41332,46.97955],[8.413,46.97956],[8.41274,46.97953],[8.40633,46.97851],[8.40591,46.97841],[8.38859,46.97268],[8.38795,46.97228],[8.38785,46.97211],[8.38778,46.97188],[8.38713,46.96642],[8.38714,46.96619],[8.38731,46.96584],[8.38789,46.96548],[8.38841,46.9654],[8.389,46.96548]]]},"properties":{"bfs_nr":1502,"name":"Buochs"}},{"type":"Feature","geometry":{"type":"Polygon","coordinates":[[[8.33665,46.90339],[8.33657,46.90295],[8.33672,46.9026],[8.33677,46.90193],[8.3369,46.90158],[8.33714,46.90129],[8.33736,46.9008],[8.33757,46.8999],[8.33786,46.89938],[8.3383,46.8984],[8.33832,46.89787],[8.33852,46.89704],[8.33833,46.89622],[8.33842,46.89565],[8.3384,46.895],[8.33824,46.89436],[8.3382,46.89398],[8.33827,46.8932],[8.33825,46.89218],[8.33811,46.89147],[8.33816,46.89098],[8.33837,46.89066],[8.33874,46.89041],[8.33928,46.89028],[8.34179,46.88998],[8.3423,46.88998],[8.34813,46.89057],[8.34845,46.89062],[8.34889,46.89081],[8.34911,46.89097],[8.35132,46.89308],[8.35138,46.89313],[8.35599,46.89692],[8.35601,46.89693],[8.35626,46.89713],[8.35639,46.89722],[8.3571,46.89764],[8.35862,46.89881],[8.35916,46.89932],[8.35936,46.89971],[8.35944,46.89984],[8.35956,46.9],[8.35969,46.90016],[8.35983,46.90033],[8.35993,46.90056],[8.36004,46.90074],[8.36021,46.9009],[8.36042,46.90103],[8.36067,46.90112],[8.36388,46.90207],[8.36403,46.90212],[8.36558,46.90269],[8.36588,46.90284],[8.36608,46.90299],[8.36626,46.90321],[8.36687,46.9042],[8.367,46.90437],[8.36741,46.90463],[8.36891,46.90524],[8.37221,46.9068],[8.37336,46.90735],[8.37358,46.90743],[8.37408,46.90751],[8.37457,46.90745],[8.37497,46.9073],[8.37563,46.90715],[8.37588,46.90705],[8.37608,46.90692],[8.37625,46.90679],[8.37656,46.90649],[8.37675,46.90637],[8.37722,46.90622],[8.37773,46.9062],[8.37847,46.90645],[8.38167,46.90844],[8.38189,46.90855],[8.38213,46.90863],[8.38239,46.90867],[8.38266,46.90867],[8.38332,46.90857],[8.38388,46.90856],[8.38436,46.90868],[8.38486,46.90907],[8.38539,46.91018],[8.38573,46.91042],[8.38616,46.91056],[8.3864,46.91059],[8.38665,46.91058],[8.38707,46.91055],[8.38728,46.91052],[8.38852,46.9101],[8.38939,46.91001],[8.3904,46.90972],[8.39071,46.90965],[8.39122,46.90965],[8.39177,46.90976],[8.39228,46.90978],[8.3931,46.90969],[8.39359,46.90979],[8.394,46.91001],[8.39425,46.91032],[8.39434,46.91062],[8.39439,46.91082],[8.39448,46.9119],[8.39444,46.91272],[8.3944,46.91353],[8.39434,46.91404],[8.39434,46.91406],[8.39433,46.9142],[8.39433,46.91425],[8.39433,46.91439],[8.39433,46.91442],[8.39435,46.91464],[8.39444,46.91534],[8.39446,46.91544],[8.39448,46.91553],[8.39454,46.91566],[8.3946,46.91577],[8.39467,46.91596],[8.39471,46.91616],[8.39472,46.9163],[8.3947,46.91709],[8.39469,46.91722],[8.39455,46.91763],[8.3945,46.91784],[8.3945,46.91797],[8.39452,46.91812],[8.39452,46.91813],[8.39454,46.91829],[8.39457,46.91847],[8.39457,46.91848],[8.39459,46.9186],[8.3946,46.91866],[8.39464,46.91881],[8.39468,46.91897],[8.39476,46.91917],[8.39481,46.91934],[8.39485,46.91945],[8.39493,46.91961],[8.39505,46.91981],[8.3952,46.91998],[8.39539,46.92028],[8.39546,46.92038],[8.39547,46.92041],[8.3956,46.92058],[8.39566,46.92065],[8.3957,46.92069],[8.3958,46.92082],[8.39587,46.92094],[8.39602,46.92122],[8.39623,46.92158],[8.39629,46.9217],[8.39634,46.92182],[8.39637,46.92189],[8.39648,46.9221],[8.39672,46.92251],[8.39679,46.92272],[8.3968,46.92274],[8.39684,46.92285],[8.39684,46.92286],[8.39688,46.92299],[8.39691,46.92308],[8.39694,46.92321],[8.39698,46.92337],[8.39698,46.92339],[8.397,46.92347],[8.39702,46.92359],[8.39705,46.92403],[8.39706,46.9243],[8.39706,46.92431],[8.39705,46.92437],[8.39703,46.92448],[8.39701,46.92456],[8.39699,46.92465],[8.39696,46.92474],[8.39694,46.92481],[8.39688,46.92493],[8.39681,46.92508],[8.39661,46.92539],[8.39632,46.92593],[8.39628,46.926],[8.39625,46.92607],[8.39621,46.9262],[8.39619,46.92651],[8.39622,46.9266],[8.39629,46.92698],[8.39628,46.92712],[8.39624,46.9273],[8.396,46.92772],[8.39484,46.92872],[8.39443,46.92897],[8.39376,46.92926],[8.39334,46.92955],[8.39302,46.92993],[8.39283,46.93029],[8.39268,46.93082],[8.3927,46.9313],[8.39287,46.93192],[8.39298,46.93229],[8.39302,46.9324],[8.3931,46.93255],[8.39312,46.9326],[8.39323,46.93279],[8.39325,46.93283],[8.39335,46.93298],[8.39337,46.933],[8.39379,46.93362],[8.39385,46.93376],[8.39393,46.93397],[8.39395,46.93405],[8.39397,46.9341],[8.39398,46.93417],[8.39399,46.93422],[8.39401,46.93431],[8.39401,46.93437],[8.39402,46.93451],[8.39402,46.93459],[8.39402,46.93464],[8.39402,46.93472],[8.39401,46.93477],[8.39385,46.93666],[8.3938,46.93688],[8.39357,46.9372],[8.39318,46.93743],[8.39269,46.93754],[8.39236,46.93755],[8.3908,46.93746],[8.39078,46.93746],[8.3905,46.93744],[8.38936,46.93732],[8.38803,46.9373],[8.38776,46.93728],[8.38744,46.93723],[8.38742,46.93722],[8.38714,46.93719],[8.38677,46.93712],[8.38639,46.93699],[8.38617,46.93695],[8.38593,46.93692],[8.38569,46.93691],[8.38547,46.93691],[8.38521,46.9369],[8.3851,46.93689],[8.38474,46.9369],[8.38444,46.93693],[8.38442,46.93694],[8.384,46.93699],[8.38391,46.937],[8.38361,46.93705],[8.38346,46.93708],[8.38301,46.9372],[8.38245,46.93737],[8.38191,46.93743],[8.38138,46.93745],[8.38098,46.93744],[8.38056,46.9374],[8.38032,46.93739],[8.37986,46.93745],[8.37906,46.93745],[8.37715,46.9375],[8.37646,46.93767],[8.37598,46.93791],[8.37515,46.93812],[8.3749,46.93815],[8.37464,46.93814],[8.37439,46.9381],[8.37411,46.938],[8.37327,46.93764],[8.37282,46.93732],[8.37133,46.93663],[8.37047,46.93644],[8.37003,46.93624],[8.36969,46.9359],[8.3692,46.93559],[8.3689,46.93545],[8.36879,46.93541],[8.3685,46.93531],[8.36836,46.93526],[8.36809,46.93519],[8.3679,46.93515],[8.36739,46.93507],[8.36712,46.93505],[8.36674,46.93505],[8.36665,46.93505],[8.3655,46.93507],[8.36493,46.93493],[8.36441,46.93459],[8.36375,46.93442],[8.36351,46.93442],[8.36325,46.93443],[8.36312,46.93442],[8.36266,46.93439],[8.3624,46.93435],[8.36237,46.93435],[8.36215,46.93432],[8.36193,46.93432],[8.36171,46.93435],[8.36146,46.9344],[8.36129,46.93442],[8.36107,46.93445],[8.36066,46.93454],[8.36014,46.93457],[8.35982,46.93452],[8.35959,46.93446],[8.35913,46.93433],[8.35902,46.9343],[8.35849,46.93412],[8.35815,46.93404],[8.35781,46.934],[8.35779,46.93399],[8.35728,46.93385],[8.35712,46.9338],[8.35661,46.93371],[8.35617,46.93352],[8.35597,46.93336],[8.35585,46.93327],[8.35566,46.93316],[8.35542,46.93304],[8.35481,46.93281],[8.35447,46.93265],[8.35405,46.9324],[8.3535,46.93227],[8.35262,46.93218],[8.35221,46.93206],[8.35194,46.93201],[8.35131,46.93195],[8.35102,46.9319],[8.35074,46.93182],[8.34999,46.93154],[8.34973,46.93146],[8.3495,46.93141],[8.34924,46.93138],[8.34897,46.93138],[8.34772,46.93149],[8.34727,46.93149],[8.34605,46.9314],[8.34475,46.93115],[8.34377,46.9308],[8.34327,46.93051],[8.34282,46.93036],[8.34185,46.93024],[8.34016,46.92972],[8.33977,46.92948],[8.33954,46.92916],[8.33952,46.92881],[8.3397,46.92848],[8.34028,46.92785],[8.3407,46.92716],[8.34097,46.92685],[8.34117,46.92639],[8.34108,46.92607],[8.34064,46.92545],[8.34042,46.92491],[8.34029,46.92399],[8.34005,46.92333],[8.34009,46.92299],[8.34027,46.92264],[8.34032,46.9222],[8.34051,46.92156],[8.34035,46.921],[8.34015,46.92074],[8.33987,46.92015],[8.33925,46.91947],[8.33911,46.9191],[8.33917,46.91876],[8.3396,46.91835],[8.34035,46.91804],[8.34114,46.91763],[8.34176,46.91737],[8.34202,46.9171],[8.34331,46.91516],[8.3434,46.91462],[8.3427,46.91228],[8.34269,46.91182],[8.34258,46.91145],[8.34122,46.90892],[8.34085,46.90854],[8.34024,46.90815],[8.33967,46.90761],[8.33757,46.90648],[8.33718,46.90614],[8.3369,46.90538],[8.33692,46.90497],[8.33667,46.90409],[8.33674,46.90373],[8.33665,46.90339]]]},"properties":{"bfs_nr":1503,"name":"Dallenwil"}},{"type":"Feature","geometry":{"type":"Polygon","coordinates":[[[8.48457,46.93232],[8.48436,46.93189],[8.48446,46.93135],[8.4846,46.9312],[8.485,46.93096],[8.48524,46.93088],[8.48556,46.93083],[8.4894,46.93054],[8.48964,46.9305],[8.48987,46.93043],[8.49008,46.93034],[8.49026,46.93022],[8.4904,46.93008],[8.4905,46.92992],[8.49089,46.92908],[8.49094,46.92893],[8.49096,46.92878],[8.49093,46.92863],[8.49084,46.92828],[8.49081,46.92805],[8.49067,46.92769],[8.49063,46.92707],[8.49027,46.9262],[8.49004,46.92583],[8.48996,46.92518],[8.49003,46.92404],[8.4899,46.92361],[8.48989,46.92299],[8.49035,46.92168],[8.49037,46.921],[8.49085,46.91921],[8.49104,46.91886],[8.49138,46.91861],[8.49183,46.91847],[8.49246,46.91841],[8.49309,46.91846],[8.49362,46.91837],[8.49446,46.91802],[8.49499,46.91797],[8.49607,46.91802],[8.49727,46.91832],[8.49778,46.91835],[8.49847,46.91814],[8.49878,46.91787],[8.49966,46.91671],[8.50041,46.91609],[8.50095,46.91585],[8.50127,46.91557],[8.50175,46.91488],[8.50213,46.91463],[8.5029,46.91449],[8.50403,46.91467],[8.505,46.91501],[8.50583,46.91519],[8.50625,46.91519],[8.50733,46.91535],[8.50773,46.91546],[8.50899,46.91571],[8.50988,46.91602],[8.5105,46.91633],[8.51091,46.91667],[8.51286,46.91738],[8.51367,46.91775],[8.51461,46.91795],[8.51512,46.91812],[8.51545,46.91838],[8.51587,46.91887],[8.51606,46.919],[8.5172,46.91945],[8.51793,46.91966],[8.51868,46.91997],[8.51899,46.92026],[8.51945,46.92123],[8.51965,46.92215],[8.51986,46.9225],[8.52051,46.92283],[8.52122,46.92292],[8.52223,46.92287],[8.52274,46.92289],[8.52368,46.92275],[8.52419,46.92278],[8.52499,46.92311],[8.52542,46.92322],[8.52719,46.92324],[8.52777,46.9233],[8.52829,46.92326],[8.52879,46.92332],[8.52919,46.92346],[8.52972,46.92355],[8.53078,46.92346],[8.53157,46.92355],[8.53209,46.92372],[8.53289,46.92413],[8.53384,46.92454],[8.53442,46.92482],[8.53486,46.92492],[8.53573,46.92494],[8.53649,46.9252],[8.53709,46.92554],[8.53759,46.92569],[8.53896,46.92591],[8.5396,46.92609],[8.54083,46.92636],[8.54178,46.92672],[8.5423,46.9272],[8.54285,46.9275],[8.54341,46.92771],[8.54379,46.92795],[8.54403,46.92844],[8.54396,46.92899],[8.5442,46.9295],[8.54447,46.92977],[8.54539,46.93039],[8.5458,46.93095],[8.54618,46.9313],[8.54689,46.9321],[8.54696,46.93246],[8.54686,46.93288],[8.54695,46.93337],[8.54737,46.93392],[8.54749,46.93476],[8.54741,46.9351],[8.54715,46.9354],[8.54674,46.9356],[8.54617,46.93577],[8.54576,46.93605],[8.5454,46.93649],[8.54497,46.93728],[8.54468,46.93802],[8.54471,46.93853],[8.54495,46.93882],[8.54556,46.9391],[8.54629,46.93912],[8.54805,46.93879],[8.54883,46.93879],[8.54926,46.93893],[8.54993,46.93926],[8.55045,46.93931],[8.55217,46.93924],[8.55399,46.93925],[8.5547,46.93938],[8.55514,46.93965],[8.55572,46.94021],[8.55585,46.94053],[8.55565,46.94114],[8.55562,46.94149],[8.55572,46.94211],[8.55611,46.94263],[8.55633,46.94326],[8.55639,46.94375],[8.55624,46.94427],[8.55634,46.94485],[8.55608,46.94546],[8.55604,46.94581],[8.5562,46.94614],[8.55684,46.94691],[8.55703,46.94733],[8.55688,46.94847],[8.55681,46.94875],[8.55571,46.95129],[8.55559,46.95258],[8.55568,46.95356],[8.55583,46.954],[8.55588,46.95478],[8.55583,46.95559],[8.55566,46.95662],[8.55586,46.95906],[8.55605,46.95955],[8.55605,46.95991],[8.55578,46.96069],[8.55519,46.96132],[8.55497,46.96246],[8.55506,46.96279],[8.55532,46.96308],[8.55573,46.96328],[8.55666,46.96351],[8.55807,46.96396],[8.55847,46.9642],[8.55907,46.96511],[8.55943,46.96538],[8.56003,46.96562],[8.56034,46.96589],[8.56066,46.96659],[8.5615,46.96807],[8.56208,46.96866],[8.5623,46.96912],[8.56293,46.96997],[8.56297,46.9705],[8.56262,46.97162],[8.56245,46.97233],[8.56248,46.9727],[8.5629,46.97316],[8.56586,46.97431],[8.56658,46.97451],[8.56711,46.97474],[8.56759,46.97515],[8.56828,46.97551],[8.56929,46.97647],[8.56954,46.97675],[8.5699,46.9774],[8.57044,46.97817],[8.57173,46.97956],[8.57245,46.97994],[8.57298,46.98052],[8.57328,46.981],[8.57403,46.98182],[8.57438,46.98227],[8.57469,46.98282],[8.5747,46.9832],[8.57423,46.9839],[8.57158,46.98911],[8.57112,46.98957],[8.57067,46.98972],[8.57017,46.98975],[8.56963,46.98963],[8.543,46.9797],[8.54235,46.97959],[8.52135,46.9798],[8.52056,46.97965],[8.5202,46.97941],[8.51999,46.9791],[8.52006,46.97854],[8.52522,46.96898],[8.5257,46.9682],[8.52574,46.96805],[8.52574,46.96782],[8.52577,46.96762],[8.52581,46.96751],[8.52585,46.96739],[8.52594,46.96721],[8.52604,46.96708],[8.52629,46.96686],[8.52647,46.96656],[8.5265,46.96624],[8.52632,46.96588],[8.52598,46.96561],[8.52533,46.96537],[8.52438,46.96488],[8.52406,46.96464],[8.5236,46.96448],[8.52303,46.96436],[8.52296,46.96434],[8.5229,46.96433],[8.52263,46.96425],[8.52235,46.96412],[8.52176,46.96396],[8.52123,46.96374],[8.52097,46.96364],[8.52092,46.96362],[8.52043,46.96342],[8.52014,46.96328],[8.51933,46.96281],[8.51927,46.96277],[8.51851,46.96238],[8.51842,46.96234],[8.51797,46.96215],[8.51749,46.96188],[8.51736,46.9618],[8.51712,46.9617],[8.51646,46.96157],[8.51587,46.96154],[8.51493,46.96133],[8.51428,46.96107],[8.51375,46.961],[8.51329,46.96087],[8.51259,46.96061],[8.51233,46.96049],[8.51213,46.96037],[8.51167,46.96023],[8.51116,46.96022],[8.51069,46.96034],[8.51028,46.96054],[8.50936,46.96082],[8.50865,46.96084],[8.50746,46.96046],[8.50688,46.96023],[8.50628,46.9597],[8.50584,46.95952],[8.5046,46.95936],[8.50423,46.95928],[8.50386,46.95922],[8.50364,46.95921],[8.50287,46.95924],[8.50161,46.95921],[8.50138,46.95925],[8.50094,46.95933],[8.50054,46.95936],[8.50017,46.95938],[8.4998,46.95945],[8.49927,46.95944],[8.49902,46.95937],[8.49879,46.95928],[8.49845,46.95901],[8.49828,46.95848],[8.49844,46.95805],[8.4985,46.95783],[8.49852,46.95746],[8.49853,46.95739],[8.49858,46.95704],[8.49862,46.95686],[8.49863,46.9567],[8.49861,46.95639],[8.49861,46.95637],[8.49857,46.95582],[8.49857,46.95576],[8.49857,46.95565],[8.49863,46.95519],[8.49858,46.95499],[8.49827,46.9546],[8.49813,46.9545],[8.49792,46.95437],[8.49773,46.95423],[8.49763,46.95415],[8.49752,46.95406],[8.49736,46.95389],[8.49705,46.95356],[8.49666,46.95336],[8.49612,46.95322],[8.49542,46.95314],[8.4929,46.95265],[8.49003,46.95197],[8.48976,46.95189],[8.48939,46.95167],[8.48916,46.95139],[8.4889,46.95049],[8.48878,46.94999],[8.48877,46.94931],[8.48888,46.94884],[8.48886,46.94866],[8.48879,46.94849],[8.48867,46.94833],[8.48851,46.94819],[8.48832,46.94808],[8.4881,46.94798],[8.48794,46.94791],[8.48775,46.94786],[8.48601,46.94747],[8.48573,46.94739],[8.48553,46.9473],[8.48522,46.94704],[8.48505,46.94657],[8.48509,46.94636],[8.48519,46.94598],[8.48534,46.94557],[8.48534,46.94555],[8.48548,46.9452],[8.48553,46.94508],[8.48559,46.94497],[8.48565,46.94481],[8.48572,46.94455],[8.48573,46.94436],[8.48573,46.944],[8.48581,46.94379],[8.48587,46.94366],[8.48593,46.94348],[8.48598,46.94318],[8.48604,46.94283],[8.48613,46.94263],[8.48627,46.9424],[8.48634,46.94227],[8.48656,46.94166],[8.48656,46.94165],[8.48672,46.94124],[8.48684,46.94102],[8.48716,46.94055],[8.48729,46.94038],[8.48743,46.94027],[8.48763,46.94015],[8.4882,46.93986],[8.48839,46.93974],[8.48854,46.9396],[8.48871,46.93926],[8.48868,46.93891],[8.48816,46.93753],[8.48816,46.93751],[8.48796,46.93704],[8.48784,46.93684],[8.48765,46.93667],[8.48747,46.93654],[8.48735,46.93641],[8.48708,46.936],[8.48656,46.93561],[8.48598,46.93511],[8.48527,46.93432],[8.48504,46.9338],[8.48477,46.93344],[8.48466,46.93324],[8.48462,46.93307],[8.48467,46.93266],[8.48464,46.93249],[8.48457,46.93232]]]},"properties":{"bfs_nr":1504,"name":"Emmetten"}},{"type":"Feature","geometry":{"type":"Polygon","coordinates":[[[8.37556,46.99567],[8.37538,46.99552],[8.3752,46.9952],[8.3752,46.99486],[8.37539,46.99455],[8.37578,46.99427],[8.37791,46.99325],[8.37864,46.99305],[8.38276,46.99267],[8.3855,46.99267],[8.386,46.9926],[8.38642,46.99241],[8.38659,46.99228],[8.38671,46.99213],[8.38856,46.98926],[8.38864,46.98909],[8.38865,46.98873],[8.38858,46.98856],[8.38781,46.98726],[8.38776,46.98716],[8.38733,46.98621],[8.3872,46.98602],[8.38605,46.98469],[8.38501,46.98375],[8.38471,46.98321],[8.38473,46.98299],[8.38502,46.98165],[8.38507,46.98147],[8.38552,46.98088],[8.38585,46.98062],[8.38627,46.98036],[8.38647,46.98021],[8.38733,46.97938],[8.38743,46.97927],[8.3878,46.97877],[8.38795,46.97853],[8.3882,46.97825],[8.38859,46.97788],[8.38868,46.97773],[8.38873,46.97757],[8.38874,46.9774],[8.38868,46.97688],[8.38868,46.97687],[8.38865,46.97658],[8.38864,46.97656],[8.38825,46.97414],[8.38825,46.97392],[8.38829,46.97375],[8.38852,46.97345],[8.3889,46.97322],[8.38963,46.97311],[8.39018,46.97321],[8.40598,46.97843],[8.40625,46.9785],[8.41279,46.97954],[8.413,46.97956],[8.4132,46.97956],[8.41351,46.97954],[8.41398,46.97945],[8.41462,46.97911],[8.41513,46.97899],[8.41567,46.97902],[8.41619,46.97922],[8.41892,46.9808],[8.41919,46.98092],[8.42793,46.98391],[8.42824,46.98398],[8.42856,46.984],[8.45067,46.98359],[8.45086,46.98359],[8.46414,46.98422],[8.46468,46.98431],[8.46508,46.98452],[8.46542,46.98502],[8.46815,46.99645],[8.46817,46.9966],[8.46902,47.00853],[8.469,47.00875],[8.46869,47.00921],[8.468,47.0095],[8.45848,47.01133],[8.42963,47.01689],[8.42879,47.01689],[8.42817,47.01658],[8.42789,47.01604],[8.42678,47.00243],[8.42696,47.0017],[8.42692,47.00085],[8.42697,47.00026],[8.4269,46.99961],[8.42702,46.99904],[8.42686,46.99868],[8.42636,46.99833],[8.42584,46.99816],[8.42464,46.99811],[8.42409,46.99812],[8.42279,46.99801],[8.42192,46.99817],[8.42118,46.99818],[8.41969,46.99831],[8.41892,46.99828],[8.41679,46.99841],[8.41579,46.99839],[8.4144,46.99819],[8.41354,46.99827],[8.41225,46.99874],[8.4117,46.99883],[8.41051,46.99922],[8.40969,46.9993],[8.40921,46.99943],[8.40823,46.99959],[8.40739,46.99984],[8.40661,46.99987],[8.40579,47.00006],[8.40532,47.00003],[8.40439,46.99978],[8.4038,46.99978],[8.40315,46.99991],[8.40264,46.99994],[8.40172,46.99981],[8.40093,46.99989],[8.40029,46.99983],[8.39958,46.99988],[8.39914,46.99997],[8.39857,47.00024],[8.39793,47.00042],[8.39723,47.00067],[8.39632,47.00077],[8.39579,47.00073],[8.39437,47.00014],[8.39321,47.00001],[8.39199,46.99976],[8.39063,46.99962],[8.39015,46.9995],[8.38884,46.99903],[8.3878,46.99878],[8.38701,46.99867],[8.38573,46.99836],[8.38457,46.99804],[8.38391,46.99771],[8.38262,46.99738],[8.38128,46.99707],[8.38116,46.99705],[8.38109,46.99704],[8.38041,46.99694],[8.37976,46.99683],[8.3795,46.9968],[8.37922,46.99679],[8.3789,46.99675],[8.37845,46.99668],[8.37828,46.99665],[8.37782,46.99661],[8.37732,46.99653],[8.37702,46.99643],[8.37664,46.9963],[8.3763,46.99616],[8.37622,46.99612],[8.37607,46.99604],[8.37595,46.99596],[8.37556,46.99567]]]},"properties":{"bfs_nr":1505,"name":"Ennetb\u00fcrgen"}},{"type":"Feature","geometry":{"type":"Polygon","coordinates":[[[8.28925,46.93545],[8.28878,46.93501],[8.28852,46.93465],[8.2885,46.93429],[8.28868,46.93396],[8.28905,46.9337],[8.28976,46.93344],[8.29063,46.93287],[8.29117,46.93266],[8.29257,46.93238],[8.2937,46.93199],[8.29447,46.93178],[8.29586,46.93158],[8.29632,46.93146],[8.29707,46.93105],[8.2985,46.93063],[8.29982,46.9303],[8.3005,46.92998],[8.30084,46.92949],[8.30086,46.92905],[8.30104,46.92875],[8.3015,46.9284],[8.30223,46.92798],[8.30312,46.92757],[8.30377,46.9272],[8.30489,46.92667],[8.30554,46.92623],[8.30631,46.92608],[8.30733,46.92563],[8.30821,46.92549],[8.3087,46.92526],[8.30927,46.92476],[8.30971,46.9246],[8.31046,46.92459],[8.31229,46.92517],[8.31311,46.92533],[8.31367,46.92526],[8.31458,46.92492],[8.31531,46.92459],[8.3158,46.92453],[8.31635,46.92462],[8.31716,46.92489],[8.31766,46.92498],[8.31878,46.92502],[8.3202,46.92516],[8.32111,46.92519],[8.32179,46.92532],[8.32253,46.92532],[8.32318,46.92541],[8.32371,46.92557],[8.32434,46.92589],[8.32547,46.92611],[8.32636,46.92635],[8.32669,46.92648],[8.32823,46.92697],[8.33432,46.92798],[8.33478,46.9281],[8.33795,46.92925],[8.33919,46.92945],[8.33997,46.92971],[8.34052,46.92983],[8.3419,46.93025],[8.34286,46.93043],[8.34328,46.93063],[8.34462,46.93112],[8.34509,46.93137],[8.3454,46.93191],[8.34582,46.93515],[8.34608,46.93627],[8.3461,46.93638],[8.34618,46.9372],[8.34619,46.93723],[8.3466,46.93986],[8.34678,46.94093],[8.34699,46.9419],[8.34702,46.94203],[8.34703,46.94206],[8.34705,46.94215],[8.34718,46.94252],[8.34719,46.9427],[8.34719,46.94279],[8.34718,46.94285],[8.34716,46.94304],[8.34705,46.94364],[8.34702,46.94394],[8.34702,46.94405],[8.34706,46.94454],[8.34705,46.94471],[8.347,46.94491],[8.34695,46.94514],[8.34695,46.94515],[8.34693,46.94535],[8.34688,46.9456],[8.34683,46.94577],[8.34678,46.94589],[8.34673,46.94608],[8.34681,46.94644],[8.34699,46.94668],[8.34712,46.94698],[8.34713,46.94719],[8.34712,46.94721],[8.34711,46.94732],[8.34706,46.94754],[8.34704,46.94764],[8.34704,46.9477],[8.34705,46.94789],[8.34711,46.94819],[8.34712,46.94841],[8.347,46.94881],[8.34694,46.94954],[8.34702,46.95032],[8.34722,46.95063],[8.34739,46.95125],[8.34743,46.95135],[8.34757,46.95176],[8.3476,46.95185],[8.34762,46.95192],[8.34772,46.95209],[8.34812,46.9525],[8.34827,46.95289],[8.34836,46.95304],[8.3484,46.95309],[8.34852,46.9533],[8.34855,46.95337],[8.34861,46.95352],[8.34866,46.95367],[8.34871,46.95377],[8.34875,46.95392],[8.34875,46.95412],[8.34858,46.95553],[8.34842,46.95695],[8.34841,46.95704],[8.34846,46.9584],[8.34809,46.95935],[8.34773,46.95963],[8.34634,46.96008],[8.34405,46.96059],[8.3438,46.96066],[8.34358,46.96077],[8.3434,46.96091],[8.34326,46.96107],[8.34317,46.96125],[8.34257,46.96311],[8.34257,46.96313],[8.34198,46.96485],[8.34188,46.96505],[8.34177,46.9652],[8.34142,46.96543],[8.34074,46.96559],[8.33964,46.96549],[8.33884,46.96537],[8.33859,46.96532],[8.33839,46.96525],[8.33746,46.96477],[8.33684,46.96456],[8.33661,46.96451],[8.33637,46.96448],[8.33531,46.96442],[8.33483,46.96436],[8.33387,46.96414],[8.3338,46.96412],[8.33311,46.96399],[8.33287,46.96396],[8.33262,46.96396],[8.33238,46.964],[8.33215,46.96406],[8.33194,46.96415],[8.33176,46.96427],[8.33162,46.96441],[8.33152,46.96456],[8.33136,46.96494],[8.33111,46.9652],[8.32956,46.96599],[8.32923,46.96622],[8.32739,46.96815],[8.3272,46.96831],[8.32702,46.96842],[8.32658,46.96856],[8.32609,46.96858],[8.32586,46.96854],[8.32558,46.96846],[8.31509,46.96453],[8.31474,46.96444],[8.30989,46.96373],[8.3092,46.96349],[8.30882,46.96302],[8.30633,46.95615],[8.30628,46.95594],[8.30649,46.9554],[8.30821,46.95339],[8.30895,46.95271],[8.30906,46.95236],[8.30897,46.95201],[8.30868,46.95172],[8.30788,46.95128],[8.30724,46.951],[8.30625,46.95051],[8.30543,46.95006],[8.30509,46.94976],[8.30453,46.94948],[8.30384,46.94923],[8.30266,46.94866],[8.30166,46.9479],[8.30061,46.94747],[8.30023,46.9472],[8.29973,46.94697],[8.29907,46.94655],[8.29862,46.94619],[8.29751,46.94513],[8.29703,46.94409],[8.29655,46.94354],[8.2958,46.94302],[8.29495,46.94186],[8.2942,46.94134],[8.29352,46.94103],[8.29289,46.9406],[8.29228,46.9401],[8.2918,46.93954],[8.29153,46.93889],[8.29066,46.93776],[8.29028,46.93685],[8.28982,46.93643],[8.28958,46.9361],[8.28925,46.93545]]]},"properties":{"bfs_nr":1506,"name":"Ennetmoos"}},{"type":"Feature","geometry":{"type":"Polygon","coordinates":[[[8.21832,46.98083],[8.21837,46.98047],[8.21868,46.97977],[8.21913,46.97919],[8.21954,46.97891],[8.22025,46.97855],[8.22051,46.97827],[8.22067,46.97793],[8.22098,46.97766],[8.22157,46.97742],[8.22193,46.97714],[8.22242,46.97642],[8.22302,46.97581],[8.22343,46.9756],[8.22435,46.97529],[8.22502,46.97502],[8.22565,46.97491],[8.2269,46.97433],[8.22805,46.97359],[8.22849,46.97344],[8.229,46.97342],[8.22963,46.97355],[8.23017,46.97355],[8.23106,46.97331],[8.23157,46.97331],[8.23204,46.97344],[8.23324,46.97417],[8.234,46.9744],[8.23553,46.97449],[8.23612,46.97444],[8.23847,46.97384],[8.24009,46.97367],[8.24069,46.97369],[8.24202,46.97406],[8.24403,46.97437],[8.24578,46.97513],[8.24681,46.97577],[8.24816,46.97625],[8.2484,46.97637],[8.25043,46.97768],[8.2508,46.9779],[8.25153,46.97849],[8.25215,46.97884],[8.25288,46.97942],[8.25372,46.9799],[8.25433,46.98002],[8.25484,46.97998],[8.25646,46.97957],[8.25699,46.97961],[8.25902,46.98001],[8.26001,46.98013],[8.26051,46.98012],[8.26123,46.97987],[8.26152,46.97956],[8.26166,46.97915],[8.26187,46.97885],[8.26224,46.97862],[8.2627,46.9785],[8.26362,46.97858],[8.26415,46.97855],[8.26507,46.97834],[8.26599,46.97843],[8.26672,46.97845],[8.26738,46.97837],[8.26784,46.97843],[8.26892,46.97879],[8.26971,46.97885],[8.27243,46.97861],[8.27351,46.97839],[8.27459,46.978],[8.27525,46.97756],[8.27571,46.97741],[8.2763,46.97733],[8.27703,46.97716],[8.27855,46.97694],[8.27919,46.97689],[8.28006,46.97663],[8.28073,46.97656],[8.28122,46.9764],[8.28173,46.97607],[8.28222,46.97594],[8.28301,46.97597],[8.28382,46.97583],[8.2843,46.97583],[8.28524,46.97609],[8.28598,46.97608],[8.28644,46.97594],[8.28709,46.97588],[8.28783,46.97591],[8.2884,46.97604],[8.28902,46.9761],[8.28966,46.97609],[8.2902,46.97614],[8.29104,46.97638],[8.29143,46.97644],[8.29226,46.97673],[8.29275,46.977],[8.29344,46.97712],[8.29411,46.97704],[8.29479,46.97703],[8.29551,46.97718],[8.29644,46.97721],[8.29713,46.97742],[8.29758,46.97747],[8.2982,46.97743],[8.2988,46.97751],[8.30027,46.97744],[8.30088,46.97757],[8.30138,46.97758],[8.30221,46.97741],[8.30279,46.97718],[8.30395,46.97693],[8.30456,46.97684],[8.30564,46.97657],[8.30636,46.97622],[8.30746,46.97585],[8.30857,46.97578],[8.3098,46.97565],[8.31029,46.97569],[8.31172,46.97603],[8.3129,46.976],[8.31327,46.9759],[8.31367,46.97585],[8.31437,46.97582],[8.31518,46.97572],[8.31618,46.97568],[8.31649,46.9757],[8.3169,46.97578],[8.31732,46.97583],[8.31827,46.97619],[8.31912,46.97644],[8.32072,46.9767],[8.32094,46.97671],[8.32118,46.9767],[8.32136,46.97668],[8.32181,46.97662],[8.32217,46.9766],[8.32249,46.97663],[8.32324,46.97655],[8.3237,46.97658],[8.32412,46.97668],[8.32467,46.97681],[8.32489,46.9769],[8.32533,46.97721],[8.32546,46.97729],[8.32568,46.9774],[8.32577,46.97745],[8.32662,46.97782],[8.32685,46.97798],[8.32701,46.97813],[8.32727,46.97852],[8.32764,46.97877],[8.32812,46.97891],[8.32864,46.9789],[8.32952,46.97871],[8.33036,46.97873],[8.33102,46.97897],[8.3313,46.97926],[8.3314,46.97946],[8.33429,46.98848],[8.3343,46.98888],[8.33389,46.98939],[8.31944,46.99917],[8.31893,46.9994],[8.31806,46.99942],[8.31266,46.99842],[8.31181,46.99817],[8.31132,46.99809],[8.31061,46.99809],[8.31011,46.99815],[8.30881,46.99808],[8.30812,46.99814],[8.30709,46.99814],[8.30585,46.99793],[8.30528,46.99796],[8.30448,46.99821],[8.30354,46.99835],[8.30288,46.99835],[8.30198,46.99824],[8.30041,46.9981],[8.29862,46.99823],[8.29813,46.99817],[8.29701,46.99783],[8.29646,46.99784],[8.29569,46.99803],[8.29516,46.998],[8.29468,46.99783],[8.29408,46.99737],[8.29387,46.99703],[8.29384,46.99674],[8.29356,46.99629],[8.2932,46.99607],[8.29266,46.99592],[8.29197,46.99585],[8.29095,46.99588],[8.29048,46.99574],[8.28875,46.99475],[8.28826,46.99466],[8.28646,46.99471],[8.28546,46.99485],[8.28465,46.99491],[8.28375,46.99507],[8.28163,46.99563],[8.28081,46.99605],[8.27993,46.99638],[8.27929,46.99692],[8.27897,46.99731],[8.27829,46.99776],[8.27783,46.99789],[8.27727,46.99788],[8.2742,46.99749],[8.27369,46.99749],[8.27316,46.99761],[8.27265,46.99763],[8.27183,46.99756],[8.27126,46.9976],[8.2703,46.99796],[8.26959,46.99811],[8.26791,46.99818],[8.26671,46.99799],[8.26574,46.99812],[8.26528,46.99809],[8.26417,46.99772],[8.26267,46.99718],[8.26023,46.99633],[8.25988,46.99618],[8.25834,46.99535],[8.25601,46.99446],[8.25528,46.99413],[8.25478,46.99363],[8.25461,46.99299],[8.25438,46.9927],[8.25395,46.9924],[8.25339,46.99176],[8.25319,46.99163],[8.25058,46.99023],[8.25021,46.98997],[8.24863,46.9885],[8.24848,46.98834],[8.24825,46.98765],[8.24798,46.98737],[8.24759,46.98718],[8.24475,46.98627],[8.24401,46.98619],[8.24333,46.9864],[8.24223,46.98706],[8.24117,46.98805],[8.24024,46.98872],[8.23965,46.98934],[8.23939,46.99003],[8.23919,46.99041],[8.23864,46.99086],[8.23817,46.9913],[8.23746,46.99156],[8.23693,46.99154],[8.23597,46.99127],[8.2355,46.99125],[8.23504,46.99134],[8.23392,46.9919],[8.23341,46.99207],[8.23133,46.99251],[8.23081,46.99257],[8.22935,46.99259],[8.22874,46.99252],[8.22813,46.99216],[8.2278,46.99165],[8.2274,46.99123],[8.22678,46.99029],[8.22649,46.98973],[8.2259,46.9893],[8.22502,46.98851],[8.22469,46.98795],[8.22387,46.9873],[8.22345,46.98635],[8.22299,46.98587],[8.22273,46.98549],[8.22219,46.98508],[8.22141,46.98432],[8.22131,46.98417],[8.22099,46.98322],[8.22068,46.9829],[8.21991,46.98248],[8.21908,46.98169],[8.2186,46.98139],[8.21832,46.98083]]]},"properties":{"bfs_nr":1507,"name":"Hergiswil (NW)"}},{"type":"Feature","geometry":{"type":"Polygon","coordinates":[[[8.36729,46.9467],[8.36731,46.94649],[8.36745,46.94593],[8.36794,46.94537],[8.36811,46.94488],[8.36809,46.94472],[8.36807,46.94462],[8.36806,46.94456],[8.36805,46.94421],[8.36809,46.94405],[8.36818,46.94387],[8.36826,46.94376],[8.36839,46.94359],[8.36851,46.94345],[8.36858,46.94338],[8.36873,46.94325],[8.36887,46.94311],[8.36896,46.94296],[8.36901,46.94279],[8.36901,46.94276],[8.36902,46.94272],[8.3691,46.94189],[8.36933,46.94099],[8.36934,46.94078],[8.36913,46.9386],[8.36916,46.93828],[8.3694,46.93736],[8.36956,46.93704],[8.36973,46.93687],[8.37012,46.93664],[8.37061,46.93654],[8.37136,46.93665],[8.37282,46.93732],[8.37326,46.93765],[8.37416,46.93803],[8.37438,46.9381],[8.3746,46.93814],[8.37484,46.93816],[8.37508,46.93814],[8.3757,46.938],[8.37598,46.93792],[8.37646,46.93767],[8.37715,46.93751],[8.37901,46.93745],[8.37981,46.93746],[8.38028,46.9374],[8.38064,46.93741],[8.38104,46.93745],[8.38132,46.93745],[8.38193,46.93743],[8.38245,46.93737],[8.38304,46.93719],[8.38342,46.93709],[8.38364,46.93705],[8.38402,46.93699],[8.38442,46.93694],[8.38445,46.93693],[8.38465,46.93691],[8.38519,46.9369],[8.38525,46.93691],[8.38543,46.93691],[8.38563,46.93691],[8.38598,46.93693],[8.38634,46.937],[8.38672,46.93713],[8.38766,46.93727],[8.38797,46.9373],[8.38942,46.93732],[8.39053,46.93744],[8.39065,46.93745],[8.39077,46.93746],[8.39081,46.93746],[8.39243,46.93755],[8.39269,46.93755],[8.39295,46.93751],[8.39319,46.93744],[8.3934,46.93733],[8.39358,46.9372],[8.39372,46.93705],[8.39381,46.93688],[8.39385,46.9367],[8.39401,46.93476],[8.39402,46.93473],[8.39402,46.93463],[8.39402,46.9346],[8.39402,46.9345],[8.39402,46.93447],[8.39401,46.93436],[8.39401,46.93432],[8.394,46.93427],[8.39399,46.93423],[8.39398,46.93416],[8.39397,46.93411],[8.39395,46.93404],[8.39393,46.93398],[8.39384,46.93374],[8.3938,46.93364],[8.39377,46.93359],[8.39373,46.93352],[8.39337,46.93301],[8.39335,46.93298],[8.39326,46.93284],[8.39322,46.93278],[8.39313,46.93261],[8.39309,46.93254],[8.39304,46.93243],[8.39297,46.93227],[8.39285,46.93183],[8.39282,46.93161],[8.39285,46.93143],[8.39305,46.93111],[8.39341,46.93087],[8.39464,46.93047],[8.39514,46.93036],[8.39566,46.93032],[8.39638,46.93039],[8.3975,46.93026],[8.39864,46.93017],[8.39961,46.93031],[8.40123,46.93047],[8.40172,46.93046],[8.40194,46.93045],[8.40233,46.93039],[8.40335,46.93036],[8.40411,46.93016],[8.40531,46.93015],[8.40603,46.93002],[8.40698,46.93002],[8.40758,46.92984],[8.408,46.92962],[8.40858,46.92941],[8.40952,46.92917],[8.41016,46.92909],[8.41082,46.92886],[8.4118,46.92885],[8.41227,46.92879],[8.41346,46.92844],[8.41468,46.92794],[8.41637,46.92752],[8.41677,46.92733],[8.41738,46.92695],[8.4174,46.92693],[8.41754,46.92685],[8.41762,46.92679],[8.41782,46.92664],[8.418,46.92653],[8.41814,46.92641],[8.41856,46.92581],[8.4186,46.92525],[8.41896,46.9246],[8.41912,46.92444],[8.4196,46.92416],[8.41987,46.92398],[8.42005,46.92381],[8.42026,46.92369],[8.42056,46.92357],[8.42077,46.92351],[8.42085,46.92349],[8.42093,46.92347],[8.42108,46.92342],[8.42126,46.92336],[8.42207,46.923],[8.42257,46.9229],[8.42278,46.92283],[8.42283,46.92282],[8.42289,46.9228],[8.42309,46.92274],[8.42379,46.92243],[8.42456,46.92205],[8.42543,46.92173],[8.42589,46.92163],[8.4266,46.92168],[8.42731,46.92161],[8.42752,46.92152],[8.42761,46.92147],[8.42797,46.92132],[8.42814,46.92127],[8.42878,46.92112],[8.42934,46.92094],[8.42985,46.92087],[8.43115,46.92049],[8.43199,46.92021],[8.43254,46.92021],[8.43295,46.92029],[8.43321,46.92029],[8.43344,46.92028],[8.43364,46.92026],[8.43376,46.92024],[8.43392,46.92021],[8.43428,46.92011],[8.43482,46.92008],[8.43571,46.92029],[8.43656,46.92044],[8.43715,46.92045],[8.4387,46.92],[8.43914,46.91989],[8.43944,46.91982],[8.43964,46.9198],[8.44,46.91979],[8.44008,46.9198],[8.44047,46.91984],[8.44087,46.91994],[8.44119,46.92007],[8.44148,46.92025],[8.44163,46.92039],[8.44184,46.92077],[8.44234,46.92128],[8.44274,46.92151],[8.44364,46.92215],[8.4441,46.92232],[8.44435,46.92236],[8.44469,46.92237],[8.44549,46.92231],[8.44618,46.92238],[8.44692,46.92263],[8.44742,46.92305],[8.44751,46.92345],[8.44751,46.92358],[8.4475,46.92394],[8.44738,46.92508],[8.44742,46.9254],[8.44771,46.92589],[8.4478,46.92626],[8.4479,46.92642],[8.44803,46.92657],[8.44821,46.92669],[8.44841,46.92679],[8.44864,46.92687],[8.44889,46.92691],[8.44915,46.92691],[8.4494,46.92689],[8.4496,46.92685],[8.4498,46.9268],[8.45066,46.92654],[8.4509,46.92645],[8.45129,46.92625],[8.45164,46.92612],[8.45329,46.92561],[8.4538,46.92558],[8.45428,46.9257],[8.45466,46.92592],[8.45488,46.92623],[8.45492,46.92658],[8.45485,46.92679],[8.45466,46.9272],[8.45452,46.92741],[8.45437,46.92756],[8.4534,46.92837],[8.45288,46.92862],[8.45239,46.92901],[8.45197,46.92924],[8.4517,46.92942],[8.45151,46.92958],[8.45131,46.92996],[8.45123,46.93039],[8.45117,46.9306],[8.45086,46.93135],[8.45075,46.93155],[8.45062,46.93169],[8.45026,46.93191],[8.44949,46.93215],[8.44915,46.93223],[8.44879,46.93226],[8.44775,46.93227],[8.44752,46.93228],[8.4473,46.93233],[8.44709,46.93239],[8.44632,46.93269],[8.44608,46.9328],[8.4457,46.933],[8.44548,46.93317],[8.4454,46.93324],[8.44533,46.93332],[8.44498,46.93371],[8.44431,46.93437],[8.44409,46.93454],[8.44382,46.93468],[8.44351,46.93481],[8.44322,46.93491],[8.44271,46.93496],[8.44245,46.93494],[8.44215,46.93486],[8.4414,46.93462],[8.44086,46.93453],[8.43945,46.93465],[8.43918,46.93472],[8.43894,46.93483],[8.4384,46.93514],[8.43692,46.93584],[8.43626,46.93621],[8.43532,46.93665],[8.43527,46.93667],[8.43465,46.93699],[8.43451,46.93708],[8.43438,46.93718],[8.43411,46.93743],[8.43398,46.93758],[8.4339,46.93775],[8.43386,46.93793],[8.43386,46.93798],[8.43386,46.93807],[8.4339,46.93854],[8.43402,46.93923],[8.43406,46.93992],[8.43401,46.94031],[8.43379,46.94063],[8.43323,46.94104],[8.43305,46.94136],[8.43306,46.9417],[8.4332,46.94219],[8.43323,46.94258],[8.43321,46.94277],[8.43314,46.943],[8.43304,46.94317],[8.43268,46.94345],[8.43218,46.94361],[8.43116,46.94365],[8.4307,46.94378],[8.43049,46.94389],[8.43032,46.94403],[8.43021,46.94413],[8.43012,46.94425],[8.4298,46.94465],[8.42899,46.94527],[8.42827,46.94551],[8.428,46.94552],[8.42766,46.94548],[8.42571,46.9451],[8.4256,46.94508],[8.42474,46.94497],[8.42449,46.94495],[8.42384,46.94495],[8.42354,46.94497],[8.42299,46.94506],[8.42271,46.94513],[8.42246,46.94524],[8.42225,46.94538],[8.42222,46.94542],[8.42217,46.94546],[8.42192,46.94571],[8.42171,46.94589],[8.42148,46.94606],[8.42129,46.94617],[8.41978,46.94673],[8.41924,46.94678],[8.41827,46.94671],[8.4178,46.94684],[8.41669,46.9476],[8.41623,46.94799],[8.41614,46.94807],[8.41586,46.94837],[8.41585,46.94839],[8.41546,46.94878],[8.41544,46.9488],[8.41536,46.94889],[8.41525,46.94904],[8.41519,46.94919],[8.41519,46.94969],[8.41499,46.95049],[8.41451,46.95145],[8.41435,46.95171],[8.41422,46.95187],[8.41397,46.9521],[8.41372,46.95229],[8.41353,46.95242],[8.41311,46.95266],[8.41271,46.95291],[8.41245,46.95306],[8.41228,46.95317],[8.41186,46.9535],[8.41185,46.9535],[8.41168,46.95364],[8.41153,46.95379],[8.41143,46.95395],[8.41129,46.95437],[8.41101,46.95466],[8.41024,46.95509],[8.40928,46.95598],[8.40759,46.95773],[8.40715,46.95819],[8.40712,46.95822],[8.40699,46.95836],[8.40697,46.95838],[8.40658,46.9588],[8.40557,46.95992],[8.40459,46.96101],[8.40456,46.96104],[8.4042,46.96141],[8.40275,46.96293],[8.40273,46.96295],[8.40247,46.96323],[8.40247,46.96324],[8.40185,46.9639],[8.40129,46.9645],[8.40126,46.96453],[8.40123,46.96456],[8.40016,46.96571],[8.39865,46.96736],[8.39846,46.96753],[8.39807,46.96772],[8.3976,46.96781],[8.39712,46.96777],[8.39684,46.96769],[8.39652,46.96758],[8.39649,46.96757],[8.39615,46.96745],[8.39613,46.96744],[8.39578,46.96733],[8.39575,46.96732],[8.39539,46.96721],[8.39537,46.96721],[8.39366,46.9667],[8.39186,46.96621],[8.39054,46.96589],[8.3905,46.96588],[8.38946,46.96561],[8.38941,46.9656],[8.38802,46.96521],[8.38793,46.96518],[8.38728,46.96498],[8.38648,46.96493],[8.38615,46.96486],[8.38361,46.96417],[8.38325,46.96404],[8.38212,46.96353],[8.38197,46.96346],[8.37988,46.96231],[8.37933,46.96203],[8.37905,46.96184],[8.37884,46.96162],[8.37853,46.96117],[8.37851,46.96115],[8.37759,46.95992],[8.37758,46.95991],[8.3771,46.95928],[8.37649,46.95889],[8.37579,46.95877],[8.37532,46.95858],[8.3751,46.9584],[8.37335,46.95673],[8.3732,46.95656],[8.37301,46.9563],[8.37285,46.95597],[8.37284,46.95566],[8.37269,46.95509],[8.37261,46.95495],[8.37227,46.95446],[8.37211,46.95429],[8.37165,46.95404],[8.37083,46.95377],[8.37035,46.95355],[8.37008,46.95327],[8.36997,46.95265],[8.36977,46.95229],[8.3694,46.95194],[8.36903,46.95129],[8.36881,46.95096],[8.36852,46.95069],[8.36811,46.95045],[8.36793,46.95026],[8.3678,46.95009],[8.36774,46.95001],[8.36746,46.94956],[8.36742,46.94949],[8.36741,46.94947],[8.36733,46.94927],[8.36733,46.94894],[8.36765,46.94845],[8.36773,46.94809],[8.36734,46.94699],[8.36729,46.9467]]]},"properties":{"bfs_nr":1508,"name":"Oberdorf (NW)"}},{"type":"Feature","geometry":{"type":"Polygon","coordinates":[[[8.34178,46.96669],[8.34185,46.96613],[8.34177,46.96561],[8.34181,46.96536],[8.34257,46.96312],[8.34257,46.96311],[8.34316,46.96129],[8.34326,46.96107],[8.34359,46.96077],[8.34412,46.96057],[8.34638,46.96007],[8.34771,46.95967],[8.34828,46.95933],[8.34846,46.95901],[8.34857,46.95835],[8.34856,46.9582],[8.34844,46.95775],[8.34842,46.95692],[8.34858,46.95552],[8.34876,46.95406],[8.34876,46.9539],[8.34872,46.95374],[8.34856,46.95339],[8.3485,46.95326],[8.34847,46.9532],[8.34834,46.95298],[8.34816,46.95252],[8.34773,46.95209],[8.34761,46.95188],[8.34755,46.95167],[8.34749,46.9515],[8.34738,46.9512],[8.34728,46.95079],[8.34703,46.95008],[8.34697,46.94955],[8.34699,46.94892],[8.34713,46.94847],[8.34712,46.94827],[8.34706,46.94794],[8.34704,46.94766],[8.34711,46.9473],[8.34712,46.94723],[8.34713,46.94712],[8.34713,46.94694],[8.34706,46.94675],[8.34679,46.94636],[8.34675,46.94604],[8.34687,46.94563],[8.34694,46.94531],[8.34702,46.94484],[8.34706,46.94471],[8.34706,46.94457],[8.34702,46.94408],[8.34702,46.94391],[8.34705,46.94367],[8.34711,46.94337],[8.34715,46.94313],[8.34718,46.94284],[8.34719,46.9428],[8.34719,46.94267],[8.34719,46.94252],[8.34714,46.94238],[8.34709,46.94225],[8.34705,46.94213],[8.34702,46.94202],[8.347,46.94193],[8.34697,46.94174],[8.34695,46.94157],[8.34678,46.94091],[8.3466,46.93986],[8.3466,46.93985],[8.34619,46.93724],[8.34618,46.9372],[8.34609,46.93636],[8.34608,46.93629],[8.34581,46.93514],[8.34548,46.93248],[8.34548,46.93226],[8.34553,46.93209],[8.34596,46.93166],[8.34666,46.93147],[8.34735,46.9315],[8.34765,46.9315],[8.34891,46.93139],[8.34924,46.93139],[8.34966,46.93145],[8.35006,46.93156],[8.3508,46.93184],[8.35101,46.93191],[8.35125,46.93195],[8.35204,46.93204],[8.35246,46.93216],[8.35275,46.93221],[8.3534,46.93226],[8.35402,46.93241],[8.35452,46.93268],[8.35475,46.93279],[8.35536,46.93302],[8.35572,46.93319],[8.35616,46.93354],[8.35656,46.93372],[8.35754,46.93394],[8.35771,46.93398],[8.35786,46.93401],[8.35794,46.93402],[8.35804,46.93403],[8.35827,46.93406],[8.35854,46.93413],[8.35904,46.9343],[8.35911,46.93433],[8.35961,46.93447],[8.3597,46.93449],[8.35994,46.93455],[8.36013,46.93458],[8.36066,46.93457],[8.36108,46.93446],[8.36137,46.93441],[8.36143,46.9344],[8.36165,46.93436],[8.36193,46.93433],[8.36215,46.93433],[8.36262,46.93438],[8.36315,46.93443],[8.36324,46.93443],[8.36339,46.93444],[8.36376,46.93444],[8.36428,46.93456],[8.36496,46.93494],[8.3655,46.93508],[8.36662,46.93505],[8.36705,46.93505],[8.36745,46.93508],[8.36813,46.9352],[8.36832,46.93525],[8.36854,46.93532],[8.36909,46.93554],[8.36953,46.93585],[8.3698,46.93636],[8.36976,46.93673],[8.36946,46.93719],[8.36941,46.93732],[8.36914,46.93833],[8.36913,46.93855],[8.36934,46.94073],[8.36931,46.94104],[8.3691,46.94192],[8.36908,46.94201],[8.36902,46.94271],[8.36901,46.94275],[8.36895,46.94295],[8.36886,46.94311],[8.3687,46.94329],[8.36857,46.94339],[8.36853,46.94344],[8.3685,46.94346],[8.3684,46.94357],[8.36825,46.94377],[8.3682,46.94384],[8.36816,46.94391],[8.36809,46.94405],[8.36806,46.94419],[8.36805,46.94425],[8.36805,46.94435],[8.36805,46.94447],[8.36806,46.94449],[8.36806,46.94457],[8.3681,46.94488],[8.36793,46.94537],[8.36741,46.94597],[8.3673,46.94653],[8.36728,46.94673],[8.36732,46.94694],[8.3677,46.94802],[8.36764,46.94835],[8.3673,46.94886],[8.36728,46.9492],[8.36735,46.94937],[8.36742,46.9495],[8.36745,46.94955],[8.36775,46.95002],[8.36779,46.95007],[8.36817,46.95058],[8.36833,46.95074],[8.36869,46.95095],[8.36901,46.95126],[8.36935,46.95194],[8.36936,46.95227],[8.36925,46.95265],[8.36931,46.95298],[8.36954,46.95327],[8.36991,46.95349],[8.37124,46.95391],[8.37195,46.95422],[8.37215,46.95436],[8.37234,46.95457],[8.37256,46.95488],[8.37268,46.9551],[8.37268,46.95574],[8.37282,46.95606],[8.37322,46.95659],[8.37332,46.9567],[8.37535,46.95865],[8.37595,46.95896],[8.37644,46.95904],[8.37691,46.9592],[8.37709,46.95933],[8.37728,46.95952],[8.37758,46.95991],[8.37759,46.95993],[8.37851,46.96114],[8.37853,46.96117],[8.37888,46.96167],[8.37904,46.96185],[8.37927,46.96199],[8.37989,46.96231],[8.382,46.96347],[8.38209,46.96352],[8.38331,46.96407],[8.38355,46.96415],[8.38616,46.96487],[8.38678,46.96518],[8.38705,46.96569],[8.38785,46.97244],[8.38797,46.97323],[8.38818,46.97371],[8.38864,46.97655],[8.38865,46.97659],[8.38868,46.97687],[8.38868,46.97688],[8.38873,46.97736],[8.38873,46.97757],[8.38859,46.97788],[8.38815,46.9783],[8.38798,46.97848],[8.38779,46.97878],[8.38745,46.97924],[8.3873,46.97941],[8.38651,46.98017],[8.38621,46.9804],[8.38579,46.98066],[8.38556,46.98083],[8.38542,46.98098],[8.38512,46.98133],[8.38474,46.98156],[8.38419,46.98168],[8.38369,46.9817],[8.38288,46.98151],[8.38268,46.98147],[8.38258,46.98146],[8.38231,46.98143],[8.38225,46.98143],[8.38067,46.98121],[8.379,46.981],[8.37878,46.98097],[8.37836,46.98088],[8.37813,46.98084],[8.37721,46.98085],[8.3767,46.98074],[8.3758,46.98045],[8.37467,46.98029],[8.37452,46.98027],[8.37348,46.98006],[8.3732,46.98],[8.37143,46.97944],[8.37117,46.97934],[8.36973,46.9787],[8.36961,46.97866],[8.36881,46.97838],[8.36857,46.97831],[8.3675,46.97811],[8.3672,46.97803],[8.36679,46.97781],[8.36657,46.97759],[8.36655,46.97757],[8.36645,46.97747],[8.36627,46.97733],[8.36604,46.97722],[8.36536,46.97701],[8.36473,46.97663],[8.36455,46.97656],[8.36381,46.9763],[8.36368,46.97626],[8.36249,46.97593],[8.36231,46.97582],[8.36213,46.9757],[8.36189,46.97555],[8.36093,46.97505],[8.3605,46.97491],[8.3599,46.97461],[8.35938,46.97441],[8.35911,46.97433],[8.35892,46.97429],[8.35857,46.97425],[8.35814,46.97426],[8.3577,46.97425],[8.35753,46.97425],[8.35733,46.97425],[8.3569,46.97422],[8.35686,46.97421],[8.35654,46.97414],[8.35631,46.97405],[8.35573,46.97366],[8.35557,46.97356],[8.35538,46.97348],[8.35518,46.97342],[8.35479,46.97334],[8.35439,46.97322],[8.35432,46.9732],[8.35395,46.9731],[8.35386,46.97308],[8.35342,46.97299],[8.35334,46.97297],[8.35319,46.97293],[8.35297,46.97287],[8.35276,46.97278],[8.35269,46.97274],[8.35245,46.9726],[8.35219,46.9723],[8.35191,46.97121],[8.35175,46.97089],[8.35126,46.97022],[8.35075,46.96985],[8.35028,46.96974],[8.35002,46.96973],[8.34978,46.96975],[8.34954,46.96981],[8.34892,46.97],[8.34871,46.97009],[8.34802,46.97051],[8.34753,46.97062],[8.34702,46.97059],[8.34672,46.97051],[8.34566,46.97014],[8.34374,46.96961],[8.34347,46.96952],[8.34312,46.96929],[8.34291,46.969],[8.34273,46.96833],[8.34191,46.96702],[8.34178,46.96669]]]},"properties":{"bfs_nr":1509,"name":"Stans"}},{"type":"Feature","geometry":{"type":"Polygon","coordinates":[[[8.30739,46.97373],[8.30809,46.97312],[8.30866,46.97256],[8.30907,46.97225],[8.30965,46.97132],[8.30987,46.97052],[8.31003,46.97019],[8.31074,46.96929],[8.31088,46.96897],[8.31085,46.96864],[8.30955,46.96505],[8.30959,46.96447],[8.31007,46.96405],[8.31056,46.96391],[8.31115,46.96392],[8.31464,46.96443],[8.31518,46.96456],[8.32563,46.96848],[8.32585,46.96854],[8.32609,46.96858],[8.32634,46.96859],[8.32658,46.96856],[8.32681,46.9685],[8.32702,46.96842],[8.32721,46.96831],[8.32736,46.96818],[8.3292,46.96626],[8.32961,46.96596],[8.33095,46.96531],[8.33112,46.96521],[8.33126,46.96508],[8.33136,46.96495],[8.33158,46.96448],[8.33171,46.96433],[8.33189,46.9642],[8.3321,46.96409],[8.33234,46.96401],[8.33285,46.96397],[8.33318,46.964],[8.33379,46.96412],[8.33389,46.96414],[8.33491,46.96438],[8.33523,46.96442],[8.3363,46.96447],[8.33661,46.96451],[8.33738,46.96474],[8.33839,46.96526],[8.33858,46.96532],[8.33879,46.96537],[8.33966,46.96549],[8.3407,46.96561],[8.34142,46.9659],[8.34168,46.96622],[8.34178,46.96673],[8.34188,46.96696],[8.34271,46.9683],[8.34291,46.969],[8.34312,46.9693],[8.34328,46.96942],[8.34347,46.96952],[8.34368,46.9696],[8.34563,46.97013],[8.34682,46.97054],[8.34708,46.97061],[8.34735,46.97064],[8.34789,46.97059],[8.34835,46.97038],[8.34875,46.97009],[8.34906,46.96996],[8.3494,46.96985],[8.34973,46.96978],[8.35,46.96976],[8.35053,46.96983],[8.35098,46.97005],[8.35171,46.97086],[8.35192,46.97126],[8.35218,46.9723],[8.35245,46.9726],[8.35264,46.97272],[8.3528,46.9728],[8.35297,46.97287],[8.35314,46.97292],[8.35336,46.97297],[8.35341,46.97298],[8.35384,46.97307],[8.35397,46.9731],[8.35431,46.97319],[8.35441,46.97322],[8.35486,46.97336],[8.3553,46.97347],[8.35554,46.97356],[8.35579,46.9737],[8.3563,46.97406],[8.35653,46.97415],[8.35679,46.9742],[8.35697,46.97423],[8.35726,46.97425],[8.35748,46.97425],[8.3578,46.97426],[8.35788,46.97427],[8.35814,46.97428],[8.35854,46.97426],[8.359,46.97431],[8.35984,46.97459],[8.36049,46.97491],[8.361,46.97509],[8.36136,46.9753],[8.36194,46.97558],[8.36237,46.97589],[8.36285,46.97608],[8.36331,46.97616],[8.36384,46.97631],[8.36473,46.97664],[8.36535,46.97701],[8.36604,46.97722],[8.36626,46.97733],[8.36649,46.97751],[8.36677,46.97781],[8.36717,46.97803],[8.36742,46.9781],[8.3685,46.9783],[8.36886,46.9784],[8.36976,46.97872],[8.37121,46.97936],[8.37138,46.97943],[8.37325,46.98001],[8.37343,46.98006],[8.37454,46.98027],[8.37464,46.98029],[8.37571,46.98044],[8.37675,46.98076],[8.37721,46.98085],[8.37813,46.98085],[8.37842,46.98089],[8.37882,46.98097],[8.37897,46.981],[8.38067,46.98121],[8.38069,46.98122],[8.38226,46.98143],[8.3823,46.98143],[8.38258,46.98146],[8.38289,46.98153],[8.38419,46.98201],[8.38453,46.98225],[8.38476,46.98271],[8.38474,46.98292],[8.38472,46.98304],[8.38471,46.98321],[8.38497,46.98371],[8.38607,46.98471],[8.38717,46.98598],[8.38735,46.98626],[8.38777,46.98718],[8.3878,46.98724],[8.38855,46.98852],[8.38864,46.98874],[8.38863,46.98909],[8.38853,46.9893],[8.38674,46.99209],[8.38658,46.99228],[8.38642,46.99241],[8.386,46.9926],[8.38544,46.99267],[8.38281,46.99266],[8.37856,46.99306],[8.37798,46.99321],[8.3757,46.99431],[8.37536,46.99456],[8.37524,46.99471],[8.37515,46.99504],[8.37517,46.99521],[8.37535,46.99553],[8.37571,46.99581],[8.3759,46.99593],[8.37609,46.99605],[8.3762,46.99611],[8.37635,46.99619],[8.37658,46.99628],[8.37706,46.99645],[8.37721,46.9965],[8.3774,46.99655],[8.37774,46.9966],[8.37836,46.99667],[8.37842,46.99668],[8.37895,46.99676],[8.37916,46.99678],[8.37944,46.9968],[8.37983,46.99684],[8.3804,46.99694],[8.3806,46.99699],[8.38082,46.99702],[8.38122,46.99706],[8.38153,46.99713],[8.38193,46.99725],[8.3828,46.99742],[8.38391,46.99772],[8.38427,46.9979],[8.38464,46.9982],[8.38479,46.99854],[8.38463,46.99905],[8.38445,46.99924],[8.38309,47.00034],[8.38284,47.00064],[8.38278,47.00106],[8.38293,47.00141],[8.38327,47.00169],[8.38416,47.00219],[8.38466,47.00293],[8.38469,47.00319],[8.38384,47.01698],[8.3836,47.01749],[8.38304,47.01781],[8.38274,47.01787],[8.3694,47.01982],[8.3686,47.01979],[8.36797,47.01946],[8.33467,46.98921],[8.33438,46.98877],[8.33138,46.97942],[8.3313,46.97925],[8.33118,46.9791],[8.33102,46.97897],[8.33082,46.97886],[8.33036,46.97873],[8.32956,46.9787],[8.32833,46.97879],[8.32785,46.97874],[8.32727,46.97844],[8.32701,46.9781],[8.32686,46.97797],[8.32669,46.97786],[8.32663,46.97783],[8.32653,46.97778],[8.3258,46.97746],[8.32553,46.97732],[8.32527,46.97715],[8.3251,46.977],[8.32491,46.9769],[8.3247,46.97681],[8.32377,46.97659],[8.32355,46.97656],[8.32324,46.97654],[8.32268,46.9766],[8.322,46.97659],[8.32172,46.97662],[8.32158,46.97664],[8.32109,46.9767],[8.321,46.9767],[8.32072,46.9767],[8.31905,46.97642],[8.31823,46.97617],[8.31725,46.97579],[8.31698,46.97575],[8.31632,46.97568],[8.31608,46.97568],[8.31595,46.97568],[8.31509,46.97572],[8.31489,46.97574],[8.31428,46.97582],[8.31353,46.97586],[8.31327,46.97589],[8.31279,46.976],[8.31172,46.97603],[8.31046,46.97568],[8.30994,46.97562],[8.30841,46.97578],[8.30788,46.97572],[8.30747,46.97555],[8.30717,46.97529],[8.30702,46.97494],[8.30697,46.9744],[8.30708,46.97411],[8.30739,46.97373]]]},"properties":{"bfs_nr":1510,"name":"Stansstad"}},{"type":"Feature","geometry":{"type":"Polygon","coordinates":[[[8.32269,46.82155],[8.32236,46.8213],[8.32216,46.82096],[8.32217,46.82061],[8.32238,46.82028],[8.32297,46.81991],[8.32323,46.81963],[8.32332,46.81931],[8.3232,46.81872],[8.32333,46.81836],[8.3237,46.81793],[8.32386,46.81754],[8.32421,46.81719],[8.32469,46.81687],[8.32576,46.81629],[8.32617,46.81588],[8.32632,46.81553],[8.32633,46.81519],[8.32649,46.81488],[8.32685,46.8146],[8.32793,46.81404],[8.32892,46.81383],[8.32971,46.81354],[8.33041,46.81308],[8.33111,46.81282],[8.33145,46.8126],[8.33165,46.81231],[8.33186,46.81157],[8.33233,46.81099],[8.33317,46.81044],[8.33385,46.80971],[8.33487,46.80912],[8.33559,46.80887],[8.33613,46.80848],[8.33688,46.80802],[8.33779,46.80724],[8.33836,46.80663],[8.33919,46.80549],[8.33965,46.80522],[8.34099,46.80471],[8.34135,46.80461],[8.34253,46.80453],[8.34302,46.80437],[8.34337,46.80409],[8.34366,46.80354],[8.34372,46.80321],[8.34359,46.80289],[8.34314,46.8023],[8.34314,46.80197],[8.3435,46.80134],[8.344,46.80078],[8.34433,46.80029],[8.34468,46.80006],[8.34578,46.79973],[8.34699,46.79924],[8.34777,46.7987],[8.34868,46.79763],[8.34937,46.7971],[8.35018,46.79687],[8.35112,46.7965],[8.35159,46.79641],[8.35243,46.79615],[8.35307,46.796],[8.35355,46.79573],[8.35407,46.79519],[8.35477,46.79486],[8.35525,46.79475],[8.35655,46.79472],[8.35747,46.79455],[8.35836,46.79448],[8.35912,46.7943],[8.3599,46.79393],[8.36101,46.79359],[8.36174,46.79328],[8.36236,46.79287],[8.36338,46.79242],[8.36411,46.79194],[8.36498,46.79154],[8.36576,46.79109],[8.36647,46.79075],[8.36716,46.79004],[8.36744,46.78987],[8.36892,46.78922],[8.3695,46.78858],[8.37016,46.78829],[8.37083,46.78825],[8.37147,46.78805],[8.37194,46.7878],[8.37308,46.78735],[8.37409,46.78681],[8.37488,46.78646],[8.37575,46.78628],[8.3763,46.78601],[8.377,46.78584],[8.3775,46.78563],[8.37796,46.78521],[8.37855,46.78479],[8.37882,46.78452],[8.37894,46.78421],[8.37902,46.78359],[8.37933,46.78329],[8.37982,46.78303],[8.38034,46.78252],[8.38113,46.78201],[8.38176,46.78127],[8.38194,46.78082],[8.38229,46.78037],[8.38285,46.77997],[8.38447,46.7793],[8.38556,46.77876],[8.38602,46.7786],[8.38683,46.77844],[8.38749,46.77846],[8.38802,46.77837],[8.38854,46.77811],[8.38907,46.77797],[8.39059,46.7778],[8.39103,46.77766],[8.3915,46.77728],[8.39466,46.77239],[8.39499,46.77207],[8.39543,46.77188],[8.39594,46.77182],[8.3965,46.77192],[8.41596,46.77819],[8.4167,46.77827],[8.41717,46.77815],[8.42437,46.77527],[8.42515,46.77513],[8.42563,46.77521],[8.42619,46.77554],[8.42637,46.77586],[8.42639,46.77676],[8.42634,46.777],[8.4261,46.77736],[8.42541,46.77788],[8.42526,46.77825],[8.42507,46.78048],[8.42479,46.78118],[8.42446,46.78148],[8.42386,46.78186],[8.4234,46.78258],[8.42316,46.78338],[8.42291,46.78378],[8.4225,46.78414],[8.4221,46.78468],[8.42174,46.78505],[8.42136,46.78531],[8.42072,46.78553],[8.42036,46.78578],[8.41966,46.78659],[8.41952,46.78734],[8.41958,46.78788],[8.41972,46.78828],[8.41962,46.78869],[8.41938,46.78897],[8.41901,46.78917],[8.41834,46.78929],[8.41722,46.78938],[8.41646,46.78953],[8.41581,46.78973],[8.41493,46.78986],[8.41158,46.78986],[8.41111,46.78992],[8.41002,46.79019],[8.40924,46.79048],[8.40803,46.79081],[8.40653,46.79168],[8.40627,46.79198],[8.40597,46.79267],[8.4055,46.79307],[8.40456,46.79341],[8.40369,46.79398],[8.4034,46.79438],[8.40283,46.79491],[8.40193,46.79542],[8.40139,46.79552],[8.40104,46.79551],[8.39834,46.79519],[8.39774,46.79521],[8.39669,46.79544],[8.39628,46.79567],[8.39065,46.8004],[8.39027,46.80083],[8.3897,46.80137],[8.38855,46.80199],[8.3881,46.80253],[8.3878,46.80279],[8.38697,46.80309],[8.38643,46.80335],[8.38559,46.80363],[8.38526,46.80388],[8.38509,46.80438],[8.38539,46.80496],[8.38713,46.80658],[8.38755,46.80724],[8.38781,46.80794],[8.38812,46.80858],[8.38854,46.80932],[8.38854,46.80969],[8.38836,46.81012],[8.38839,46.81078],[8.38825,46.81112],[8.38818,46.81159],[8.38794,46.81222],[8.38765,46.81251],[8.38722,46.8127],[8.38651,46.81285],[8.38537,46.81332],[8.38475,46.81351],[8.38399,46.81363],[8.38317,46.81367],[8.38273,46.81379],[8.3823,46.81404],[8.38184,46.81419],[8.38043,46.81441],[8.37994,46.81463],[8.37886,46.81534],[8.37824,46.816],[8.37777,46.81627],[8.3771,46.81645],[8.3762,46.81659],[8.37576,46.81677],[8.37545,46.81707],[8.37536,46.8176],[8.37564,46.8182],[8.37566,46.81856],[8.37554,46.81922],[8.37542,46.81953],[8.37547,46.81991],[8.37588,46.82039],[8.37625,46.82101],[8.37656,46.82125],[8.37697,46.82168],[8.3771,46.82202],[8.37707,46.82259],[8.37731,46.823],[8.37739,46.82337],[8.37709,46.82393],[8.37684,46.82462],[8.37684,46.82506],[8.3765,46.82595],[8.37668,46.82646],[8.37673,46.82684],[8.37655,46.82719],[8.3758,46.82769],[8.37533,46.8283],[8.37512,46.82897],[8.37472,46.82939],[8.37456,46.83013],[8.3743,46.83071],[8.37406,46.83102],[8.37341,46.83163],[8.37249,46.83226],[8.3719,46.83303],[8.37165,46.83384],[8.37143,46.83415],[8.37107,46.83445],[8.37085,46.83486],[8.37067,46.83572],[8.3707,46.83606],[8.37095,46.83647],[8.37141,46.83749],[8.37148,46.83772],[8.37141,46.8381],[8.37087,46.83885],[8.37074,46.83934],[8.37048,46.83996],[8.37029,46.84139],[8.37027,46.84452],[8.36995,46.8455],[8.36927,46.84614],[8.36903,46.84646],[8.36899,46.84681],[8.36923,46.8475],[8.36914,46.84786],[8.36881,46.84843],[8.36866,46.84912],[8.36848,46.84962],[8.36854,46.84999],[8.36882,46.85031],[8.36991,46.85098],[8.3705,46.85147],[8.37072,46.85179],[8.37094,46.85294],[8.37091,46.85516],[8.37085,46.85637],[8.37104,46.85721],[8.37093,46.85786],[8.37094,46.85827],[8.37085,46.85864],[8.37059,46.85893],[8.36997,46.85919],[8.36922,46.85926],[8.36828,46.85928],[8.36764,46.85939],[8.36708,46.85941],[8.36596,46.85934],[8.36461,46.85943],[8.36416,46.85953],[8.36379,46.85972],[8.36328,46.86029],[8.36283,46.86072],[8.36227,46.86139],[8.36185,46.86177],[8.36163,46.86209],[8.36158,46.86242],[8.36172,46.86274],[8.36224,46.86328],[8.36265,46.86393],[8.36328,46.8645],[8.36387,46.86588],[8.36409,46.8667],[8.36437,46.86701],[8.36482,46.86722],[8.36554,46.86733],[8.36707,46.86727],[8.36767,46.86717],[8.36824,46.86719],[8.36882,46.8674],[8.36913,46.86764],[8.36929,46.86794],[8.36933,46.86849],[8.36925,46.86919],[8.36929,46.86948],[8.36981,46.8706],[8.36997,46.87134],[8.37012,46.87166],[8.37148,46.87316],[8.37229,46.87386],[8.37264,46.87412],[8.37315,46.87437],[8.37374,46.87452],[8.37507,46.87458],[8.37655,46.87445],[8.37761,46.87425],[8.37814,46.87425],[8.37981,46.87408],[8.38023,46.87395],[8.38071,46.87354],[8.38089,46.87307],[8.38134,46.87232],[8.38139,46.87195],[8.38121,46.87159],[8.38091,46.87134],[8.38053,46.87084],[8.38044,46.87047],[8.38058,46.87011],[8.38156,46.86923],[8.38178,46.86891],[8.3819,46.86817],[8.38212,46.86785],[8.38318,46.86716],[8.38399,46.86658],[8.38423,46.86625],[8.38426,46.86589],[8.38407,46.86555],[8.38347,46.86505],[8.38232,46.86423],[8.38183,46.86406],[8.38045,46.86383],[8.38002,46.86366],[8.37959,46.8633],[8.37868,46.86274],[8.37834,46.86248],[8.37807,46.86204],[8.37768,46.8616],[8.37732,46.86095],[8.3768,46.86033],[8.37519,46.85817],[8.37503,46.8578],[8.37487,46.85678],[8.37503,46.85601],[8.37535,46.85533],[8.3755,46.85447],[8.37538,46.85374],[8.37539,46.8533],[8.3753,46.853],[8.37495,46.85251],[8.37491,46.85212],[8.37507,46.85178],[8.3754,46.85151],[8.37587,46.85135],[8.37639,46.85132],[8.37688,46.85144],[8.37726,46.85168],[8.3777,46.85234],[8.3785,46.85347],[8.38043,46.85559],[8.3808,46.85585],[8.38129,46.85599],[8.38207,46.85594],[8.38251,46.85573],[8.38336,46.8551],[8.3838,46.85487],[8.38427,46.85479],[8.38475,46.85483],[8.38528,46.85503],[8.38601,46.85552],[8.38644,46.85628],[8.38714,46.85701],[8.38778,46.85733],[8.38958,46.85775],[8.39156,46.85842],[8.39178,46.85855],[8.39253,46.85926],[8.39318,46.85997],[8.39386,46.86105],[8.39478,46.86198],[8.39539,46.86253],[8.39639,46.86315],[8.39821,46.86435],[8.39865,46.8645],[8.39937,46.86449],[8.40015,46.86428],[8.40151,46.86413],[8.40206,46.86422],[8.40444,46.86491],[8.40514,46.86514],[8.40561,46.86538],[8.40586,46.86569],[8.40604,46.86629],[8.40638,46.8666],[8.40745,46.86724],[8.40877,46.86821],[8.40917,46.86841],[8.40988,46.86849],[8.41066,46.86837],[8.41116,46.86844],[8.41178,46.86871],[8.41226,46.86881],[8.41276,46.86878],[8.41339,46.86851],[8.41364,46.86821],[8.41411,46.86693],[8.41436,46.86646],[8.41481,46.86586],[8.4152,46.8656],[8.41571,46.86543],[8.41661,46.86489],[8.41727,46.86455],[8.41795,46.86365],[8.41816,46.86326],[8.41859,46.86286],[8.41875,46.86252],[8.41864,46.86172],[8.41862,46.86114],[8.41889,46.86058],[8.41907,46.85996],[8.4193,46.8596],[8.41935,46.8593],[8.41926,46.85816],[8.41964,46.85743],[8.41967,46.85715],[8.41991,46.85651],[8.42017,46.85614],[8.42025,46.85578],[8.42011,46.85542],[8.4196,46.85478],[8.41919,46.8545],[8.41891,46.85417],[8.41877,46.85364],[8.41879,46.85326],[8.41922,46.85255],[8.41958,46.8523],[8.42057,46.85192],[8.42208,46.85179],[8.42331,46.85159],[8.42401,46.85156],[8.42487,46.85141],[8.42633,46.85128],[8.42673,46.85114],[8.42741,46.85071],[8.42792,46.85056],[8.42968,46.8503],[8.43018,46.85036],[8.43066,46.85053],[8.43239,46.85079],[8.43421,46.85154],[8.43497,46.85176],[8.43549,46.85183],[8.43589,46.85198],[8.43644,46.85244],[8.43669,46.85281],[8.43708,46.85307],[8.43827,46.85339],[8.43918,46.85347],[8.44089,46.85312],[8.44161,46.85314],[8.4429,46.85309],[8.44337,46.85316],[8.44383,46.85337],[8.4445,46.85355],[8.44552,46.8536],[8.44649,46.85377],[8.44717,46.85381],[8.44822,46.85403],[8.44888,46.8541],[8.45,46.85412],[8.45095,46.85402],[8.45181,46.85402],[8.45277,46.85387],[8.45388,46.85378],[8.45443,46.8538],[8.45576,46.85404],[8.45736,46.85455],[8.45903,46.85484],[8.46005,46.85497],[8.46082,46.85496],[8.46129,46.85501],[8.46175,46.85518],[8.46225,46.85527],[8.4631,46.85527],[8.46365,46.85516],[8.46413,46.85518],[8.46469,46.85531],[8.46539,46.8553],[8.46673,46.85543],[8.46738,46.85539],[8.46797,46.8552],[8.46888,46.85499],[8.4695,46.85492],[8.47008,46.855],[8.47068,46.85537],[8.47089,46.85576],[8.47093,46.85602],[8.47075,46.85651],[8.47015,46.85714],[8.46927,46.85787],[8.469,46.85823],[8.46896,46.85845],[8.46905,46.85896],[8.46894,46.85933],[8.46819,46.86018],[8.46806,46.86054],[8.46814,46.8609],[8.46838,46.86124],[8.46902,46.86193],[8.46916,46.86224],[8.46907,46.86297],[8.4692,46.86384],[8.46918,46.8641],[8.46934,46.86458],[8.46956,46.86495],[8.47018,46.86568],[8.47088,46.86718],[8.47126,46.86763],[8.47133,46.86798],[8.47118,46.86837],[8.47094,46.86866],[8.47032,46.8692],[8.47013,46.86984],[8.47019,46.87069],[8.47011,46.87112],[8.46987,46.87144],[8.46941,46.87186],[8.46856,46.87278],[8.46783,46.87341],[8.46731,46.87422],[8.46719,46.87452],[8.46707,46.87529],[8.46725,46.87635],[8.46778,46.87697],[8.46839,46.87723],[8.47126,46.87778],[8.47179,46.87797],[8.47264,46.87848],[8.47388,46.87966],[8.47528,46.88048],[8.47578,46.88087],[8.47646,46.88115],[8.47709,46.88157],[8.47769,46.88175],[8.47855,46.88224],[8.47879,46.88257],[8.47881,46.88295],[8.47872,46.88317],[8.47708,46.88601],[8.47683,46.88632],[8.47672,46.88663],[8.47662,46.88737],[8.47645,46.88797],[8.47629,46.88828],[8.47598,46.88854],[8.47542,46.88882],[8.47474,46.88935],[8.47448,46.88982],[8.47403,46.89025],[8.47364,46.8908],[8.47311,46.89145],[8.47309,46.89178],[8.47322,46.8921],[8.47336,46.89287],[8.47328,46.8932],[8.47303,46.89349],[8.47183,46.89403],[8.47131,46.89446],[8.47075,46.89471],[8.47046,46.89497],[8.47013,46.89544],[8.46969,46.89575],[8.46926,46.89625],[8.46856,46.89676],[8.46836,46.89707],[8.46805,46.89737],[8.46766,46.89754],[8.46688,46.89769],[8.46619,46.89766],[8.46576,46.89755],[8.46492,46.89741],[8.46296,46.89722],[8.46143,46.89721],[8.46091,46.89734],[8.46003,46.89747],[8.45935,46.89768],[8.45871,46.89807],[8.45849,46.89843],[8.45848,46.89877],[8.45881,46.89922],[8.45948,46.89963],[8.45977,46.89994],[8.46011,46.90055],[8.46066,46.90096],[8.46124,46.90114],[8.46164,46.90135],[8.46208,46.90191],[8.46318,46.90266],[8.4634,46.90299],[8.46376,46.90388],[8.46398,46.90433],[8.4639,46.90486],[8.46376,46.90502],[8.46354,46.90519],[8.46192,46.90622],[8.46164,46.90647],[8.46151,46.90671],[8.46123,46.90758],[8.46096,46.90803],[8.46085,46.90853],[8.46036,46.9097],[8.46013,46.91005],[8.45999,46.9102],[8.45978,46.91055],[8.45952,46.91083],[8.45933,46.91094],[8.45913,46.91102],[8.45878,46.91112],[8.45816,46.91144],[8.45743,46.91173],[8.45715,46.91204],[8.45708,46.91222],[8.45707,46.91241],[8.4571,46.91277],[8.45711,46.91281],[8.45718,46.91343],[8.45708,46.91397],[8.45693,46.91422],[8.45692,46.91423],[8.4569,46.91426],[8.45679,46.91439],[8.45673,46.91446],[8.45623,46.91521],[8.45577,46.91601],[8.45509,46.91676],[8.45419,46.91788],[8.45408,46.91804],[8.45387,46.9183],[8.45373,46.91844],[8.45341,46.91868],[8.45266,46.91915],[8.45223,46.91935],[8.45177,46.91951],[8.45098,46.91981],[8.45077,46.9199],[8.4506,46.92002],[8.45044,46.92015],[8.45027,46.92033],[8.45007,46.92061],[8.45005,46.92064],[8.44985,46.92096],[8.44977,46.92113],[8.44966,46.92146],[8.44954,46.92173],[8.44927,46.92216],[8.44926,46.92217],[8.4491,46.92236],[8.44872,46.9226],[8.44815,46.92276],[8.44729,46.92269],[8.44649,46.9224],[8.4456,46.9223],[8.44523,46.92231],[8.44476,46.92236],[8.44432,46.92234],[8.44385,46.92221],[8.443,46.92156],[8.44249,46.9213],[8.44202,46.92089],[8.4416,46.92031],[8.44139,46.92018],[8.44114,46.92005],[8.44093,46.91996],[8.44082,46.91992],[8.44058,46.91986],[8.44041,46.91983],[8.44014,46.9198],[8.43994,46.91979],[8.4397,46.9198],[8.43957,46.91981],[8.43945,46.91982],[8.43941,46.91983],[8.43919,46.91987],[8.43867,46.92001],[8.43715,46.92044],[8.43649,46.92043],[8.43579,46.92031],[8.43513,46.92011],[8.43467,46.92005],[8.43422,46.92011],[8.43368,46.92025],[8.43339,46.92028],[8.43333,46.92029],[8.43305,46.92029],[8.43243,46.92018],[8.43216,46.92017],[8.43164,46.92026],[8.43102,46.92052],[8.42984,46.92086],[8.42927,46.92094],[8.42811,46.92128],[8.42797,46.92132],[8.42779,46.92138],[8.42745,46.92151],[8.42693,46.92158],[8.4261,46.92151],[8.42563,46.9216],[8.42512,46.92184],[8.42452,46.92203],[8.42405,46.9223],[8.42351,46.9225],[8.42325,46.92265],[8.42292,46.92279],[8.42291,46.9228],[8.42281,46.92282],[8.42274,46.92284],[8.42265,46.92287],[8.42205,46.92301],[8.42157,46.92318],[8.42129,46.92334],[8.42102,46.92344],[8.42095,46.92346],[8.42083,46.92349],[8.42074,46.92352],[8.42046,46.9236],[8.42023,46.92368],[8.42003,46.9238],[8.41979,46.92401],[8.4191,46.92444],[8.41894,46.9246],[8.4186,46.92516],[8.41851,46.92586],[8.4181,46.92642],[8.41785,46.92659],[8.41777,46.92665],[8.41772,46.9267],[8.4175,46.92687],[8.41741,46.92693],[8.41737,46.92696],[8.41682,46.9273],[8.41636,46.92751],[8.41464,46.92795],[8.41348,46.92843],[8.41236,46.92874],[8.41186,46.92877],[8.41138,46.92873],[8.41087,46.9288],[8.41041,46.92897],[8.40981,46.92906],[8.40862,46.92935],[8.4078,46.92968],[8.40743,46.92988],[8.40698,46.93001],[8.40596,46.93002],[8.40524,46.93013],[8.40447,46.93011],[8.40374,46.93021],[8.4032,46.93035],[8.40233,46.93039],[8.40164,46.93046],[8.40112,46.93045],[8.3994,46.93028],[8.39871,46.93016],[8.39757,46.93024],[8.39651,46.93037],[8.39541,46.93028],[8.39475,46.93002],[8.39448,46.92973],[8.39442,46.92921],[8.39463,46.92889],[8.39503,46.92858],[8.39599,46.92774],[8.39617,46.92748],[8.3962,46.92741],[8.39623,46.92734],[8.39625,46.92727],[8.39628,46.92715],[8.39629,46.92708],[8.3963,46.92699],[8.39629,46.92693],[8.39619,46.9265],[8.39627,46.92604],[8.39632,46.92592],[8.39659,46.92542],[8.39681,46.92506],[8.39684,46.92501],[8.39689,46.92491],[8.39693,46.92483],[8.39697,46.92473],[8.39699,46.92467],[8.39702,46.92454],[8.39703,46.92449],[8.39705,46.92436],[8.39706,46.92432],[8.39706,46.92426],[8.39706,46.92413],[8.39703,46.9238],[8.39702,46.92357],[8.397,46.92349],[8.39698,46.92338],[8.39698,46.92337],[8.39694,46.92321],[8.3969,46.92306],[8.39689,46.92301],[8.39684,46.92286],[8.3968,46.92276],[8.39677,46.92265],[8.39673,46.92254],[8.39667,46.92242],[8.39655,46.92221],[8.39648,46.92209],[8.39638,46.92191],[8.39633,46.92181],[8.39628,46.92168],[8.39624,46.9216],[8.39615,46.92144],[8.39602,46.92122],[8.39586,46.92093],[8.39582,46.92085],[8.39578,46.9208],[8.39571,46.92071],[8.39567,46.92067],[8.39559,46.92056],[8.39548,46.92041],[8.39545,46.92038],[8.3954,46.92029],[8.39534,46.9202],[8.3953,46.92013],[8.39522,46.92001],[8.39491,46.91956],[8.3948,46.91931],[8.39476,46.91918],[8.39468,46.91896],[8.39464,46.91881],[8.39464,46.9188],[8.39461,46.91868],[8.39459,46.91859],[8.39457,46.91848],[8.39457,46.91847],[8.39454,46.91829],[8.39452,46.91813],[8.39452,46.91812],[8.39451,46.91804],[8.39451,46.91783],[8.39465,46.91747],[8.39468,46.91733],[8.3947,46.91713],[8.3947,46.9171],[8.39471,46.91655],[8.39472,46.91628],[8.39471,46.91618],[8.3947,46.9161],[8.39469,46.91602],[8.39466,46.91593],[8.39462,46.9158],[8.39459,46.91576],[8.39456,46.9157],[8.39447,46.91551],[8.39433,46.91427],[8.39433,46.91418],[8.39434,46.91404],[8.3944,46.91354],[8.39445,46.91268],[8.39448,46.91193],[8.39442,46.9111],[8.3944,46.9109],[8.3944,46.91089],[8.39438,46.91079],[8.3943,46.91044],[8.39425,46.91032],[8.394,46.91],[8.3936,46.90978],[8.39335,46.90972],[8.3931,46.90969],[8.39284,46.90969],[8.39228,46.90978],[8.39177,46.90976],[8.39122,46.90964],[8.39096,46.90963],[8.39071,46.90965],[8.39046,46.9097],[8.38939,46.91001],[8.38849,46.91009],[8.38728,46.91052],[8.38702,46.91055],[8.38676,46.91058],[8.38645,46.91058],[8.38621,46.91055],[8.38558,46.91029],[8.38532,46.91001],[8.38522,46.90963],[8.38524,46.90932],[8.38511,46.90899],[8.38481,46.90872],[8.38438,46.90855],[8.38364,46.90852],[8.38266,46.90867],[8.38239,46.90867],[8.38189,46.90855],[8.38162,46.90841],[8.37842,46.90642],[8.37773,46.9062],[8.37747,46.90619],[8.37721,46.90622],[8.37697,46.90628],[8.37675,46.90637],[8.37656,46.90649],[8.37645,46.90659],[8.37621,46.90682],[8.37613,46.90688],[8.37588,46.90704],[8.37564,46.90714],[8.37428,46.90747],[8.37377,46.90746],[8.37354,46.90741],[8.37326,46.9073],[8.37221,46.9068],[8.36889,46.90523],[8.36747,46.90465],[8.36701,46.90437],[8.36684,46.90416],[8.36623,46.90316],[8.36608,46.90298],[8.36588,46.90283],[8.36564,46.90272],[8.36401,46.90211],[8.3639,46.90208],[8.36072,46.90114],[8.36045,46.90104],[8.36026,46.90093],[8.3601,46.9008],[8.35998,46.90065],[8.35987,46.9004],[8.35972,46.90019],[8.35954,46.89998],[8.35946,46.89988],[8.35935,46.89968],[8.35916,46.89932],[8.35865,46.89883],[8.35712,46.89765],[8.35643,46.89724],[8.35623,46.8971],[8.356,46.89693],[8.35598,46.89691],[8.3514,46.89315],[8.35131,46.89307],[8.34907,46.89094],[8.3489,46.8908],[8.34869,46.89069],[8.34845,46.89062],[8.3482,46.89057],[8.34225,46.88997],[8.34184,46.88998],[8.33914,46.89029],[8.33833,46.89023],[8.33791,46.89003],[8.33742,46.88957],[8.33652,46.8889],[8.33613,46.88866],[8.33519,46.88799],[8.33469,46.88747],[8.33369,46.88665],[8.33323,46.88617],[8.33308,46.88581],[8.33296,46.88504],[8.33281,46.8844],[8.33262,46.88388],[8.33276,46.88298],[8.33294,46.88235],[8.33293,46.88197],[8.33269,46.88164],[8.33161,46.88062],[8.3308,46.88008],[8.33036,46.8797],[8.32969,46.87889],[8.32894,46.87834],[8.3286,46.87802],[8.32851,46.87745],[8.32881,46.87629],[8.32894,46.876],[8.32986,46.87451],[8.32995,46.87404],[8.32952,46.87307],[8.32944,46.87268],[8.3296,46.87207],[8.32966,46.87147],[8.33027,46.87062],[8.33075,46.87012],[8.33127,46.86984],[8.33157,46.86954],[8.33171,46.86916],[8.33196,46.86885],[8.33237,46.86862],[8.33338,46.86833],[8.33367,46.8681],[8.33406,46.8675],[8.33405,46.86713],[8.33388,46.86661],[8.33401,46.86616],[8.33403,46.86548],[8.3343,46.86499],[8.3344,46.86462],[8.33433,46.8639],[8.33449,46.86328],[8.3343,46.86207],[8.33447,46.86142],[8.3343,46.86094],[8.33372,46.86025],[8.33097,46.85684],[8.33079,46.85649],[8.3301,46.85384],[8.33028,46.85325],[8.33077,46.85259],[8.33084,46.85221],[8.33061,46.85142],[8.32918,46.84949],[8.32894,46.84889],[8.32837,46.84825],[8.32827,46.84804],[8.32796,46.84695],[8.32802,46.84662],[8.3284,46.84586],[8.32855,46.84457],[8.32888,46.84378],[8.32898,46.84279],[8.32914,46.84238],[8.32944,46.84209],[8.33029,46.84173],[8.33092,46.8412],[8.33116,46.84047],[8.33172,46.83978],[8.33251,46.83798],[8.33257,46.83767],[8.33235,46.83476],[8.33243,46.83435],[8.33273,46.83403],[8.33344,46.83378],[8.33443,46.83375],[8.33501,46.83364],[8.3354,46.83346],[8.33567,46.83318],[8.33577,46.8327],[8.33571,46.8321],[8.33558,46.83178],[8.33509,46.83135],[8.33491,46.83104],[8.3349,46.83037],[8.33521,46.82955],[8.33522,46.82852],[8.33506,46.82788],[8.33475,46.82745],[8.33349,46.82681],[8.33313,46.8265],[8.33227,46.82601],[8.33186,46.82588],[8.33082,46.82563],[8.3293,46.82506],[8.32886,46.82479],[8.3284,46.82466],[8.32769,46.82459],[8.32696,46.82433],[8.32591,46.82406],[8.32517,46.82359],[8.32475,46.8232],[8.32437,46.82294],[8.32393,46.82246],[8.32314,46.82203],[8.32269,46.82155]]]},"properties":{"bfs_nr":1511,"name":"Wolfenschiessen"}}]}