{"type":"FeatureCollection","features":[{"type":"Feature","geometry":{"type":"Polygon","coordinates":[[[8.15054,46.9569],[8.15066,46.95666],[8.15131,46.95607],[8.15145,46.95558],[8.15114,46.9532],[8.15133,46.95259],[8.15343,46.95004],[8.15359,46.94988],[8.16016,46.94406],[8.1605,46.9438],[8.16092,46.94363],[8.16139,46.94356],[8.1619,46.94337],[8.16229,46.94304],[8.16319,46.94201],[8.16388,46.94094],[8.16467,46.93984],[8.16481,46.93951],[8.16472,46.93893],[8.16425,46.93839],[8.16378,46.93772],[8.16311,46.93723],[8.16235,46.93683],[8.16191,46.93646],[8.1614,46.9362],[8.16025,46.93582],[8.15963,46.93575],[8.15916,46.93562],[8.15853,46.93516],[8.15825,46.93485],[8.15751,46.93383],[8.15746,46.93332],[8.15781,46.93288],[8.15854,46.93252],[8.15945,46.93215],[8.1597,46.93208],[8.15997,46.93203],[8.16085,46.93193],[8.16096,46.93191],[8.16227,46.93168],[8.16305,46.93151],[8.16375,46.93139],[8.16389,46.93137],[8.16417,46.9313],[8.16441,46.93123],[8.16481,46.93098],[8.16506,46.93047],[8.16485,46.92994],[8.16474,46.92935],[8.16481,46.9287],[8.16482,46.92808],[8.1649,46.92774],[8.16532,46.92691],[8.16554,46.92662],[8.16579,46.92638],[8.16607,46.92613],[8.16621,46.92602],[8.16652,46.9258],[8.1667,46.92569],[8.16692,46.9256],[8.16751,46.92537],[8.16796,46.92495],[8.16831,46.92399],[8.16876,46.9235],[8.16922,46.92333],[8.16975,46.9233],[8.17025,46.92341],[8.17079,46.92366],[8.17152,46.92374],[8.17247,46.92366],[8.17289,46.92374],[8.17567,46.92382],[8.17648,46.92394],[8.17683,46.92401],[8.17711,46.92409],[8.1774,46.9242],[8.1781,46.9245],[8.17886,46.92491],[8.17908,46.92501],[8.17921,46.92506],[8.17951,46.92513],[8.17967,46.92515],[8.17998,46.92518],[8.18023,46.92517],[8.18028,46.92517],[8.18082,46.92515],[8.18171,46.92522],[8.1824,46.9254],[8.18266,46.92542],[8.18366,46.92523],[8.1842,46.92521],[8.18485,46.92531],[8.18616,46.92511],[8.18662,46.92518],[8.18693,46.92529],[8.18705,46.92533],[8.18715,46.92535],[8.18748,46.92541],[8.18785,46.92542],[8.18798,46.92541],[8.18819,46.92538],[8.18944,46.92516],[8.19012,46.92522],[8.19133,46.92544],[8.19183,46.9254],[8.19233,46.92526],[8.19285,46.92522],[8.19431,46.92527],[8.19463,46.9253],[8.19509,46.92545],[8.19575,46.9259],[8.19623,46.92605],[8.19703,46.92611],[8.1977,46.92637],[8.19881,46.92744],[8.19961,46.92798],[8.19982,46.9281],[8.20005,46.92819],[8.20087,46.92843],[8.20113,46.92847],[8.2014,46.92847],[8.20218,46.92842],[8.20256,46.92842],[8.20292,46.92848],[8.2039,46.92875],[8.20465,46.92885],[8.20581,46.92876],[8.20689,46.9288],[8.20737,46.92886],[8.20784,46.92901],[8.20854,46.92931],[8.20875,46.92939],[8.20891,46.92943],[8.20926,46.92949],[8.20953,46.92951],[8.20989,46.92951],[8.21005,46.92949],[8.2104,46.92941],[8.21083,46.92927],[8.21087,46.92926],[8.21129,46.92911],[8.21178,46.929],[8.21208,46.929],[8.21235,46.92903],[8.21351,46.92945],[8.21431,46.92953],[8.21472,46.92966],[8.21494,46.92979],[8.21575,46.93033],[8.21594,46.93044],[8.21615,46.93052],[8.21638,46.93057],[8.21663,46.93059],[8.21687,46.93058],[8.21711,46.93054],[8.21733,46.93047],[8.21794,46.93015],[8.21849,46.92996],[8.21889,46.92992],[8.21996,46.92993],[8.22049,46.93003],[8.22098,46.93024],[8.22125,46.9303],[8.22161,46.93031],[8.22183,46.9303],[8.22197,46.93029],[8.22242,46.93021],[8.22278,46.93019],[8.22307,46.93019],[8.22325,46.93019],[8.22334,46.93018],[8.22362,46.93013],[8.2238,46.93009],[8.22405,46.93006],[8.22473,46.93001],[8.22499,46.92994],[8.22522,46.92984],[8.22561,46.92964],[8.22585,46.92955],[8.22611,46.92946],[8.22649,46.92932],[8.22721,46.92902],[8.22736,46.92894],[8.22781,46.92866],[8.22798,46.92853],[8.22811,46.92838],[8.22819,46.92821],[8.22823,46.92804],[8.22818,46.92705],[8.22823,46.92669],[8.22837,46.92629],[8.22841,46.9262],[8.22905,46.92484],[8.22953,46.92435],[8.23036,46.92381],[8.23084,46.9236],[8.23124,46.92355],[8.23168,46.92355],[8.23198,46.92356],[8.23289,46.92356],[8.23371,46.92335],[8.23416,46.92293],[8.23423,46.92258],[8.23413,46.9221],[8.23425,46.92176],[8.23456,46.92148],[8.23525,46.92126],[8.23605,46.92133],[8.2363,46.92135],[8.23678,46.92132],[8.23753,46.9211],[8.2388,46.92098],[8.23967,46.92064],[8.23979,46.9206],[8.23988,46.92057],[8.24001,46.92053],[8.24013,46.92049],[8.24118,46.9201],[8.24168,46.92005],[8.24192,46.92007],[8.24238,46.92021],[8.24285,46.92045],[8.24369,46.92076],[8.24422,46.92084],[8.24483,46.92082],[8.24531,46.92092],[8.24571,46.92113],[8.24632,46.92173],[8.24737,46.92213],[8.24772,46.9224],[8.24795,46.92282],[8.24844,46.92327],[8.24899,46.92392],[8.24938,46.92422],[8.24974,46.92442],[8.25052,46.92478],[8.25105,46.92519],[8.25128,46.9255],[8.25149,46.92573],[8.25163,46.92593],[8.25172,46.92613],[8.25173,46.92618],[8.25176,46.92626],[8.25178,46.92632],[8.25188,46.92649],[8.25201,46.92664],[8.25225,46.92685],[8.25271,46.9271],[8.25368,46.92755],[8.25446,46.9276],[8.25495,46.92745],[8.2554,46.9272],[8.256,46.92708],[8.25702,46.92707],[8.25748,46.92697],[8.25786,46.92678],[8.25838,46.92665],[8.25904,46.92664],[8.25959,46.92654],[8.26047,46.92614],[8.26099,46.92601],[8.26178,46.92601],[8.26248,46.92582],[8.26314,46.92525],[8.26365,46.925],[8.26464,46.9247],[8.26484,46.92463],[8.26519,46.92447],[8.26674,46.92389],[8.26737,46.92373],[8.26798,46.92372],[8.26822,46.92368],[8.26905,46.92351],[8.26982,46.92331],[8.27116,46.92305],[8.27143,46.92297],[8.27166,46.92286],[8.27199,46.92259],[8.27218,46.92247],[8.27246,46.92236],[8.27284,46.92223],[8.27289,46.92222],[8.27456,46.92172],[8.27485,46.92165],[8.27535,46.92164],[8.27607,46.92184],[8.27657,46.92215],[8.27715,46.92239],[8.2775,46.92265],[8.27764,46.92286],[8.27773,46.92305],[8.27776,46.9231],[8.27788,46.92329],[8.27797,46.92342],[8.27807,46.92353],[8.27821,46.92371],[8.27831,46.92387],[8.27843,46.92403],[8.27869,46.9243],[8.2787,46.92431],[8.27888,46.92449],[8.27907,46.92464],[8.27927,46.92476],[8.27955,46.9249],[8.28033,46.92507],[8.28079,46.92527],[8.28113,46.92554],[8.28139,46.92598],[8.28181,46.92657],[8.2821,46.92682],[8.28239,46.92724],[8.28341,46.92805],[8.28373,46.92849],[8.28408,46.92879],[8.28475,46.92913],[8.28538,46.92954],[8.28564,46.92989],[8.28572,46.93018],[8.28588,46.93055],[8.28591,46.9306],[8.28609,46.93095],[8.28627,46.93117],[8.28641,46.93129],[8.28667,46.93149],[8.28692,46.93171],[8.28752,46.93205],[8.2877,46.93222],[8.28785,46.93243],[8.28808,46.93305],[8.28813,46.93344],[8.28852,46.93466],[8.28874,46.93498],[8.28943,46.93568],[8.2896,46.93619],[8.29029,46.93689],[8.29064,46.93772],[8.2914,46.93872],[8.29168,46.93936],[8.29226,46.94008],[8.29291,46.94062],[8.2936,46.94108],[8.29414,46.94132],[8.29476,46.94172],[8.2951,46.94202],[8.29556,46.94276],[8.29592,46.94311],[8.29657,46.94358],[8.29699,46.94403],[8.2972,46.94439],[8.2975,46.94514],[8.29816,46.94578],[8.29914,46.94661],[8.29968,46.94696],[8.30077,46.94755],[8.3017,46.94795],[8.30265,46.94867],[8.30378,46.9492],[8.30485,46.94962],[8.30544,46.95007],[8.30633,46.95055],[8.30792,46.9513],[8.30866,46.95172],[8.30895,46.95203],[8.30898,46.95257],[8.30871,46.95294],[8.30823,46.95336],[8.30645,46.95543],[8.30629,46.95576],[8.30631,46.95611],[8.31084,46.9686],[8.31083,46.96913],[8.31001,46.97022],[8.30987,46.97048],[8.30959,46.97146],[8.30903,46.97221],[8.30858,46.97257],[8.308,46.97319],[8.30758,46.97349],[8.30701,46.97421],[8.30697,46.97455],[8.30705,46.97538],[8.30687,46.97574],[8.30612,46.97634],[8.30562,46.97657],[8.30437,46.97687],[8.30376,46.97693],[8.30279,46.97717],[8.3023,46.97736],[8.3015,46.97752],[8.30099,46.97752],[8.30041,46.9774],[8.29976,46.97738],[8.29926,46.97748],[8.29807,46.97741],[8.29716,46.97742],[8.29644,46.97721],[8.29539,46.97715],[8.29454,46.97701],[8.29345,46.97709],[8.2927,46.97693],[8.29224,46.97668],[8.29154,46.97647],[8.29092,46.97635],[8.2902,46.97613],[8.28972,46.97608],[8.28889,46.9761],[8.28776,46.97589],[8.28674,46.97587],[8.28607,46.97604],[8.28525,46.97608],[8.28454,46.97588],[8.28406,46.97581],[8.28319,46.97595],[8.28206,46.9759],[8.28154,46.97602],[8.28103,46.97634],[8.28053,46.9765],[8.27996,46.97658],[8.27921,46.97686],[8.27709,46.97715],[8.27623,46.97733],[8.27576,46.97736],[8.27528,46.97752],[8.27458,46.97799],[8.27357,46.97837],[8.27238,46.97861],[8.26976,46.97884],[8.26871,46.97874],[8.26782,46.97842],[8.2673,46.97837],[8.26675,46.97844],[8.26606,46.97843],[8.26537,46.97834],[8.26462,46.97837],[8.26409,46.97851],[8.26357,46.97851],[8.26303,46.97842],[8.26253,46.97845],[8.26191,46.97872],[8.26165,46.97901],[8.26133,46.97973],[8.26094,46.97998],[8.26043,46.9801],[8.25995,46.9801],[8.25884,46.97997],[8.25687,46.97958],[8.25603,46.97961],[8.25556,46.97979],[8.25464,46.98001],[8.25419,46.98],[8.25366,46.97986],[8.25282,46.97938],[8.2523,46.97891],[8.25169,46.97857],[8.25095,46.97799],[8.25039,46.97766],[8.2483,46.97631],[8.24677,46.97574],[8.24575,46.97511],[8.24402,46.97435],[8.24206,46.97407],[8.2405,46.97365],[8.23858,46.97382],[8.23619,46.97442],[8.23544,46.97448],[8.23407,46.9744],[8.23347,46.97428],[8.23187,46.97333],[8.23052,46.97317],[8.23008,46.97297],[8.22978,46.97266],[8.22965,46.97208],[8.22925,46.97143],[8.22898,46.97077],[8.22889,46.97032],[8.22868,46.97],[8.2283,46.96976],[8.22722,46.9693],[8.22683,46.96919],[8.22578,46.96907],[8.2227,46.96921],[8.22055,46.96942],[8.21998,46.96941],[8.21856,46.96922],[8.21647,46.9691],[8.21591,46.969],[8.2145,46.96854],[8.21395,46.96841],[8.2089,46.9676],[8.20648,46.96737],[8.20321,46.96695],[8.2024,46.96697],[8.19977,46.96751],[8.1951,46.96867],[8.19489,46.96874],[8.18817,46.97141],[8.18736,46.97155],[8.18659,46.97134],[8.18302,46.96942],[8.1822,46.9688],[8.18144,46.96859],[8.17965,46.96865],[8.1789,46.96861],[8.17817,46.96869],[8.17696,46.9685],[8.17644,46.96832],[8.17589,46.96804],[8.1752,46.96752],[8.17462,46.96723],[8.17372,46.96708],[8.17294,46.9667],[8.1717,46.96646],[8.17048,46.96597],[8.16851,46.9653],[8.16738,46.96521],[8.16638,46.96489],[8.16555,46.96473],[8.16445,46.9646],[8.16367,46.96423],[8.16231,46.96351],[8.161,46.96271],[8.1596,46.96168],[8.15897,46.96115],[8.15843,46.96094],[8.15792,46.96091],[8.1572,46.961],[8.15669,46.96093],[8.15594,46.96059],[8.15563,46.96032],[8.15547,46.95965],[8.15525,46.95931],[8.15485,46.95906],[8.15428,46.95891],[8.15327,46.95874],[8.15189,46.95835],[8.15094,46.95798],[8.15061,46.95773],[8.15045,46.95742],[8.15054,46.9569]]]},"properties":{"bfs_nr":1401,"name":"Alpnach"}},{"type":"Feature","geometry":{"type":"Polygon","coordinates":[[[8.36174,46.8619],[8.3624,46.86128],[8.36267,46.86093],[8.36391,46.85965],[8.36437,46.85947],[8.36575,46.85935],[8.36632,46.85934],[8.36764,46.85943],[8.36833,46.85932],[8.36999,46.85922],[8.3706,46.85895],[8.37086,46.85867],[8.37104,46.85721],[8.37085,46.85631],[8.37091,46.85517],[8.37094,46.85289],[8.37072,46.85179],[8.37053,46.8515],[8.36994,46.851],[8.36874,46.85021],[8.36854,46.84991],[8.36851,46.84958],[8.36878,46.84854],[8.36918,46.84782],[8.36924,46.84749],[8.36902,46.84687],[8.36913,46.84632],[8.36986,46.84563],[8.37011,46.8453],[8.37027,46.84469],[8.37029,46.84141],[8.37047,46.84],[8.37093,46.83878],[8.37145,46.83802],[8.37143,46.83754],[8.37071,46.83603],[8.37069,46.83565],[8.37084,46.83491],[8.37107,46.83445],[8.37146,46.83414],[8.37166,46.83384],[8.37191,46.83304],[8.37254,46.83223],[8.37337,46.83168],[8.37426,46.83078],[8.37449,46.8303],[8.37476,46.82948],[8.37528,46.82882],[8.37542,46.8282],[8.37578,46.82775],[8.37659,46.82718],[8.37674,46.82685],[8.37652,46.82592],[8.37693,46.82498],[8.37696,46.82453],[8.37717,46.82397],[8.37751,46.82336],[8.37722,46.82255],[8.37724,46.82202],[8.37708,46.82171],[8.37618,46.82085],[8.37565,46.82013],[8.37546,46.81961],[8.37571,46.81849],[8.37564,46.81811],[8.37537,46.81741],[8.37562,46.81691],[8.37623,46.81659],[8.37704,46.81647],[8.37777,46.81628],[8.37824,46.81601],[8.37893,46.81529],[8.37988,46.81466],[8.38043,46.81442],[8.38173,46.81422],[8.38224,46.81407],[8.38274,46.8138],[8.38317,46.81368],[8.38394,46.81364],[8.38481,46.8135],[8.38543,46.8133],[8.38644,46.81287],[8.38726,46.8127],[8.38769,46.81251],[8.38798,46.81221],[8.38826,46.81123],[8.38842,46.81082],[8.38841,46.8103],[8.38857,46.80985],[8.38854,46.80924],[8.38811,46.80856],[8.3878,46.80793],[8.38755,46.80723],[8.38717,46.80661],[8.38543,46.805],[8.38515,46.8046],[8.38511,46.80423],[8.38542,46.80376],[8.3858,46.80355],[8.38657,46.80332],[8.38709,46.80306],[8.3877,46.80287],[8.38859,46.80226],[8.38906,46.80205],[8.39029,46.80081],[8.39069,46.80037],[8.39624,46.7957],[8.39699,46.79536],[8.39804,46.79518],[8.39841,46.7952],[8.40111,46.79552],[8.40194,46.79543],[8.40278,46.79494],[8.40344,46.79437],[8.40395,46.7938],[8.40456,46.79341],[8.40548,46.79309],[8.40603,46.79264],[8.40628,46.79217],[8.40667,46.79166],[8.40768,46.79099],[8.40798,46.79084],[8.40917,46.79051],[8.41008,46.79017],[8.41105,46.78993],[8.41164,46.78986],[8.415,46.78986],[8.41575,46.78975],[8.41641,46.78954],[8.41718,46.78938],[8.41841,46.78929],[8.41901,46.78917],[8.41938,46.78897],[8.41963,46.78869],[8.41973,46.78825],[8.41956,46.78738],[8.41961,46.78679],[8.41996,46.78622],[8.42033,46.78582],[8.42072,46.78554],[8.42136,46.78531],[8.42208,46.78471],[8.42245,46.7842],[8.42296,46.78375],[8.42315,46.78344],[8.42338,46.78264],[8.42355,46.7823],[8.42392,46.78183],[8.42455,46.78145],[8.42492,46.78098],[8.42507,46.78053],[8.42525,46.7783],[8.42531,46.77806],[8.4256,46.77769],[8.4261,46.77736],[8.42635,46.77701],[8.42637,46.77586],[8.42619,46.77554],[8.42585,46.77529],[8.42515,46.77512],[8.42443,46.77525],[8.41723,46.77813],[8.41645,46.77827],[8.4159,46.77817],[8.39616,46.77182],[8.39573,46.77161],[8.39547,46.77133],[8.39538,46.77081],[8.39587,46.76852],[8.39618,46.76672],[8.39651,46.76619],[8.39693,46.76597],[8.39743,46.76589],[8.39797,46.7659],[8.39949,46.76615],[8.40078,46.76648],[8.40169,46.76695],[8.40251,46.76747],[8.40289,46.76781],[8.40377,46.76832],[8.40423,46.76848],[8.40473,46.7688],[8.40524,46.76902],[8.40631,46.76932],[8.40738,46.76955],[8.40781,46.76976],[8.40882,46.77049],[8.40928,46.77096],[8.41027,46.77132],[8.41077,46.77162],[8.41227,46.77296],[8.41249,46.77324],[8.41291,46.7735],[8.41354,46.77368],[8.41441,46.77415],[8.41494,46.77427],[8.41595,46.77423],[8.41689,46.77427],[8.41784,46.7741],[8.41871,46.77374],[8.41943,46.77353],[8.42097,46.77282],[8.42126,46.77258],[8.42184,46.77187],[8.42199,46.77139],[8.42266,46.77071],[8.42335,46.77045],[8.42401,46.77043],[8.42512,46.77031],[8.42598,46.77051],[8.42634,46.77079],[8.42663,46.77124],[8.42699,46.77149],[8.42798,46.77179],[8.42862,46.77192],[8.42964,46.772],[8.43065,46.77216],[8.43402,46.77237],[8.43494,46.77237],[8.43593,46.7725],[8.43711,46.77232],[8.43769,46.7721],[8.43825,46.77201],[8.4387,46.77183],[8.43974,46.77122],[8.44059,46.77104],[8.44112,46.77082],[8.44183,46.77014],[8.44222,46.76995],[8.44297,46.76985],[8.44447,46.76993],[8.44533,46.77007],[8.44585,46.77007],[8.44634,46.76994],[8.44671,46.76968],[8.4469,46.76935],[8.44699,46.76873],[8.4467,46.76781],[8.44643,46.76728],[8.44641,46.76663],[8.4465,46.7663],[8.44677,46.76601],[8.44801,46.76536],[8.44838,46.76506],[8.44859,46.76474],[8.44896,46.76448],[8.44945,46.76434],[8.44998,46.76435],[8.45159,46.76477],[8.45218,46.76499],[8.45289,46.76538],[8.45357,46.76557],[8.4542,46.76592],[8.45535,46.76624],[8.45579,46.76655],[8.45624,46.76721],[8.45666,46.76746],[8.45731,46.76764],[8.45789,46.76797],[8.45984,46.76886],[8.46049,46.76901],[8.46096,46.76897],[8.46224,46.76871],[8.46273,46.76874],[8.46317,46.76889],[8.4637,46.76924],[8.46431,46.76948],[8.46489,46.76958],[8.46627,46.76961],[8.46715,46.76952],[8.46836,46.76921],[8.46895,46.76916],[8.46981,46.76882],[8.47021,46.76856],[8.47072,46.76812],[8.47137,46.7679],[8.47228,46.76788],[8.47303,46.76773],[8.47409,46.76773],[8.47479,46.76787],[8.47564,46.76797],[8.47634,46.76826],[8.47721,46.76847],[8.47874,46.76871],[8.48028,46.76868],[8.48158,46.769],[8.48236,46.7693],[8.48292,46.76942],[8.48341,46.76964],[8.48439,46.77036],[8.48485,46.77059],[8.48648,46.77092],[8.48724,46.77091],[8.4883,46.77107],[8.48893,46.77128],[8.49086,46.7723],[8.49123,46.77278],[8.49122,46.77319],[8.48864,46.78083],[8.48832,46.78138],[8.4875,46.78188],[8.48699,46.78205],[8.48663,46.78225],[8.48556,46.78315],[8.48533,46.78345],[8.4848,46.78462],[8.48408,46.78549],[8.48365,46.78621],[8.48329,46.78647],[8.4813,46.78753],[8.48046,46.78819],[8.47895,46.78905],[8.47864,46.7893],[8.47848,46.78961],[8.47839,46.79013],[8.47847,46.79046],[8.47927,46.79173],[8.48058,46.79267],[8.48097,46.7932],[8.48172,46.79377],[8.48191,46.79409],[8.48189,46.79497],[8.48168,46.79601],[8.48132,46.79712],[8.48109,46.79751],[8.4807,46.79776],[8.48019,46.79788],[8.47966,46.79785],[8.4782,46.79734],[8.47772,46.79723],[8.47718,46.79725],[8.47662,46.79716],[8.47575,46.79691],[8.47527,46.79671],[8.47371,46.79583],[8.47291,46.79555],[8.47247,46.79547],[8.47171,46.79556],[8.47132,46.79577],[8.47083,46.7962],[8.46871,46.79745],[8.46806,46.79768],[8.46719,46.79771],[8.4666,46.79781],[8.46561,46.7982],[8.46528,46.79848],[8.46515,46.79883],[8.4652,46.79932],[8.4655,46.79978],[8.46588,46.79999],[8.46634,46.80009],[8.46683,46.80007],[8.46837,46.79978],[8.46986,46.79945],[8.47034,46.79939],[8.47192,46.79938],[8.47267,46.7995],[8.47443,46.80016],[8.47642,46.80084],[8.47839,46.80128],[8.4789,46.80146],[8.47979,46.80197],[8.4802,46.80234],[8.48091,46.8026],[8.48179,46.80314],[8.48211,46.80341],[8.48309,46.80447],[8.48325,46.80471],[8.48339,46.80543],[8.48334,46.80579],[8.48288,46.80652],[8.48287,46.80691],[8.48326,46.80765],[8.48322,46.80858],[8.48289,46.80903],[8.48098,46.8105],[8.4807,46.81084],[8.48059,46.81124],[8.4801,46.81167],[8.47871,46.81238],[8.47823,46.81286],[8.47819,46.81333],[8.47846,46.81378],[8.47882,46.814],[8.4799,46.81448],[8.48032,46.8149],[8.48046,46.81523],[8.48111,46.81608],[8.48133,46.8169],[8.48132,46.8174],[8.48155,46.81775],[8.48241,46.81851],[8.48304,46.81892],[8.48349,46.81972],[8.48341,46.82042],[8.48371,46.82191],[8.48366,46.82303],[8.48359,46.82362],[8.48374,46.82402],[8.48369,46.82488],[8.48337,46.82586],[8.48351,46.82641],[8.48351,46.82708],[8.48373,46.8274],[8.48409,46.82768],[8.48454,46.82817],[8.48536,46.82918],[8.48557,46.82998],[8.48583,46.83056],[8.48629,46.83122],[8.48634,46.83186],[8.4865,46.83216],[8.48744,46.83293],[8.48773,46.83324],[8.48808,46.83411],[8.48839,46.83458],[8.4886,46.83513],[8.48882,46.8354],[8.48925,46.83564],[8.48985,46.83578],[8.49062,46.83614],[8.4911,46.83665],[8.4918,46.83702],[8.49335,46.83747],[8.49397,46.83776],[8.49494,46.83802],[8.49576,46.83818],[8.49709,46.83851],[8.49837,46.83901],[8.49924,46.8392],[8.49976,46.8392],[8.50095,46.83944],[8.50228,46.83996],[8.50349,46.84064],[8.50449,46.84127],[8.50483,46.84155],[8.50517,46.8421],[8.50568,46.84274],[8.50573,46.84311],[8.50562,46.84356],[8.50566,46.84398],[8.50556,46.84445],[8.50559,46.84494],[8.50573,46.84533],[8.50551,46.84587],[8.50444,46.84674],[8.50379,46.84704],[8.50307,46.84747],[8.50259,46.84802],[8.50222,46.84924],[8.50192,46.84971],[8.50056,46.85095],[8.50009,46.85123],[8.49962,46.85138],[8.49875,46.852],[8.49853,46.85234],[8.49841,46.85295],[8.49815,46.85323],[8.49751,46.85349],[8.49702,46.85351],[8.49649,46.85343],[8.49511,46.85295],[8.49356,46.85277],[8.49308,46.85278],[8.49171,46.853],[8.49021,46.85306],[8.48956,46.85326],[8.48863,46.8534],[8.48744,46.85371],[8.48664,46.85406],[8.48557,46.85489],[8.48496,46.85513],[8.48371,46.85518],[8.48272,46.85534],[8.48206,46.85563],[8.48153,46.8561],[8.48088,46.85652],[8.48036,46.85698],[8.47967,46.85718],[8.47917,46.85714],[8.47845,46.85698],[8.47775,46.85667],[8.47695,46.85602],[8.47669,46.85547],[8.47612,46.85493],[8.47553,46.8547],[8.47444,46.85457],[8.47354,46.85462],[8.47278,46.85474],[8.47194,46.8547],[8.47012,46.85491],[8.46915,46.85495],[8.4678,46.85521],[8.4673,46.85539],[8.46659,46.85541],[8.46559,46.85523],[8.46465,46.85529],[8.464,46.85515],[8.46298,46.85527],[8.46239,46.85527],[8.46181,46.85518],[8.46103,46.85495],[8.45999,46.85496],[8.45769,46.85462],[8.4573,46.85453],[8.4557,46.85402],[8.45438,46.8538],[8.45394,46.85378],[8.45268,46.85387],[8.45181,46.85402],[8.45102,46.85401],[8.45006,46.85411],[8.44891,46.8541],[8.44837,46.85405],[8.44775,46.85389],[8.44649,46.85377],[8.44536,46.85358],[8.44441,46.85353],[8.44361,46.85323],[8.44293,46.85309],[8.44168,46.85314],[8.44094,46.85311],[8.43925,46.85346],[8.43862,46.85345],[8.43712,46.85308],[8.43676,46.85285],[8.43644,46.85241],[8.43604,46.85207],[8.43564,46.85186],[8.43498,46.85175],[8.43417,46.85153],[8.43345,46.85124],[8.43287,46.85092],[8.43245,46.85078],[8.43143,46.85067],[8.43074,46.85052],[8.4302,46.85033],[8.42949,46.85031],[8.42786,46.85057],[8.42737,46.85073],[8.42673,46.85114],[8.42633,46.85128],[8.42498,46.85139],[8.42394,46.85156],[8.42334,46.85156],[8.42223,46.85176],[8.42061,46.8519],[8.41953,46.85228],[8.41923,46.85252],[8.41886,46.85307],[8.41874,46.85341],[8.41889,46.85416],[8.41912,46.85446],[8.41965,46.85483],[8.42007,46.85536],[8.42023,46.85573],[8.42019,46.85606],[8.41993,46.85644],[8.41965,46.85712],[8.4196,46.85748],[8.41925,46.85816],[8.41934,46.85923],[8.41929,46.85957],[8.41902,46.86008],[8.41888,46.86058],[8.41859,46.86104],[8.41854,46.86138],[8.41875,46.86229],[8.41853,46.8629],[8.41818,46.86321],[8.41795,46.86365],[8.41721,46.86454],[8.41595,46.8653],[8.41519,46.8656],[8.41481,46.86586],[8.41434,46.86645],[8.41409,46.86697],[8.41365,46.86812],[8.41322,46.86854],[8.41278,46.86869],[8.41228,46.86872],[8.41181,46.86863],[8.41126,46.8684],[8.4105,46.86836],[8.40998,46.86847],[8.40945,46.86847],[8.40872,46.86817],[8.40743,46.86722],[8.40624,46.86649],[8.40601,46.86619],[8.40587,46.86564],[8.40561,46.86536],[8.40522,46.86516],[8.40446,46.86491],[8.402,46.8642],[8.40126,46.86414],[8.40004,46.86429],[8.39901,46.86451],[8.39812,46.86429],[8.39641,46.86316],[8.39543,46.86256],[8.3948,46.862],[8.39391,46.86109],[8.3933,46.86011],[8.39252,46.85924],[8.39177,46.85853],[8.39155,46.8584],[8.38964,46.85776],[8.38784,46.85734],[8.38711,46.85697],[8.3867,46.85659],[8.38637,46.8561],[8.38616,46.85565],[8.38525,46.85497],[8.38482,46.8548],[8.38433,46.85475],[8.38363,46.85492],[8.38255,46.85569],[8.38207,46.85593],[8.38155,46.85601],[8.38104,46.85594],[8.3804,46.85555],[8.37853,46.85349],[8.3774,46.85184],[8.37688,46.85144],[8.37613,46.85131],[8.37562,46.85141],[8.37506,46.85178],[8.37491,46.8523],[8.37527,46.85301],[8.3755,46.8542],[8.37536,46.85527],[8.37504,46.85597],[8.37487,46.85675],[8.37504,46.85783],[8.37517,46.85814],[8.37681,46.86034],[8.37729,46.86092],[8.37781,46.86182],[8.37834,46.86248],[8.37863,46.86272],[8.37949,46.86324],[8.37993,46.86363],[8.38041,46.86384],[8.38177,46.86405],[8.38231,46.86423],[8.38352,46.86509],[8.38406,46.86559],[8.38423,46.86592],[8.3842,46.86628],[8.38396,46.8666],[8.38316,46.86717],[8.38217,46.8678],[8.38188,46.86813],[8.38176,46.86889],[8.38128,46.86948],[8.38066,46.87],[8.38042,46.87033],[8.38039,46.8707],[8.38076,46.8715],[8.38105,46.87187],[8.38109,46.87266],[8.38071,46.87352],[8.38038,46.87385],[8.38001,46.87403],[8.37943,46.87413],[8.37825,46.87422],[8.37776,46.87421],[8.37644,46.87446],[8.37513,46.87457],[8.37382,46.87452],[8.37308,46.87434],[8.3726,46.87409],[8.37149,46.87317],[8.37009,46.87161],[8.36983,46.87065],[8.36929,46.86945],[8.36933,46.86847],[8.36929,46.8679],[8.36906,46.86755],[8.36826,46.86718],[8.3677,46.86715],[8.36699,46.86727],[8.36589,46.86731],[8.36526,46.86727],[8.36459,46.86706],[8.36408,46.86663],[8.36381,46.86559],[8.3636,46.8651],[8.36318,46.86436],[8.36267,46.86393],[8.36229,46.86334],[8.36172,46.86274],[8.36159,46.86225],[8.36174,46.8619]]]},"properties":{"bfs_nr":1402,"name":"Engelberg"}},{"type":"Feature","geometry":{"type":"Polygon","coordinates":[[[8.04284,46.83595],[8.04333,46.83531],[8.04418,46.8346],[8.04499,46.83355],[8.04563,46.83306],[8.04663,46.83205],[8.04729,46.83173],[8.04763,46.83144],[8.04777,46.83107],[8.04779,46.83063],[8.04768,46.83024],[8.04715,46.82967],[8.04703,46.8293],[8.04732,46.82873],[8.05039,46.82583],[8.0514,46.82522],[8.05165,46.82497],[8.05245,46.82387],[8.05296,46.82297],[8.05391,46.8219],[8.0545,46.82142],[8.05477,46.82106],[8.0551,46.82029],[8.05552,46.81981],[8.05601,46.81941],[8.05652,46.81833],[8.05722,46.81761],[8.05788,46.81671],[8.05837,46.81629],[8.05899,46.81514],[8.05963,46.81441],[8.06099,46.81259],[8.06146,46.81208],[8.06233,46.81101],[8.06276,46.81037],[8.06326,46.80975],[8.06378,46.80892],[8.06435,46.80817],[8.06445,46.80781],[8.06431,46.80712],[8.06433,46.80649],[8.06446,46.80615],[8.06445,46.80584],[8.06407,46.80436],[8.06393,46.80357],[8.06367,46.80325],[8.06326,46.80303],[8.06275,46.80294],[8.06157,46.80282],[8.06117,46.80262],[8.06091,46.80233],[8.06072,46.8018],[8.06046,46.80152],[8.05969,46.8011],[8.05864,46.80073],[8.05802,46.80068],[8.0573,46.80043],[8.05573,46.79944],[8.05531,46.79896],[8.05529,46.79861],[8.05552,46.79795],[8.05548,46.79749],[8.05566,46.79715],[8.05631,46.79669],[8.05654,46.7964],[8.05685,46.79535],[8.05682,46.79491],[8.05667,46.7942],[8.05627,46.79332],[8.05604,46.79302],[8.05529,46.79264],[8.05486,46.79233],[8.05389,46.79186],[8.05331,46.79124],[8.05257,46.79066],[8.0516,46.79006],[8.05122,46.78966],[8.05111,46.78913],[8.05131,46.78879],[8.05168,46.78853],[8.0525,46.78838],[8.05466,46.78843],[8.05541,46.78829],[8.05745,46.78739],[8.05924,46.78664],[8.06013,46.78649],[8.06048,46.78654],[8.06319,46.78718],[8.06365,46.78723],[8.0645,46.78715],[8.06511,46.78725],[8.06642,46.78766],[8.06734,46.78782],[8.06811,46.78824],[8.0689,46.78836],[8.06941,46.78824],[8.0707,46.78778],[8.07235,46.78732],[8.07268,46.78718],[8.07405,46.78643],[8.07462,46.78623],[8.07597,46.78599],[8.07704,46.78595],[8.07762,46.78598],[8.08054,46.78646],[8.08266,46.7869],[8.08367,46.78697],[8.0854,46.78689],[8.08608,46.78696],[8.08726,46.78727],[8.08861,46.78753],[8.08954,46.78763],[8.09,46.78781],[8.09033,46.78809],[8.09073,46.78881],[8.09092,46.78928],[8.09135,46.79006],[8.09166,46.79033],[8.0921,46.79055],[8.09292,46.79101],[8.09318,46.79118],[8.09351,46.79146],[8.09367,46.79161],[8.09389,46.79189],[8.09405,46.79201],[8.09464,46.79241],[8.09477,46.79248],[8.09517,46.79269],[8.0953,46.79274],[8.0958,46.79294],[8.09616,46.79312],[8.0966,46.79341],[8.09689,46.79354],[8.09722,46.79367],[8.09746,46.79377],[8.09783,46.794],[8.09834,46.79426],[8.09865,46.79453],[8.0994,46.7955],[8.09967,46.79576],[8.09986,46.79591],[8.10008,46.79602],[8.10089,46.79633],[8.10113,46.79641],[8.10138,46.79645],[8.10241,46.79656],[8.10376,46.79685],[8.10402,46.79685],[8.10428,46.79682],[8.10628,46.79641],[8.1073,46.7961],[8.10777,46.796],[8.10869,46.79605],[8.10929,46.79613],[8.1096,46.79611],[8.11155,46.79587],[8.11175,46.79583],[8.11234,46.79566],[8.11271,46.79562],[8.11358,46.79559],[8.11432,46.79563],[8.11595,46.79559],[8.11626,46.79555],[8.11661,46.79548],[8.11705,46.79543],[8.11736,46.79545],[8.11761,46.79549],[8.11834,46.79574],[8.11863,46.79579],[8.11892,46.79578],[8.12041,46.79565],[8.1207,46.79564],[8.12121,46.79573],[8.12608,46.79716],[8.12618,46.79719],[8.12749,46.79749],[8.1275,46.7975],[8.12861,46.79775],[8.12869,46.79776],[8.12988,46.79797],[8.13007,46.798],[8.13166,46.79812],[8.13246,46.7983],[8.13312,46.79841],[8.1333,46.79843],[8.1352,46.79856],[8.13573,46.79864],[8.13658,46.7989],[8.13694,46.79915],[8.1371,46.79935],[8.13809,46.801],[8.13815,46.80109],[8.14013,46.8036],[8.1403,46.80393],[8.14032,46.80462],[8.1407,46.80528],[8.14081,46.80563],[8.1408,46.806],[8.14085,46.80619],[8.14095,46.80636],[8.1444,46.81066],[8.1446,46.81085],[8.1464,46.81215],[8.1464,46.81216],[8.15065,46.81519],[8.1507,46.81523],[8.15262,46.81644],[8.1534,46.81685],[8.1568,46.8177],[8.15729,46.81789],[8.15824,46.81841],[8.15906,46.8185],[8.15989,46.81832],[8.16082,46.81841],[8.16103,46.81843],[8.16106,46.81844],[8.16139,46.81847],[8.16343,46.81871],[8.16364,46.81874],[8.16485,46.81899],[8.16548,46.81926],[8.16604,46.81941],[8.16652,46.81943],[8.16705,46.81932],[8.16813,46.81931],[8.16893,46.81941],[8.16964,46.81938],[8.17005,46.81922],[8.17043,46.81892],[8.17084,46.81873],[8.17196,46.8185],[8.17418,46.81842],[8.17468,46.8185],[8.17514,46.8187],[8.17583,46.81885],[8.17682,46.81893],[8.17755,46.81914],[8.17808,46.81916],[8.17904,46.81907],[8.17962,46.81916],[8.18052,46.81949],[8.18105,46.8195],[8.18304,46.81879],[8.18326,46.81869],[8.18346,46.81855],[8.18381,46.81828],[8.18423,46.81793],[8.18459,46.8177],[8.18486,46.81758],[8.18583,46.81724],[8.18595,46.81719],[8.18695,46.81674],[8.18751,46.8164],[8.18839,46.81612],[8.18858,46.81606],[8.18899,46.8159],[8.18921,46.81579],[8.18999,46.8153],[8.19073,46.81476],[8.19093,46.81448],[8.19121,46.81423],[8.1923,46.81371],[8.19299,46.81349],[8.19348,46.81341],[8.19395,46.81337],[8.19418,46.81333],[8.19439,46.81327],[8.19519,46.8129],[8.19539,46.81275],[8.19568,46.8124],[8.19611,46.81215],[8.19679,46.81187],[8.19709,46.81157],[8.1974,46.81108],[8.19778,46.81086],[8.19832,46.81074],[8.19935,46.81065],[8.19966,46.81064],[8.20179,46.81068],[8.20234,46.81076],[8.20315,46.81099],[8.20401,46.81116],[8.20484,46.81138],[8.20507,46.81145],[8.20609,46.81188],[8.20746,46.81212],[8.20783,46.81218],[8.20826,46.81223],[8.20931,46.81242],[8.20943,46.81244],[8.21134,46.81287],[8.21281,46.81325],[8.21462,46.81356],[8.21499,46.81377],[8.21545,46.81434],[8.21575,46.81515],[8.21574,46.81562],[8.21591,46.816],[8.21594,46.81616],[8.21588,46.81647],[8.21548,46.81736],[8.21461,46.81793],[8.21424,46.81843],[8.21387,46.81869],[8.21364,46.81901],[8.21357,46.81939],[8.21323,46.82008],[8.21306,46.82047],[8.21253,46.82111],[8.21205,46.82153],[8.21183,46.82191],[8.21151,46.82218],[8.21109,46.82239],[8.21068,46.82275],[8.21043,46.82322],[8.21041,46.82358],[8.2105,46.82391],[8.21047,46.82412],[8.2102,46.82463],[8.2092,46.82538],[8.20893,46.82569],[8.20886,46.82605],[8.20903,46.82668],[8.20882,46.82748],[8.20859,46.82775],[8.20782,46.82828],[8.20635,46.82899],[8.20529,46.82938],[8.20468,46.82951],[8.2041,46.82987],[8.20377,46.83043],[8.20378,46.83076],[8.20391,46.83101],[8.20395,46.83138],[8.20387,46.8316],[8.20385,46.83163],[8.20371,46.83183],[8.20335,46.8321],[8.20284,46.83231],[8.20266,46.83245],[8.20243,46.83277],[8.20233,46.83312],[8.20223,46.83328],[8.20199,46.83368],[8.20165,46.83396],[8.20123,46.83416],[8.20061,46.83479],[8.20008,46.83516],[8.19948,46.83542],[8.19842,46.83615],[8.19781,46.8367],[8.19763,46.8368],[8.19744,46.83688],[8.19698,46.83701],[8.19679,46.83711],[8.19663,46.83723],[8.19645,46.83738],[8.19638,46.83745],[8.1959,46.83792],[8.19499,46.8386],[8.19454,46.83877],[8.19404,46.83886],[8.19335,46.83904],[8.19314,46.83914],[8.19297,46.83926],[8.19283,46.8394],[8.19233,46.84004],[8.1918,46.84084],[8.19149,46.84128],[8.19145,46.84133],[8.19143,46.84135],[8.19125,46.84154],[8.19116,46.84162],[8.19113,46.84164],[8.19062,46.84208],[8.1904,46.84222],[8.18962,46.84266],[8.18912,46.84323],[8.18908,46.84386],[8.18897,46.84422],[8.18803,46.84517],[8.18761,46.84583],[8.18717,46.84616],[8.18695,46.84646],[8.18689,46.84678],[8.18702,46.8471],[8.1902,46.85168],[8.19108,46.85294],[8.19172,46.85396],[8.19165,46.8545],[8.19134,46.85481],[8.19107,46.85495],[8.18983,46.85546],[8.18979,46.85548],[8.18972,46.85551],[8.18968,46.85552],[8.18777,46.85633],[8.18687,46.85679],[8.18585,46.85723],[8.18484,46.85779],[8.1837,46.85831],[8.18346,46.85845],[8.18215,46.85939],[8.17306,46.86638],[8.17278,46.86656],[8.17189,46.86686],[8.17126,46.86715],[8.17058,46.86738],[8.16992,46.86765],[8.16924,46.86804],[8.16858,46.8682],[8.16747,46.86822],[8.16599,46.86866],[8.165,46.86859],[8.16435,46.86863],[8.16372,46.86876],[8.1632,46.86884],[8.16298,46.86886],[8.16274,46.86889],[8.16259,46.86891],[8.16221,46.86893],[8.16163,46.86888],[8.16136,46.86891],[8.16089,46.86907],[8.16055,46.86934],[8.16009,46.86996],[8.15924,46.87027],[8.15886,46.87048],[8.15872,46.87063],[8.15816,46.87155],[8.15804,46.87203],[8.15781,46.87237],[8.15758,46.87254],[8.15753,46.87257],[8.15739,46.87265],[8.15708,46.8728],[8.15636,46.87321],[8.1557,46.87347],[8.15553,46.87357],[8.15521,46.8738],[8.15483,46.87401],[8.15461,46.87416],[8.15429,46.87437],[8.15417,46.87443],[8.1539,46.87454],[8.15366,46.8746],[8.15306,46.87464],[8.15272,46.87469],[8.15255,46.87473],[8.1523,46.87482],[8.15209,46.87491],[8.15184,46.87505],[8.15138,46.87535],[8.15091,46.87549],[8.15041,46.87549],[8.14941,46.87527],[8.14891,46.87528],[8.14734,46.87562],[8.14646,46.87587],[8.14539,46.87629],[8.14425,46.8769],[8.14401,46.87702],[8.14387,46.87707],[8.14367,46.87717],[8.14349,46.87729],[8.14336,46.87744],[8.14326,46.8776],[8.14314,46.878],[8.14302,46.87818],[8.14246,46.87872],[8.14207,46.87894],[8.14173,46.87904],[8.1416,46.87908],[8.1414,46.87915],[8.14121,46.87924],[8.14078,46.87947],[8.14064,46.87956],[8.13999,46.88003],[8.13968,46.88031],[8.1395,46.88046],[8.1389,46.88079],[8.13871,46.88091],[8.13846,46.88121],[8.13836,46.88159],[8.13826,46.88178],[8.13811,46.88194],[8.13785,46.88212],[8.13765,46.88223],[8.13753,46.8823],[8.13711,46.88259],[8.13671,46.88294],[8.1362,46.88319],[8.13568,46.88349],[8.13546,46.88366],[8.13478,46.88434],[8.1344,46.88478],[8.13354,46.88534],[8.13332,46.88608],[8.13314,46.8864],[8.13258,46.88674],[8.13184,46.88681],[8.13137,46.8867],[8.13077,46.88641],[8.13012,46.88629],[8.12964,46.88608],[8.12942,46.8859],[8.12623,46.88258],[8.12616,46.8825],[8.12577,46.88202],[8.12573,46.88197],[8.12562,46.88185],[8.12545,46.88171],[8.12525,46.8816],[8.12483,46.8814],[8.12469,46.88135],[8.12446,46.88126],[8.12351,46.88099],[8.12284,46.88072],[8.12238,46.88064],[8.12202,46.88052],[8.12192,46.88047],[8.12176,46.8804],[8.12163,46.88033],[8.12141,46.88023],[8.1208,46.87999],[8.1204,46.87975],[8.12016,46.87967],[8.1199,46.87962],[8.11933,46.87957],[8.11856,46.87958],[8.11831,46.87959],[8.11805,46.8796],[8.11744,46.87959],[8.11698,46.87954],[8.11652,46.87955],[8.11629,46.8796],[8.11584,46.87975],[8.11561,46.8798],[8.11532,46.87982],[8.11527,46.87982],[8.11502,46.87981],[8.11474,46.87979],[8.11466,46.87978],[8.11441,46.87976],[8.11411,46.8797],[8.11388,46.87963],[8.11352,46.8794],[8.11313,46.8789],[8.11283,46.8782],[8.11279,46.87807],[8.11275,46.87791],[8.1127,46.87777],[8.11261,46.87763],[8.11249,46.87751],[8.11234,46.87737],[8.11226,46.8773],[8.11198,46.87709],[8.11196,46.87708],[8.11163,46.87685],[8.11146,46.87674],[8.11083,46.87643],[8.11057,46.87627],[8.10925,46.87533],[8.10919,46.87528],[8.1088,46.87497],[8.10874,46.87493],[8.10815,46.87452],[8.10796,46.87441],[8.10768,46.87431],[8.10741,46.87425],[8.10648,46.87412],[8.10618,46.87406],[8.10492,46.87374],[8.10447,46.87368],[8.10339,46.87365],[8.10073,46.8733],[8.10022,46.87318],[8.09986,46.873],[8.09952,46.87273],[8.09869,46.87226],[8.09821,46.87211],[8.09725,46.87195],[8.09702,46.87193],[8.09657,46.87197],[8.09608,46.87215],[8.09578,46.87239],[8.09537,46.87263],[8.09497,46.87289],[8.09472,46.87301],[8.09436,46.87314],[8.0934,46.87353],[8.09221,46.87422],[8.09134,46.87486],[8.09041,46.87541],[8.09015,46.87553],[8.08986,46.87562],[8.08934,46.87574],[8.08925,46.87577],[8.08875,46.87591],[8.08874,46.87591],[8.0877,46.87623],[8.08755,46.87627],[8.08668,46.87647],[8.08633,46.87652],[8.08598,46.87653],[8.08526,46.87647],[8.08494,46.87643],[8.0847,46.87636],[8.08443,46.87623],[8.08432,46.87617],[8.08417,46.87605],[8.084,46.87594],[8.08294,46.87555],[8.08154,46.8751],[8.08076,46.8746],[8.07995,46.87445],[8.07968,46.87448],[8.07939,46.87455],[8.07917,46.87464],[8.07883,46.87491],[8.07873,46.87507],[8.0786,46.87559],[8.0784,46.87588],[8.07775,46.87632],[8.07703,46.87692],[8.0768,46.87704],[8.07647,46.87714],[8.07594,46.87726],[8.07567,46.87731],[8.07544,46.87732],[8.0748,46.87729],[8.07422,46.87737],[8.07361,46.87734],[8.0731,46.87721],[8.07254,46.87719],[8.07172,46.87733],[8.07092,46.87723],[8.07053,46.87701],[8.07024,46.87653],[8.07029,46.87616],[8.07069,46.87551],[8.07097,46.87467],[8.07135,46.874],[8.07135,46.87362],[8.07112,46.87327],[8.07055,46.87275],[8.06963,46.87145],[8.06959,46.87108],[8.06988,46.87024],[8.06994,46.86963],[8.06988,46.86916],[8.0696,46.8687],[8.06872,46.86798],[8.06773,46.86743],[8.06683,46.86723],[8.06621,46.86687],[8.06602,46.86655],[8.06616,46.86584],[8.06621,46.86521],[8.06616,46.86455],[8.0665,46.86368],[8.06704,46.86273],[8.06695,46.86216],[8.06633,46.86149],[8.06594,46.86069],[8.06572,46.85977],[8.06556,46.85946],[8.06511,46.85896],[8.06467,46.85874],[8.06415,46.85866],[8.06345,46.85865],[8.06298,46.85855],[8.06251,46.85829],[8.06202,46.85816],[8.0615,46.85816],[8.06082,46.85836],[8.06021,46.85844],[8.05952,46.85833],[8.05915,46.85812],[8.05865,46.85752],[8.0583,46.85675],[8.05777,46.85609],[8.05775,46.85577],[8.05807,46.85464],[8.05832,46.85427],[8.05866,46.85354],[8.05854,46.85298],[8.05831,46.85268],[8.05759,46.8521],[8.05696,46.85099],[8.0562,46.85029],[8.05603,46.8496],[8.05572,46.84918],[8.05518,46.84887],[8.05404,46.84844],[8.05239,46.84752],[8.05204,46.84724],[8.05172,46.84668],[8.0509,46.84616],[8.05049,46.84563],[8.04967,46.84507],[8.04914,46.84496],[8.0484,46.84492],[8.04779,46.8448],[8.04605,46.84423],[8.04567,46.84399],[8.04489,46.84254],[8.04478,46.8422],[8.04468,46.84133],[8.04421,46.8402],[8.04356,46.83917],[8.04249,46.83694],[8.04245,46.83641],[8.04284,46.83595]]]},"properties":{"bfs_nr":1403,"name":"Giswil"}},{"type":"Feature","geometry":{"type":"Polygon","coordinates":[[[8.23344,46.77865],[8.2336,46.77818],[8.2339,46.77788],[8.23469,46.7775],[8.2351,46.77722],[8.23568,46.77638],[8.23602,46.77601],[8.23616,46.77573],[8.23626,46.77507],[8.23652,46.77476],[8.23711,46.77442],[8.23801,46.77355],[8.23821,46.77322],[8.23823,46.77304],[8.23818,46.77271],[8.2382,46.77234],[8.23829,46.77191],[8.23812,46.77124],[8.23828,46.77069],[8.23837,46.7702],[8.23861,46.76988],[8.23937,46.76955],[8.2402,46.76948],[8.24135,46.76916],[8.2424,46.76858],[8.24315,46.76842],[8.24375,46.76819],[8.24441,46.76806],[8.24564,46.76758],[8.24713,46.76751],[8.24801,46.76718],[8.24856,46.76688],[8.24969,46.76658],[8.25039,46.76645],[8.25189,46.76607],[8.25257,46.76578],[8.25367,46.76539],[8.25477,46.76494],[8.25551,46.76447],[8.25607,46.76439],[8.25715,46.76438],[8.25914,46.76388],[8.25957,46.76369],[8.26018,46.76325],[8.26137,46.76194],[8.2624,46.76108],[8.26277,46.76061],[8.26353,46.76009],[8.26405,46.75965],[8.26486,46.75916],[8.26549,46.75858],[8.26636,46.75792],[8.26658,46.75757],[8.26673,46.75689],[8.26753,46.75628],[8.26822,46.75562],[8.26857,46.75538],[8.2689,46.75494],[8.26949,46.75459],[8.27,46.75451],[8.27135,46.75459],[8.27281,46.75489],[8.27394,46.75496],[8.27448,46.75489],[8.27536,46.75497],[8.27586,46.75494],[8.2772,46.75445],[8.27769,46.75439],[8.27878,46.75436],[8.28013,46.75425],[8.28078,46.75431],[8.28184,46.75405],[8.28274,46.75361],[8.28325,46.75352],[8.28378,46.75357],[8.2848,46.75394],[8.28553,46.75411],[8.2863,46.75455],[8.28651,46.75487],[8.28717,46.75541],[8.29018,46.75689],[8.2906,46.75719],[8.29119,46.75778],[8.29164,46.75798],[8.2927,46.75816],[8.2933,46.75838],[8.29477,46.75918],[8.29561,46.75946],[8.29606,46.75967],[8.29694,46.76033],[8.29756,46.76134],[8.29813,46.76169],[8.29889,46.76177],[8.29962,46.76158],[8.30015,46.76156],[8.30187,46.76198],[8.3023,46.76213],[8.30612,46.76394],[8.30665,46.76438],[8.30689,46.7651],[8.3072,46.76542],[8.31146,46.76821],[8.31168,46.76833],[8.31571,46.77003],[8.31603,46.7702],[8.32073,46.77329],[8.32092,46.77339],[8.32573,46.77554],[8.32653,46.77602],[8.32677,46.77636],[8.32687,46.77672],[8.3272,46.77706],[8.32775,46.7774],[8.32861,46.77782],[8.329,46.77795],[8.32965,46.77804],[8.33061,46.77836],[8.33104,46.7786],[8.33128,46.7789],[8.33144,46.77941],[8.33191,46.77989],[8.33275,46.78026],[8.33405,46.78063],[8.34288,46.78145],[8.35048,46.78207],[8.35542,46.78267],[8.35689,46.78261],[8.35946,46.78291],[8.36026,46.78319],[8.36111,46.78374],[8.36213,46.78419],[8.36302,46.78441],[8.36356,46.78461],[8.36388,46.78491],[8.364,46.78527],[8.36402,46.78576],[8.36424,46.78606],[8.36483,46.78635],[8.36576,46.78652],[8.36642,46.78681],[8.3671,46.78701],[8.36746,46.78722],[8.36808,46.78772],[8.3686,46.78794],[8.36893,46.78821],[8.36909,46.78855],[8.36904,46.78889],[8.36863,46.78933],[8.36715,46.79003],[8.36646,46.79075],[8.3657,46.79111],[8.36492,46.79156],[8.36416,46.7919],[8.36347,46.79237],[8.36224,46.79293],[8.36187,46.7932],[8.36126,46.79349],[8.36008,46.79386],[8.35919,46.79427],[8.35873,46.79443],[8.35753,46.79454],[8.3566,46.79471],[8.35525,46.79474],[8.35445,46.79498],[8.35407,46.79519],[8.35355,46.79573],[8.35307,46.796],[8.35159,46.7964],[8.35115,46.79648],[8.35059,46.79672],[8.34936,46.7971],[8.3487,46.7976],[8.34781,46.79865],[8.34731,46.79906],[8.34692,46.79927],[8.34589,46.79969],[8.345,46.7999],[8.34455,46.80008],[8.34423,46.80037],[8.34396,46.80083],[8.34346,46.80138],[8.34319,46.80182],[8.34311,46.80217],[8.34323,46.80252],[8.34363,46.80299],[8.34369,46.80334],[8.34342,46.804],[8.34315,46.80429],[8.34275,46.80448],[8.34135,46.8046],[8.33959,46.80525],[8.33905,46.80564],[8.33838,46.8066],[8.33777,46.80725],[8.33693,46.80798],[8.33605,46.80851],[8.3357,46.80879],[8.3349,46.8091],[8.33378,46.80974],[8.3331,46.81046],[8.33217,46.81109],[8.33181,46.81165],[8.33163,46.81227],[8.33141,46.81258],[8.33061,46.81297],[8.32976,46.81351],[8.32898,46.81381],[8.32793,46.81404],[8.32672,46.81467],[8.3264,46.81492],[8.32624,46.81524],[8.32619,46.81567],[8.32601,46.81599],[8.32569,46.81625],[8.32478,46.81674],[8.324,46.81735],[8.32363,46.818],[8.32316,46.81859],[8.32323,46.81929],[8.3231,46.81962],[8.3224,46.82011],[8.32206,46.82059],[8.32209,46.82095],[8.32296,46.822],[8.32375,46.82237],[8.32411,46.82264],[8.32435,46.82296],[8.32564,46.82395],[8.32587,46.82406],[8.32723,46.82443],[8.32777,46.82465],[8.32854,46.82476],[8.3294,46.82516],[8.33116,46.82573],[8.33208,46.82594],[8.33282,46.82635],[8.33357,46.82687],[8.33475,46.82745],[8.33499,46.82772],[8.33522,46.82856],[8.33519,46.8297],[8.33487,46.83052],[8.3349,46.83107],[8.33508,46.83138],[8.33543,46.83166],[8.33566,46.83201],[8.33576,46.83275],[8.33569,46.83311],[8.33543,46.83342],[8.33501,46.83364],[8.33452,46.83374],[8.33344,46.83378],[8.33293,46.83391],[8.33243,46.83434],[8.33234,46.83471],[8.33257,46.83763],[8.3325,46.83802],[8.33174,46.83974],[8.33116,46.84047],[8.33092,46.84119],[8.33035,46.84167],[8.32964,46.84197],[8.32926,46.84222],[8.32906,46.84255],[8.32894,46.843],[8.32885,46.84384],[8.32853,46.84463],[8.3284,46.84586],[8.32796,46.8468],[8.32798,46.84709],[8.32836,46.84825],[8.32889,46.84884],[8.32913,46.84943],[8.33057,46.85137],[8.33074,46.85171],[8.33083,46.85227],[8.33076,46.85259],[8.3303,46.8532],[8.33008,46.85391],[8.33022,46.8543],[8.3308,46.85653],[8.33095,46.85681],[8.33439,46.86109],[8.33447,46.86142],[8.3343,46.86207],[8.33448,46.86328],[8.33433,46.8639],[8.33439,46.86467],[8.33397,46.86571],[8.334,46.86609],[8.33381,46.86667],[8.33397,46.86723],[8.33398,46.86761],[8.33353,46.86822],[8.33319,46.86841],[8.33238,46.8686],[8.3318,46.86899],[8.3314,46.86973],[8.33074,46.87012],[8.33021,46.87069],[8.32963,46.87149],[8.32959,46.87213],[8.32944,46.87268],[8.3295,46.87303],[8.32995,46.87404],[8.32984,46.87455],[8.32891,46.87604],[8.3285,46.8775],[8.32859,46.87802],[8.32889,46.87831],[8.32971,46.87892],[8.33034,46.87968],[8.33084,46.88012],[8.33165,46.88067],[8.33283,46.8818],[8.33295,46.88216],[8.33276,46.88299],[8.33259,46.88394],[8.33293,46.88499],[8.33292,46.88523],[8.33315,46.88603],[8.33373,46.88668],[8.3342,46.88704],[8.33515,46.88797],[8.33607,46.88863],[8.33656,46.88893],[8.33732,46.88949],[8.33765,46.88986],[8.338,46.89047],[8.33813,46.89094],[8.33811,46.89153],[8.33825,46.89223],[8.33827,46.8932],[8.3382,46.89404],[8.3384,46.89504],[8.33842,46.89559],[8.33832,46.89623],[8.33852,46.89704],[8.33832,46.8979],[8.33829,46.8984],[8.33784,46.89944],[8.33759,46.89978],[8.33736,46.90077],[8.33714,46.90129],[8.33678,46.90189],[8.33671,46.90252],[8.33652,46.90294],[8.33671,46.90361],[8.33667,46.90421],[8.33692,46.90497],[8.33689,46.90538],[8.33707,46.90596],[8.33732,46.90631],[8.33832,46.9069],[8.33961,46.90758],[8.34023,46.90815],[8.34081,46.90852],[8.34124,46.90895],[8.34257,46.91142],[8.34269,46.91187],[8.3427,46.91234],[8.34294,46.91302],[8.34339,46.91457],[8.34328,46.9152],[8.34206,46.91705],[8.34158,46.91745],[8.34088,46.91774],[8.34041,46.91801],[8.33947,46.91841],[8.33918,46.91872],[8.33913,46.91926],[8.34002,46.92057],[8.34044,46.92131],[8.34048,46.92178],[8.3403,46.92224],[8.34028,46.92259],[8.34004,46.9231],[8.34007,46.92349],[8.34025,46.92385],[8.34047,46.92511],[8.34107,46.92609],[8.34114,46.92644],[8.341,46.92679],[8.34064,46.92724],[8.34031,46.92781],[8.33991,46.92826],[8.33953,46.92854],[8.33859,46.92903],[8.3381,46.92913],[8.33731,46.92902],[8.3347,46.92807],[8.3344,46.928],[8.32829,46.92698],[8.32683,46.92653],[8.32641,46.92635],[8.32544,46.9261],[8.32434,46.92589],[8.32371,46.92556],[8.32253,46.92531],[8.32175,46.92531],[8.32108,46.92518],[8.32017,46.92516],[8.31875,46.92502],[8.31773,46.92498],[8.3171,46.92487],[8.31605,46.92455],[8.31555,46.92454],[8.31508,46.92466],[8.31392,46.92518],[8.31342,46.92531],[8.31285,46.92531],[8.31228,46.92516],[8.31065,46.92463],[8.31015,46.92454],[8.30964,46.92458],[8.30901,46.92489],[8.30858,46.92531],[8.30816,46.92549],[8.30724,46.92565],[8.30655,46.92599],[8.30568,46.92618],[8.30529,46.92634],[8.30488,46.92666],[8.3038,46.92719],[8.30313,46.92756],[8.30227,46.92796],[8.30166,46.9283],[8.30094,46.92882],[8.30076,46.92916],[8.30064,46.92978],[8.30032,46.93008],[8.29976,46.93032],[8.29846,46.93064],[8.29706,46.93104],[8.29632,46.93146],[8.2958,46.93159],[8.29474,46.93172],[8.29374,46.93197],[8.29263,46.93236],[8.2911,46.93268],[8.29056,46.9329],[8.28984,46.93331],[8.28935,46.9334],[8.28885,46.93336],[8.2884,46.93319],[8.28809,46.93292],[8.28783,46.93239],[8.28771,46.93222],[8.28754,46.93206],[8.28732,46.93192],[8.28692,46.93171],[8.28663,46.93146],[8.28631,46.93121],[8.28606,46.93089],[8.28591,46.93062],[8.28587,46.93053],[8.28577,46.93029],[8.28571,46.93011],[8.28567,46.92988],[8.28542,46.92954],[8.28471,46.9291],[8.28408,46.92879],[8.28373,46.92849],[8.28341,46.92802],[8.28297,46.92768],[8.28269,46.92733],[8.28182,46.92656],[8.28141,46.92598],[8.28125,46.92551],[8.28097,46.92522],[8.28055,46.92503],[8.27968,46.92491],[8.27944,46.92484],[8.27916,46.9247],[8.27912,46.92467],[8.27884,46.92445],[8.2787,46.92431],[8.27868,46.92429],[8.27846,46.92406],[8.27828,46.92383],[8.27819,46.92368],[8.2781,46.92356],[8.278,46.92345],[8.27786,46.92326],[8.27777,46.92312],[8.27773,46.92303],[8.27761,46.9228],[8.27755,46.92266],[8.27755,46.92208],[8.27746,46.9217],[8.27712,46.9213],[8.2767,46.92096],[8.27589,46.9205],[8.27555,46.92018],[8.27509,46.91932],[8.27465,46.91889],[8.27394,46.91805],[8.27368,46.91781],[8.27357,46.91768],[8.27342,46.91747],[8.27314,46.91703],[8.27277,46.91675],[8.27252,46.91634],[8.27244,46.91599],[8.27224,46.91563],[8.27208,46.9155],[8.2712,46.91494],[8.27092,46.91443],[8.27053,46.91388],[8.27036,46.91303],[8.26988,46.91264],[8.26876,46.91236],[8.2682,46.91239],[8.26752,46.91252],[8.26703,46.91246],[8.26675,46.91237],[8.26654,46.91228],[8.26649,46.91226],[8.26637,46.91221],[8.26615,46.9121],[8.26597,46.91196],[8.26571,46.91173],[8.26563,46.91165],[8.26509,46.91109],[8.26493,46.91089],[8.26483,46.91053],[8.26487,46.91035],[8.26497,46.91015],[8.26509,46.91],[8.26535,46.90977],[8.26598,46.90903],[8.26638,46.90881],[8.26705,46.90867],[8.26749,46.90847],[8.26779,46.90817],[8.26786,46.908],[8.26784,46.90763],[8.267,46.90609],[8.26638,46.90544],[8.26624,46.90522],[8.26613,46.90495],[8.26528,46.90412],[8.26469,46.90375],[8.26342,46.90271],[8.26225,46.90154],[8.26082,46.90091],[8.25987,46.9002],[8.25924,46.89955],[8.25898,46.89919],[8.25884,46.89873],[8.25847,46.89813],[8.2584,46.89767],[8.25858,46.89733],[8.25919,46.89697],[8.25979,46.89679],[8.26037,46.89644],[8.26106,46.89626],[8.26145,46.89605],[8.26171,46.89576],[8.26178,46.89542],[8.26156,46.89494],[8.26114,46.89458],[8.26079,46.89394],[8.26065,46.89342],[8.26075,46.89294],[8.26066,46.89226],[8.26085,46.89192],[8.26118,46.89161],[8.26132,46.8913],[8.26134,46.89077],[8.2618,46.89002],[8.26225,46.88956],[8.26266,46.88881],[8.2628,46.88843],[8.2628,46.88834],[8.26279,46.88809],[8.26279,46.88804],[8.26271,46.88744],[8.26273,46.88685],[8.26287,46.88652],[8.26317,46.88625],[8.26419,46.88586],[8.26506,46.88571],[8.26618,46.88567],[8.26643,46.88568],[8.26667,46.88572],[8.26707,46.88583],[8.26733,46.88589],[8.26743,46.88591],[8.26771,46.88595],[8.26799,46.88594],[8.26833,46.88589],[8.26868,46.88579],[8.26891,46.88571],[8.26983,46.88513],[8.27048,46.88491],[8.27163,46.88465],[8.27202,46.88441],[8.27237,46.88401],[8.2726,46.88387],[8.273,46.88365],[8.2732,46.88354],[8.27337,46.8834],[8.27348,46.88324],[8.27357,46.88289],[8.2735,46.88245],[8.27366,46.88173],[8.27364,46.88088],[8.27348,46.88051],[8.27283,46.87959],[8.27246,46.87913],[8.27232,46.87834],[8.27219,46.87797],[8.27217,46.87747],[8.27209,46.87698],[8.27224,46.87622],[8.27244,46.87593],[8.27308,46.87548],[8.27379,46.87469],[8.27384,46.87432],[8.27368,46.87398],[8.27317,46.87339],[8.2731,46.8728],[8.27306,46.87262],[8.27302,46.87252],[8.27299,46.87246],[8.27294,46.87235],[8.2729,46.8723],[8.27285,46.87223],[8.27284,46.87222],[8.27276,46.87212],[8.27273,46.87208],[8.27269,46.87204],[8.2727,46.87204],[8.2726,46.87193],[8.27246,46.87172],[8.2724,46.87136],[8.27245,46.87109],[8.27241,46.87065],[8.27246,46.87017],[8.27227,46.86963],[8.2723,46.86929],[8.27258,46.86886],[8.27264,46.86874],[8.27266,46.8687],[8.27267,46.86866],[8.2727,46.86856],[8.27274,46.86838],[8.27271,46.86819],[8.27263,46.86802],[8.27257,46.86793],[8.27252,46.86785],[8.27228,46.86754],[8.27207,46.86712],[8.27206,46.86665],[8.27237,46.86612],[8.27318,46.86548],[8.27354,46.86513],[8.27381,46.86469],[8.2743,46.86422],[8.27471,46.86399],[8.27489,46.86388],[8.27576,46.86331],[8.27625,46.86312],[8.27669,46.86303],[8.27711,46.86283],[8.27758,46.8624],[8.27779,46.86227],[8.27829,46.86209],[8.27857,46.86203],[8.279,46.86197],[8.27925,46.86194],[8.27943,46.86192],[8.28013,46.86179],[8.28039,46.86178],[8.28082,46.86179],[8.28097,46.8618],[8.28158,46.86184],[8.28183,46.86184],[8.28196,46.86184],[8.28221,46.8618],[8.28245,46.86174],[8.28401,46.86106],[8.28434,46.86085],[8.28526,46.85984],[8.28584,46.85952],[8.28608,46.85922],[8.28623,46.85874],[8.28634,46.85851],[8.28652,46.85827],[8.28676,46.85804],[8.28702,46.85783],[8.28738,46.85761],[8.28793,46.8574],[8.28874,46.85679],[8.28925,46.85659],[8.28982,46.85613],[8.29002,46.85602],[8.29025,46.85595],[8.29056,46.85589],[8.29106,46.85582],[8.29147,46.85565],[8.29177,46.8554],[8.29208,46.85491],[8.29327,46.85413],[8.29358,46.8538],[8.29372,46.85339],[8.29401,46.85307],[8.29472,46.85263],[8.29507,46.85212],[8.29522,46.85193],[8.29537,46.85181],[8.29555,46.8517],[8.29576,46.85162],[8.2963,46.85148],[8.29668,46.85126],[8.29683,46.85112],[8.29693,46.85096],[8.29697,46.85087],[8.297,46.85079],[8.29705,46.85063],[8.29708,46.85047],[8.29709,46.85017],[8.29706,46.84997],[8.29685,46.84954],[8.29682,46.84922],[8.29706,46.84855],[8.29705,46.84836],[8.29672,46.84729],[8.29656,46.84706],[8.29645,46.84694],[8.29637,46.84687],[8.29602,46.84657],[8.29574,46.84619],[8.29565,46.84573],[8.29558,46.84555],[8.29545,46.84532],[8.29517,46.84494],[8.29507,46.84482],[8.29421,46.84407],[8.29397,46.84391],[8.29364,46.84363],[8.29358,46.84357],[8.29345,46.84339],[8.29336,46.84318],[8.29323,46.84298],[8.29267,46.84226],[8.29246,46.84201],[8.2923,46.84184],[8.29215,46.84166],[8.29203,46.84148],[8.29194,46.84129],[8.29193,46.84127],[8.29157,46.84053],[8.29152,46.84043],[8.29016,46.83839],[8.28967,46.838],[8.28911,46.83779],[8.28858,46.83731],[8.28789,46.83683],[8.28749,46.83628],[8.28699,46.83595],[8.28678,46.83561],[8.28669,46.83504],[8.28635,46.83442],[8.28632,46.83374],[8.28597,46.83323],[8.28591,46.83298],[8.28579,46.83256],[8.28578,46.83237],[8.28564,46.83207],[8.28519,46.8316],[8.2851,46.83127],[8.28526,46.83066],[8.28532,46.83025],[8.28549,46.8298],[8.28548,46.82947],[8.28582,46.82889],[8.28589,46.82855],[8.28577,46.82814],[8.28576,46.82798],[8.28579,46.82779],[8.28591,46.82756],[8.28605,46.82737],[8.28612,46.82719],[8.28609,46.82682],[8.28563,46.82601],[8.28558,46.82525],[8.28537,46.82491],[8.28452,46.82436],[8.28435,46.82403],[8.28428,46.82363],[8.28359,46.82282],[8.28365,46.82204],[8.28359,46.82169],[8.28335,46.82127],[8.28318,46.82025],[8.28332,46.81957],[8.28327,46.81929],[8.28327,46.81911],[8.28329,46.81887],[8.28334,46.81864],[8.2834,46.81844],[8.28364,46.81805],[8.28368,46.8177],[8.28352,46.81696],[8.28345,46.8168],[8.2832,46.81648],[8.28309,46.81628],[8.28295,46.81574],[8.28254,46.81514],[8.2825,46.81477],[8.28275,46.81399],[8.28271,46.81367],[8.28263,46.81352],[8.28247,46.8133],[8.28234,46.81304],[8.28223,46.81274],[8.28221,46.8127],[8.28189,46.81167],[8.28165,46.81105],[8.28158,46.81035],[8.28149,46.81013],[8.2814,46.80987],[8.28139,46.80972],[8.28138,46.80946],[8.28136,46.80929],[8.28129,46.80912],[8.28087,46.80863],[8.28068,46.80832],[8.2805,46.80811],[8.28035,46.80797],[8.28017,46.80778],[8.28008,46.80767],[8.27996,46.80749],[8.27985,46.80727],[8.27965,46.80699],[8.27933,46.80642],[8.27916,46.80626],[8.27895,46.80613],[8.27871,46.80604],[8.2781,46.80586],[8.27787,46.80581],[8.27763,46.80579],[8.27739,46.8058],[8.2758,46.80596],[8.27538,46.806],[8.27514,46.80598],[8.27486,46.80593],[8.2747,46.80589],[8.27394,46.80569],[8.27327,46.80564],[8.27244,46.80543],[8.27151,46.8054],[8.27077,46.80522],[8.27043,46.80507],[8.27013,46.80482],[8.26984,46.80397],[8.26946,46.80354],[8.26918,46.80276],[8.26867,46.80224],[8.26832,46.80176],[8.26806,46.80151],[8.26762,46.80132],[8.26713,46.80121],[8.26672,46.801],[8.2663,46.80062],[8.26588,46.80042],[8.26512,46.80036],[8.26459,46.80044],[8.26432,46.80043],[8.26398,46.80037],[8.26384,46.80033],[8.26347,46.8002],[8.2632,46.80007],[8.26292,46.79991],[8.26248,46.79939],[8.26232,46.79894],[8.2618,46.79827],[8.26176,46.79805],[8.26176,46.79785],[8.26173,46.79767],[8.26161,46.79731],[8.26152,46.79713],[8.26096,46.79649],[8.26033,46.79619],[8.25953,46.79607],[8.25914,46.79588],[8.25898,46.79575],[8.25884,46.79556],[8.25881,46.79551],[8.25877,46.79544],[8.25861,46.79514],[8.2585,46.79497],[8.25819,46.79462],[8.25804,46.79448],[8.25733,46.794],[8.25688,46.79379],[8.25636,46.79373],[8.25577,46.79378],[8.25501,46.79397],[8.25449,46.79397],[8.25401,46.79383],[8.25365,46.79357],[8.25323,46.79277],[8.253,46.79176],[8.25293,46.7916],[8.25284,46.79124],[8.25284,46.79114],[8.25288,46.79085],[8.25305,46.79026],[8.25322,46.7898],[8.25321,46.7896],[8.25294,46.78828],[8.25293,46.78817],[8.25289,46.78779],[8.25294,46.78735],[8.25294,46.78718],[8.2529,46.78702],[8.25281,46.78687],[8.25228,46.78633],[8.25173,46.78584],[8.25093,46.78533],[8.24974,46.78489],[8.24884,46.78449],[8.24871,46.78444],[8.2482,46.78427],[8.24788,46.7842],[8.24713,46.7841],[8.24645,46.78407],[8.24615,46.78402],[8.24533,46.78383],[8.24498,46.78372],[8.24411,46.78338],[8.24395,46.78331],[8.24364,46.78316],[8.24342,46.78303],[8.24305,46.78278],[8.24289,46.78269],[8.24189,46.78215],[8.24107,46.78198],[8.24059,46.78182],[8.24004,46.78143],[8.23981,46.78133],[8.23953,46.78123],[8.23932,46.78117],[8.2391,46.78114],[8.23864,46.78114],[8.23823,46.78112],[8.23772,46.78107],[8.23752,46.78106],[8.23731,46.78107],[8.23659,46.78113],[8.23609,46.7811],[8.23483,46.78124],[8.2338,46.78118],[8.23335,46.78104],[8.23297,46.78076],[8.23253,46.78023],[8.23244,46.77989],[8.23255,46.77955],[8.23327,46.77896],[8.23344,46.77865]]]},"properties":{"bfs_nr":1404,"name":"Kerns"}},{"type":"Feature","geometry":{"type":"Polygon","coordinates":[[[8.09032,46.78804],[8.09,46.7875],[8.08992,46.78716],[8.09002,46.78674],[8.09052,46.78605],[8.09075,46.78553],[8.09085,46.78508],[8.09084,46.78457],[8.09098,46.78424],[8.09128,46.78396],[8.09191,46.78365],[8.09274,46.78306],[8.09372,46.78244],[8.09404,46.78196],[8.09457,46.78147],[8.09556,46.78028],[8.09619,46.77965],[8.09722,46.77895],[8.09778,46.77871],[8.09939,46.77829],[8.0998,46.778],[8.10149,46.77613],[8.10158,46.77595],[8.10184,46.77457],[8.10208,46.77407],[8.10275,46.77368],[8.10499,46.77302],[8.10556,46.77293],[8.1065,46.7729],[8.10721,46.77298],[8.10921,46.77355],[8.10989,46.77372],[8.11086,46.7738],[8.11191,46.77361],[8.11301,46.77346],[8.11347,46.77334],[8.11383,46.77311],[8.11431,46.77265],[8.11482,46.77233],[8.11554,46.77207],[8.11597,46.77197],[8.11647,46.7717],[8.11754,46.77136],[8.11826,46.77103],[8.11931,46.77079],[8.12007,46.77075],[8.12102,46.7706],[8.12195,46.77031],[8.12418,46.76911],[8.12601,46.76816],[8.12682,46.76767],[8.12843,46.76686],[8.12982,46.76606],[8.13153,46.7649],[8.13533,46.76266],[8.13578,46.76233],[8.13708,46.76151],[8.13735,46.76126],[8.13791,46.76052],[8.1385,46.76016],[8.13895,46.75959],[8.13961,46.75915],[8.1402,46.75898],[8.14094,46.75865],[8.14478,46.75625],[8.14593,46.75557],[8.14644,46.75537],[8.14723,46.75537],[8.14769,46.75555],[8.14893,46.75657],[8.14982,46.75704],[8.15167,46.75765],[8.15247,46.75795],[8.15303,46.75806],[8.15395,46.7581],[8.15446,46.75819],[8.15534,46.75856],[8.15579,46.75863],[8.15746,46.75904],[8.15784,46.75926],[8.15813,46.7596],[8.15853,46.75987],[8.15896,46.76003],[8.1594,46.76034],[8.15987,46.76052],[8.1607,46.76062],[8.16126,46.76086],[8.16186,46.76125],[8.16226,46.76164],[8.16313,46.76196],[8.16367,46.76235],[8.16407,46.76306],[8.16438,46.7633],[8.16512,46.76357],[8.16559,46.76384],[8.16658,46.76408],[8.16695,46.76433],[8.16725,46.76472],[8.16763,46.76497],[8.1684,46.76511],[8.16891,46.76502],[8.1707,46.76441],[8.17149,46.76426],[8.172,46.76432],[8.17382,46.7653],[8.17423,46.76546],[8.18558,46.76852],[8.18602,46.7687],[8.18761,46.76959],[8.18906,46.77008],[8.18977,46.77016],[8.19043,46.76996],[8.19288,46.76859],[8.19354,46.76837],[8.19584,46.768],[8.19676,46.76805],[8.19917,46.76873],[8.19951,46.76879],[8.20217,46.76899],[8.20269,46.7691],[8.20321,46.76931],[8.20645,46.76954],[8.20784,46.76945],[8.20859,46.76906],[8.20917,46.76833],[8.20958,46.76809],[8.21006,46.76794],[8.21044,46.76767],[8.21111,46.767],[8.2123,46.76628],[8.21635,46.7647],[8.21824,46.76376],[8.21896,46.76362],[8.21933,46.76341],[8.21957,46.76313],[8.22021,46.76192],[8.22073,46.76144],[8.22174,46.76115],[8.22221,46.76114],[8.22319,46.76132],[8.22651,46.76147],[8.22698,46.76143],[8.22782,46.76117],[8.22908,46.76118],[8.22971,46.76107],[8.23028,46.76108],[8.23161,46.76142],[8.23227,46.76148],[8.23348,46.76174],[8.23408,46.7622],[8.2386,46.76891],[8.23874,46.7693],[8.23866,46.76965],[8.23838,46.77007],[8.23828,46.77069],[8.23811,46.77124],[8.23828,46.77191],[8.23819,46.77241],[8.23817,46.77265],[8.23821,46.77309],[8.23809,46.77339],[8.23711,46.77442],[8.23644,46.7748],[8.23617,46.77514],[8.23612,46.77577],[8.23603,46.77599],[8.23552,46.77655],[8.23495,46.77731],[8.23389,46.77787],[8.23359,46.77818],[8.23341,46.77864],[8.23286,46.77913],[8.23249,46.77962],[8.23243,46.77979],[8.23246,46.78013],[8.23271,46.78052],[8.23274,46.78107],[8.23249,46.78139],[8.2323,46.78152],[8.23201,46.78165],[8.23055,46.78215],[8.23032,46.78226],[8.22933,46.7828],[8.22916,46.78291],[8.22851,46.78342],[8.2282,46.78362],[8.22649,46.78448],[8.22634,46.78458],[8.22589,46.78489],[8.22567,46.78509],[8.22547,46.78537],[8.22509,46.7861],[8.22505,46.78617],[8.2248,46.78658],[8.22467,46.78675],[8.22453,46.78687],[8.22412,46.7871],[8.22354,46.78775],[8.22223,46.78861],[8.22206,46.78875],[8.22185,46.7891],[8.22177,46.78971],[8.22158,46.79002],[8.22124,46.79026],[8.22079,46.7904],[8.2203,46.79042],[8.22006,46.79037],[8.21963,46.7902],[8.21903,46.78974],[8.2186,46.78957],[8.21811,46.78952],[8.21647,46.78979],[8.21441,46.78955],[8.21402,46.78953],[8.21378,46.78953],[8.21336,46.78956],[8.21324,46.78958],[8.21316,46.78959],[8.21305,46.78961],[8.21238,46.78975],[8.21179,46.78993],[8.21017,46.78996],[8.20971,46.7901],[8.20937,46.79036],[8.20919,46.79069],[8.20917,46.79176],[8.20961,46.79273],[8.20955,46.79326],[8.20964,46.79376],[8.20997,46.79414],[8.21008,46.79427],[8.21017,46.79444],[8.2102,46.79452],[8.21024,46.79467],[8.21035,46.79511],[8.21072,46.79568],[8.21101,46.79589],[8.21235,46.79719],[8.21259,46.7977],[8.21297,46.79822],[8.21301,46.79855],[8.21288,46.79916],[8.21233,46.79984],[8.21228,46.80019],[8.21246,46.80072],[8.21249,46.80146],[8.21282,46.80259],[8.21356,46.80335],[8.2142,46.80385],[8.21446,46.8043],[8.21458,46.80482],[8.21473,46.80517],[8.21479,46.80535],[8.21479,46.80556],[8.21479,46.80565],[8.21481,46.80577],[8.21481,46.80617],[8.21499,46.80651],[8.21533,46.80679],[8.21592,46.80786],[8.216,46.80825],[8.21638,46.8087],[8.21652,46.809],[8.2166,46.80981],[8.21645,46.81024],[8.21651,46.81061],[8.21648,46.81095],[8.21648,46.81144],[8.21651,46.81189],[8.21639,46.8122],[8.21559,46.81304],[8.21512,46.81325],[8.21388,46.81341],[8.21267,46.81322],[8.21139,46.81288],[8.20941,46.81243],[8.20933,46.81242],[8.2082,46.81222],[8.20792,46.81219],[8.20761,46.81215],[8.20737,46.81208],[8.2071,46.81203],[8.20611,46.81187],[8.20507,46.81145],[8.20489,46.81139],[8.20398,46.81115],[8.20312,46.81098],[8.20229,46.81075],[8.20185,46.81069],[8.19961,46.81064],[8.1994,46.81064],[8.19823,46.81074],[8.19789,46.81081],[8.19727,46.81101],[8.19691,46.81126],[8.19662,46.81177],[8.19631,46.81205],[8.19578,46.81231],[8.19559,46.81246],[8.19529,46.8128],[8.19512,46.81293],[8.19439,46.81327],[8.19417,46.81333],[8.19389,46.81337],[8.19339,46.81341],[8.19307,46.81347],[8.19258,46.81361],[8.19235,46.81369],[8.19136,46.81414],[8.19115,46.81425],[8.19098,46.8144],[8.19067,46.81481],[8.19005,46.81522],[8.18994,46.8153],[8.18978,46.81543],[8.18926,46.81576],[8.18893,46.81592],[8.18862,46.81605],[8.18834,46.81614],[8.1877,46.81631],[8.1873,46.81648],[8.18709,46.81664],[8.18681,46.8168],[8.18598,46.81718],[8.1858,46.81725],[8.18482,46.8176],[8.18465,46.81767],[8.18452,46.81773],[8.18429,46.81788],[8.18377,46.81831],[8.18327,46.81867],[8.18296,46.81881],[8.18142,46.81937],[8.18092,46.81943],[8.18043,46.81936],[8.17942,46.81901],[8.17891,46.81899],[8.17814,46.81912],[8.17761,46.8191],[8.17693,46.81892],[8.17594,46.81882],[8.17458,46.81835],[8.17386,46.81832],[8.17343,46.81838],[8.17278,46.81835],[8.17199,46.81809],[8.17141,46.81803],[8.17089,46.81812],[8.17048,46.81836],[8.16971,46.81915],[8.16929,46.81932],[8.16882,46.81937],[8.16819,46.81932],[8.16728,46.81929],[8.16663,46.81936],[8.16611,46.81934],[8.16497,46.81901],[8.16361,46.81874],[8.16347,46.81872],[8.16138,46.81847],[8.16107,46.81844],[8.16102,46.81843],[8.16097,46.81843],[8.16071,46.81838],[8.16043,46.81831],[8.15991,46.81831],[8.15906,46.81849],[8.15824,46.8184],[8.15725,46.81787],[8.15685,46.81771],[8.15347,46.81686],[8.15326,46.81676],[8.15321,46.81673],[8.15292,46.81658],[8.15256,46.8164],[8.15072,46.81524],[8.15063,46.81518],[8.1464,46.81216],[8.14639,46.81215],[8.14465,46.81089],[8.14436,46.81061],[8.14099,46.8064],[8.14085,46.80618],[8.1408,46.806],[8.14082,46.80563],[8.14072,46.80532],[8.14033,46.80461],[8.1403,46.80393],[8.14016,46.80363],[8.13817,46.80111],[8.13808,46.80098],[8.13707,46.79931],[8.13695,46.79915],[8.13678,46.79901],[8.13658,46.7989],[8.13635,46.79881],[8.13565,46.79862],[8.13529,46.79856],[8.13334,46.79843],[8.13307,46.7984],[8.13252,46.79831],[8.13191,46.79815],[8.13171,46.79813],[8.13011,46.798],[8.12984,46.79797],[8.12871,46.79776],[8.12859,46.79774],[8.1275,46.7975],[8.12748,46.79749],[8.1262,46.7972],[8.12605,46.79716],[8.12115,46.79571],[8.12093,46.79566],[8.1207,46.79564],[8.12047,46.79565],[8.119,46.79578],[8.11863,46.79578],[8.11834,46.79574],[8.11762,46.79549],[8.11736,46.79544],[8.1171,46.79543],[8.11698,46.79544],[8.11669,46.79547],[8.11633,46.79554],[8.11587,46.79559],[8.11439,46.79563],[8.11395,46.79561],[8.11365,46.79559],[8.11264,46.79562],[8.11234,46.79565],[8.11175,46.79583],[8.1115,46.79588],[8.10968,46.7961],[8.10929,46.79612],[8.10869,46.79604],[8.10787,46.79598],[8.10739,46.79605],[8.10626,46.79641],[8.10435,46.7968],[8.10402,46.79685],[8.10376,46.79684],[8.10234,46.79654],[8.10113,46.7964],[8.10083,46.79631],[8.10014,46.79604],[8.09986,46.7959],[8.09963,46.79572],[8.09944,46.79555],[8.09921,46.79526],[8.09903,46.79498],[8.09863,46.7945],[8.09834,46.79425],[8.09752,46.79379],[8.09742,46.79375],[8.09726,46.79368],[8.09696,46.79357],[8.09654,46.79337],[8.0961,46.79309],[8.09586,46.79297],[8.09533,46.79276],[8.09514,46.79267],[8.09481,46.7925],[8.09461,46.79239],[8.09411,46.79206],[8.09388,46.79187],[8.09374,46.79168],[8.09358,46.79151],[8.09314,46.79115],[8.09297,46.79103],[8.09206,46.79053],[8.09166,46.79033],[8.09136,46.79006],[8.09092,46.78928],[8.09072,46.78878],[8.09032,46.78804]]]},"properties":{"bfs_nr":1405,"name":"Lungern"}},{"type":"Feature","geometry":{"type":"Polygon","coordinates":[[[8.18776,46.84568],[8.18808,46.84512],[8.18896,46.84426],[8.1892,46.8438],[8.18925,46.8431],[8.18957,46.84274],[8.19024,46.84239],[8.19041,46.84225],[8.19114,46.84164],[8.19116,46.84162],[8.19129,46.84151],[8.1914,46.84139],[8.19145,46.84132],[8.19148,46.84129],[8.1918,46.84083],[8.19234,46.84003],[8.19297,46.83926],[8.19335,46.83904],[8.19408,46.83887],[8.19459,46.83881],[8.19503,46.83864],[8.19594,46.83789],[8.19637,46.83746],[8.19658,46.83727],[8.19682,46.8371],[8.19705,46.837],[8.19735,46.83692],[8.19758,46.83684],[8.19778,46.83673],[8.19847,46.83612],[8.19944,46.83549],[8.20001,46.83523],[8.20078,46.83475],[8.20115,46.83445],[8.20167,46.8342],[8.20196,46.83395],[8.20204,46.8338],[8.20211,46.83353],[8.2022,46.83334],[8.20239,46.83304],[8.20262,46.83252],[8.20298,46.83226],[8.20342,46.83207],[8.20373,46.83183],[8.20383,46.83168],[8.2039,46.83153],[8.20397,46.83134],[8.20397,46.83115],[8.20386,46.83053],[8.20414,46.82996],[8.20445,46.82966],[8.20536,46.82937],[8.20631,46.82901],[8.20779,46.82832],[8.20859,46.82775],[8.20882,46.82748],[8.20914,46.82656],[8.20899,46.82595],[8.20917,46.82544],[8.21004,46.82482],[8.21034,46.82447],[8.21047,46.82416],[8.21056,46.82384],[8.21052,46.82329],[8.2108,46.82265],[8.21164,46.82211],[8.21181,46.82195],[8.21207,46.82153],[8.21249,46.82118],[8.21307,46.82047],[8.21325,46.82005],[8.21349,46.81961],[8.21367,46.81937],[8.21395,46.8187],[8.2144,46.81831],[8.21482,46.8178],[8.21542,46.81747],[8.21565,46.81718],[8.21592,46.81637],[8.21595,46.81619],[8.21592,46.81601],[8.21576,46.81566],[8.21576,46.81513],[8.21544,46.81419],[8.21551,46.81368],[8.2158,46.81326],[8.21587,46.81292],[8.21636,46.81232],[8.21652,46.81199],[8.21648,46.81147],[8.21652,46.81071],[8.21647,46.81026],[8.21667,46.80977],[8.21664,46.80912],[8.2165,46.80877],[8.21607,46.80832],[8.21594,46.80783],[8.21563,46.80733],[8.21539,46.80669],[8.21494,46.80619],[8.21481,46.80544],[8.21475,46.80521],[8.21457,46.80477],[8.21446,46.80422],[8.2141,46.80369],[8.21362,46.80337],[8.21283,46.80258],[8.21249,46.80146],[8.21248,46.80078],[8.21233,46.80028],[8.21251,46.79974],[8.21287,46.79924],[8.21304,46.7985],[8.21295,46.7981],[8.21264,46.79773],[8.21245,46.7973],[8.21196,46.7967],[8.21146,46.79631],[8.21067,46.79552],[8.21035,46.79508],[8.21023,46.79464],[8.21021,46.79454],[8.21013,46.79433],[8.20999,46.7941],[8.20978,46.79386],[8.20969,46.79353],[8.20976,46.79316],[8.20969,46.79281],[8.20919,46.79171],[8.20918,46.79136],[8.20941,46.79057],[8.20972,46.79027],[8.21044,46.79003],[8.21172,46.78998],[8.21241,46.78977],[8.21271,46.78968],[8.21302,46.78962],[8.21321,46.78958],[8.21372,46.78954],[8.21408,46.78953],[8.21435,46.78954],[8.21495,46.78962],[8.21647,46.78979],[8.21811,46.78952],[8.2186,46.78957],[8.21903,46.78974],[8.21963,46.79021],[8.22006,46.79038],[8.2203,46.79042],[8.22054,46.79043],[8.22079,46.7904],[8.22102,46.79035],[8.22124,46.79027],[8.22143,46.79016],[8.22158,46.79002],[8.22177,46.78971],[8.22184,46.78929],[8.22205,46.78884],[8.22239,46.78851],[8.22346,46.78782],[8.22386,46.78751],[8.22414,46.78717],[8.2245,46.78693],[8.22474,46.78667],[8.22505,46.78616],[8.22508,46.78611],[8.22542,46.78546],[8.2257,46.7851],[8.22602,46.7848],[8.22654,46.78446],[8.22825,46.78359],[8.22846,46.78346],[8.22913,46.78294],[8.22938,46.78277],[8.23026,46.78229],[8.23061,46.78213],[8.233,46.78131],[8.23349,46.78121],[8.23492,46.78124],[8.23614,46.78111],[8.23648,46.78113],[8.2368,46.78112],[8.23726,46.78107],[8.23752,46.78106],[8.23778,46.78107],[8.2383,46.78113],[8.23857,46.78114],[8.2391,46.78114],[8.23932,46.78117],[8.23975,46.78131],[8.24004,46.78143],[8.24057,46.78181],[8.24099,46.78198],[8.24193,46.78218],[8.2426,46.7826],[8.24289,46.78271],[8.24316,46.78286],[8.24345,46.78305],[8.2436,46.78314],[8.24398,46.78332],[8.24408,46.78337],[8.24503,46.78375],[8.24527,46.78382],[8.24621,46.78404],[8.24644,46.78408],[8.24721,46.78411],[8.2478,46.78419],[8.24828,46.7843],[8.24868,46.78443],[8.24887,46.78451],[8.24977,46.7849],[8.25089,46.78532],[8.25165,46.78579],[8.25203,46.78618],[8.25245,46.78651],[8.25282,46.78691],[8.25291,46.78709],[8.25294,46.78729],[8.25289,46.78772],[8.25293,46.78819],[8.25294,46.78826],[8.2532,46.78955],[8.25321,46.7898],[8.25306,46.79024],[8.25286,46.79089],[8.25284,46.79109],[8.25284,46.7913],[8.25319,46.79266],[8.25348,46.79343],[8.25396,46.79385],[8.25444,46.79399],[8.25497,46.79398],[8.25562,46.79383],[8.25628,46.7938],[8.25676,46.7939],[8.2577,46.79431],[8.258,46.79447],[8.25824,46.79467],[8.25846,46.79493],[8.25864,46.79518],[8.25877,46.79545],[8.2588,46.7955],[8.25887,46.79561],[8.259,46.79577],[8.25917,46.79591],[8.25961,46.79611],[8.26012,46.79618],[8.26063,46.79637],[8.26158,46.7973],[8.26171,46.79762],[8.26176,46.7979],[8.26177,46.79819],[8.2618,46.79838],[8.26231,46.79904],[8.26251,46.79951],[8.26294,46.79994],[8.26313,46.80004],[8.26353,46.80022],[8.26378,46.80031],[8.26429,46.80045],[8.26485,46.80051],[8.26549,46.80044],[8.26623,46.80062],[8.26692,46.80116],[8.26778,46.80142],[8.2682,46.80165],[8.26876,46.80236],[8.26918,46.8028],[8.26945,46.80354],[8.26984,46.80399],[8.27001,46.80466],[8.27012,46.80484],[8.27028,46.80499],[8.27048,46.80512],[8.27098,46.8053],[8.2715,46.80541],[8.27243,46.80543],[8.27342,46.80573],[8.27367,46.80578],[8.27409,46.80583],[8.2745,46.8059],[8.27472,46.80591],[8.27502,46.80597],[8.27531,46.806],[8.27561,46.80599],[8.27581,46.80596],[8.27733,46.8058],[8.27763,46.80579],[8.27787,46.80581],[8.27816,46.80588],[8.27895,46.80614],[8.27932,46.80642],[8.27966,46.80701],[8.27981,46.80722],[8.28001,46.80758],[8.28019,46.80782],[8.28061,46.80824],[8.28082,46.80857],[8.28128,46.80912],[8.28135,46.80929],[8.28138,46.8095],[8.28139,46.80975],[8.2814,46.80985],[8.28141,46.80991],[8.28147,46.81009],[8.28157,46.81035],[8.28163,46.81099],[8.28189,46.81168],[8.28221,46.81271],[8.28223,46.81274],[8.28235,46.81309],[8.28244,46.81326],[8.28256,46.81342],[8.28267,46.81363],[8.28269,46.81399],[8.28247,46.81471],[8.2825,46.81504],[8.28263,46.81544],[8.28297,46.81618],[8.28322,46.81651],[8.28344,46.8168],[8.28352,46.81697],[8.28359,46.81747],[8.28368,46.81771],[8.28363,46.81805],[8.28339,46.81844],[8.28334,46.8186],[8.28329,46.81888],[8.28328,46.81894],[8.28326,46.8192],[8.2833,46.81955],[8.28317,46.82025],[8.2833,46.82115],[8.28362,46.82188],[8.28352,46.82262],[8.28363,46.82296],[8.28426,46.82362],[8.28434,46.82418],[8.28458,46.82453],[8.28527,46.82499],[8.28545,46.82533],[8.28553,46.82589],[8.28608,46.82683],[8.28602,46.82737],[8.28584,46.82763],[8.28578,46.82782],[8.28575,46.82799],[8.28581,46.82873],[8.28554,46.82913],[8.28545,46.82938],[8.28546,46.82977],[8.2853,46.83022],[8.28525,46.83068],[8.28508,46.83111],[8.28507,46.83148],[8.28527,46.83182],[8.2856,46.83211],[8.28576,46.83242],[8.28581,46.83271],[8.28588,46.83297],[8.28591,46.83332],[8.28625,46.83382],[8.28635,46.83461],[8.28663,46.83513],[8.28673,46.83576],[8.287,46.83604],[8.28764,46.83649],[8.28788,46.83687],[8.28848,46.83726],[8.28898,46.83772],[8.28917,46.83784],[8.28966,46.83802],[8.2902,46.83845],[8.2915,46.84041],[8.29159,46.84055],[8.29193,46.84128],[8.29194,46.84129],[8.29205,46.84151],[8.29212,46.84163],[8.29219,46.84172],[8.29228,46.84182],[8.29268,46.84228],[8.2932,46.84294],[8.29332,46.84311],[8.29339,46.8433],[8.29354,46.84353],[8.29368,46.84368],[8.29391,46.84387],[8.2942,46.84407],[8.29442,46.8443],[8.29512,46.84487],[8.2954,46.84526],[8.29563,46.84568],[8.29573,46.84619],[8.29597,46.84653],[8.29651,46.847],[8.29671,46.8473],[8.29704,46.84836],[8.29705,46.84855],[8.29682,46.84922],[8.29684,46.84954],[8.29706,46.84997],[8.29709,46.85021],[8.29708,46.85042],[8.29704,46.85067],[8.29701,46.85076],[8.29696,46.85089],[8.29695,46.85092],[8.29682,46.85112],[8.29668,46.85126],[8.29629,46.85147],[8.29573,46.85162],[8.29553,46.8517],[8.29535,46.85181],[8.29521,46.85193],[8.29461,46.85263],[8.29397,46.85297],[8.29373,46.85327],[8.29357,46.85379],[8.29327,46.85412],[8.29192,46.85498],[8.2915,46.85552],[8.29113,46.85576],[8.2909,46.85583],[8.29036,46.85591],[8.29002,46.85601],[8.28941,46.85636],[8.28834,46.8567],[8.28765,46.85746],[8.28708,46.85778],[8.28671,46.85807],[8.28655,46.85823],[8.28643,46.85839],[8.28638,46.85846],[8.28632,46.85855],[8.28624,46.8587],[8.28618,46.85888],[8.28616,46.85896],[8.28607,46.85921],[8.28579,46.85953],[8.28529,46.85978],[8.28434,46.86085],[8.28359,46.86124],[8.28244,46.86174],[8.28221,46.8618],[8.2819,46.86184],[8.28189,46.86184],[8.28152,46.86184],[8.28095,46.86179],[8.28084,46.86179],[8.28034,46.86178],[8.28013,46.86179],[8.27993,46.86182],[8.27948,46.86191],[8.2792,46.86195],[8.27902,46.86197],[8.27843,46.86205],[8.27821,46.86209],[8.27785,46.86223],[8.27762,46.86236],[8.27713,46.8628],[8.27671,46.863],[8.27629,46.86309],[8.27583,46.86327],[8.27529,46.86358],[8.27474,46.86397],[8.2743,46.86421],[8.2737,46.86472],[8.27313,46.8655],[8.27229,46.86618],[8.27205,46.86657],[8.272,46.86692],[8.27204,46.86709],[8.27215,46.86731],[8.27226,46.86751],[8.27236,46.86766],[8.27257,46.86791],[8.2727,46.86817],[8.27273,46.86837],[8.27269,46.86862],[8.27268,46.86864],[8.27265,46.86871],[8.27256,46.86888],[8.27226,46.86934],[8.27223,46.86969],[8.27242,46.87019],[8.2724,46.8706],[8.27242,46.87115],[8.27236,46.87139],[8.27246,46.87177],[8.2726,46.87194],[8.27268,46.87202],[8.27274,46.8721],[8.27276,46.87212],[8.27284,46.87222],[8.27286,46.87224],[8.27289,46.87229],[8.27292,46.87234],[8.273,46.87248],[8.27306,46.87264],[8.27309,46.87275],[8.27315,46.87334],[8.2733,46.87366],[8.27371,46.87407],[8.2738,46.87443],[8.27368,46.87479],[8.27303,46.8755],[8.27241,46.87594],[8.27221,46.87624],[8.27207,46.87697],[8.27217,46.87752],[8.27217,46.87805],[8.27228,46.87829],[8.27246,46.87913],[8.27298,46.87981],[8.27334,46.88051],[8.27357,46.88083],[8.27365,46.8812],[8.27362,46.88178],[8.27347,46.88257],[8.27354,46.883],[8.27338,46.88335],[8.27323,46.8835],[8.27298,46.88366],[8.27253,46.8839],[8.27222,46.88407],[8.27152,46.88463],[8.27075,46.88481],[8.26983,46.88512],[8.269,46.88564],[8.26857,46.88582],[8.26806,46.88593],[8.26782,46.88594],[8.26754,46.88592],[8.26742,46.8859],[8.26728,46.88588],[8.26701,46.88581],[8.2669,46.88577],[8.26678,46.88574],[8.26663,46.88571],[8.26647,46.88569],[8.26639,46.88568],[8.26618,46.88566],[8.26497,46.88569],[8.26419,46.88586],[8.26328,46.88614],[8.26288,46.88636],[8.26264,46.88667],[8.26259,46.88702],[8.26267,46.88726],[8.26268,46.88732],[8.26272,46.88749],[8.26278,46.88803],[8.26279,46.8881],[8.26279,46.88822],[8.26277,46.88844],[8.2627,46.88861],[8.26243,46.88891],[8.26201,46.88911],[8.261,46.88928],[8.26045,46.88928],[8.25962,46.88898],[8.2592,46.88887],[8.25819,46.88846],[8.25793,46.88831],[8.25767,46.8882],[8.25725,46.88804],[8.25578,46.88754],[8.25525,46.88713],[8.25455,46.88674],[8.25429,46.8864],[8.25393,46.88614],[8.25308,46.88579],[8.25138,46.88475],[8.25036,46.88405],[8.24952,46.88369],[8.24921,46.88353],[8.24906,46.88343],[8.24889,46.8833],[8.24872,46.88311],[8.24863,46.88293],[8.24859,46.88256],[8.24841,46.88221],[8.24804,46.88194],[8.24747,46.88171],[8.24708,46.88146],[8.24636,46.88125],[8.24582,46.88123],[8.24496,46.8814],[8.24444,46.88141],[8.24395,46.88128],[8.24332,46.88085],[8.2431,46.88075],[8.24228,46.88046],[8.24206,46.8804],[8.24183,46.88037],[8.24159,46.88036],[8.24136,46.88039],[8.23683,46.88117],[8.23651,46.88121],[8.236,46.88115],[8.23556,46.88097],[8.23526,46.88068],[8.23516,46.88047],[8.23372,46.8762],[8.23336,46.87576],[8.22833,46.87237],[8.22815,46.87227],[8.2084,46.86311],[8.20814,46.86296],[8.20513,46.86097],[8.2049,46.86078],[8.20474,46.86056],[8.20153,46.85483],[8.20102,46.85439],[8.20025,46.85425],[8.19307,46.85448],[8.19275,46.85447],[8.19227,46.85434],[8.19173,46.85391],[8.19108,46.85294],[8.1902,46.85167],[8.18717,46.84732],[8.18706,46.84711],[8.18704,46.84674],[8.18723,46.8464],[8.1876,46.84607],[8.18776,46.84568]]]},"properties":{"bfs_nr":1406,"name":"Sachseln"}},{"type":"Feature","geometry":{"type":"Polygon","coordinates":[[[8.06847,46.88452],[8.06878,46.88326],[8.06891,46.88292],[8.06946,46.88223],[8.07028,46.88186],[8.07071,46.88159],[8.07091,46.8813],[8.07088,46.88057],[8.07071,46.88022],[8.07039,46.87994],[8.07014,46.87937],[8.07029,46.87816],[8.07053,46.87783],[8.07093,46.8776],[8.07243,46.87722],[8.07297,46.87724],[8.07362,46.87736],[8.07422,46.87737],[8.07478,46.8773],[8.07531,46.87734],[8.07557,46.87733],[8.07582,46.87729],[8.07656,46.87713],[8.07682,46.87704],[8.07705,46.87692],[8.07778,46.8763],[8.07824,46.876],[8.0784,46.87588],[8.07852,46.87574],[8.07861,46.87559],[8.07874,46.87507],[8.07917,46.87465],[8.07965,46.87449],[8.07995,46.87445],[8.08075,46.8746],[8.08153,46.8751],[8.08292,46.87554],[8.08393,46.87592],[8.08425,46.87613],[8.08448,46.87626],[8.0847,46.87636],[8.08494,46.87643],[8.08519,46.87647],[8.08605,46.87653],[8.08633,46.87653],[8.08661,46.87649],[8.08758,46.87626],[8.08768,46.87623],[8.08874,46.87591],[8.08876,46.87591],[8.08922,46.87577],[8.08937,46.87574],[8.08993,46.87561],[8.09016,46.87554],[8.09037,46.87544],[8.09137,46.87484],[8.09217,46.87425],[8.09348,46.8735],[8.09465,46.87305],[8.09491,46.87292],[8.09534,46.87265],[8.0958,46.8724],[8.09614,46.87214],[8.09656,46.87198],[8.09703,46.87194],[8.09733,46.87197],[8.09815,46.8721],[8.09869,46.87226],[8.0995,46.87275],[8.09989,46.87304],[8.10013,46.87316],[8.10039,46.87324],[8.10069,46.8733],[8.10345,46.87366],[8.10441,46.87368],[8.10497,46.87375],[8.10623,46.87408],[8.10643,46.87411],[8.10734,46.87424],[8.10772,46.87432],[8.10819,46.87455],[8.10873,46.87492],[8.10881,46.87498],[8.1092,46.87529],[8.10924,46.87532],[8.11061,46.8763],[8.11078,46.87641],[8.11141,46.87672],[8.11167,46.87687],[8.11224,46.87729],[8.11236,46.87738],[8.11246,46.87748],[8.11261,46.87763],[8.11269,46.87777],[8.11282,46.87818],[8.11294,46.87849],[8.11296,46.87855],[8.11315,46.87893],[8.11351,46.87941],[8.11388,46.87963],[8.11411,46.87971],[8.11435,46.87975],[8.11467,46.87978],[8.11473,46.87979],[8.11506,46.87981],[8.11523,46.87982],[8.11538,46.87982],[8.11562,46.8798],[8.11584,46.87976],[8.11632,46.8796],[8.11686,46.87955],[8.11735,46.87959],[8.1181,46.8796],[8.11928,46.87957],[8.1201,46.87966],[8.12051,46.87982],[8.12081,46.88001],[8.12134,46.88021],[8.12189,46.88046],[8.1221,46.88055],[8.12229,46.88062],[8.12285,46.88073],[8.12355,46.881],[8.12398,46.88114],[8.12417,46.88119],[8.12451,46.88128],[8.12486,46.88142],[8.12519,46.88157],[8.12545,46.88172],[8.12565,46.88189],[8.12578,46.88203],[8.12617,46.88251],[8.12622,46.88256],[8.12977,46.88627],[8.13014,46.88652],[8.13109,46.88688],[8.13164,46.88694],[8.13247,46.8869],[8.13294,46.88674],[8.1333,46.88647],[8.13347,46.88613],[8.13357,46.88546],[8.13386,46.88517],[8.1343,46.88491],[8.1348,46.88432],[8.13541,46.88371],[8.13574,46.88346],[8.13688,46.88288],[8.13734,46.88243],[8.1375,46.88232],[8.13768,46.88221],[8.13791,46.88208],[8.13808,46.88198],[8.13821,46.88185],[8.13833,46.88169],[8.13849,46.88119],[8.13874,46.8809],[8.13897,46.88075],[8.13931,46.88057],[8.13944,46.88049],[8.13953,46.88043],[8.1406,46.87959],[8.14116,46.87926],[8.14145,46.87914],[8.14154,46.8791],[8.14196,46.87898],[8.14222,46.87888],[8.14244,46.87875],[8.14296,46.87826],[8.14308,46.87812],[8.14317,46.87797],[8.14336,46.87744],[8.14367,46.87717],[8.14422,46.87692],[8.14536,46.87631],[8.14651,46.87586],[8.1473,46.87563],[8.14891,46.87528],[8.14941,46.87528],[8.15041,46.8755],[8.15091,46.87549],[8.15138,46.87535],[8.15216,46.87488],[8.15264,46.87471],[8.15315,46.87464],[8.15366,46.8746],[8.1539,46.87454],[8.15412,46.87445],[8.15435,46.87434],[8.15457,46.8742],[8.15487,46.87399],[8.15528,46.87376],[8.15567,46.8735],[8.15632,46.87323],[8.15661,46.87308],[8.15742,46.87264],[8.15751,46.87258],[8.15764,46.8725],[8.1578,46.87239],[8.15802,46.87211],[8.15816,46.87155],[8.15865,46.87077],[8.15892,46.87046],[8.15934,46.87025],[8.15991,46.8701],[8.16042,46.86975],[8.16086,46.86918],[8.16127,46.86899],[8.16176,46.86892],[8.16214,46.86893],[8.1625,46.86892],[8.16272,46.86889],[8.16302,46.86886],[8.16316,46.86884],[8.16374,46.86875],[8.16428,46.86864],[8.16503,46.8686],[8.16556,46.86869],[8.16601,46.86867],[8.16747,46.86823],[8.16849,46.86822],[8.16921,46.86806],[8.16997,46.86763],[8.17131,46.86713],[8.17183,46.86689],[8.17278,46.86656],[8.17301,46.86642],[8.18218,46.85937],[8.18341,46.85848],[8.18376,46.85828],[8.18487,46.85778],[8.18582,46.85725],[8.18689,46.85678],[8.1878,46.85632],[8.18967,46.85553],[8.18973,46.8555],[8.1898,46.85548],[8.18983,46.85547],[8.19179,46.85465],[8.19251,46.85449],[8.20018,46.85425],[8.20102,46.8544],[8.20156,46.85487],[8.20476,46.86061],[8.20489,46.86078],[8.20508,46.86093],[8.20818,46.86299],[8.20836,46.86309],[8.2281,46.87225],[8.22837,46.8724],[8.23331,46.87573],[8.23373,46.87624],[8.23517,46.88052],[8.23525,46.88069],[8.23556,46.88097],[8.23577,46.88108],[8.236,46.88116],[8.23625,46.8812],[8.23651,46.88121],[8.23677,46.88119],[8.2413,46.8804],[8.24159,46.88037],[8.24206,46.8804],[8.24289,46.88068],[8.24336,46.88093],[8.24364,46.88119],[8.24405,46.88138],[8.24478,46.88145],[8.2459,46.88124],[8.2464,46.88126],[8.24702,46.88147],[8.24804,46.8821],[8.24834,46.88267],[8.24876,46.88318],[8.2489,46.88331],[8.24903,46.88341],[8.24926,46.88356],[8.24946,46.88367],[8.24999,46.8839],[8.25036,46.88406],[8.25134,46.88473],[8.2532,46.88586],[8.2539,46.8862],[8.25461,46.88687],[8.25505,46.88708],[8.25546,46.88741],[8.25614,46.88771],[8.25721,46.88803],[8.25758,46.88817],[8.25796,46.88837],[8.2589,46.88876],[8.25914,46.88885],[8.25962,46.88899],[8.26082,46.88945],[8.26135,46.88988],[8.26144,46.89022],[8.26134,46.89056],[8.26093,46.8912],[8.26042,46.89166],[8.2603,46.892],[8.26039,46.89236],[8.26063,46.89268],[8.26072,46.89303],[8.26065,46.89342],[8.26077,46.8939],[8.26104,46.89442],[8.26143,46.89505],[8.26142,46.89539],[8.26122,46.8957],[8.26001,46.89665],[8.25957,46.89681],[8.25902,46.89691],[8.25859,46.89713],[8.25825,46.89761],[8.25829,46.89797],[8.25855,46.89838],[8.25873,46.89895],[8.2594,46.89977],[8.25997,46.90034],[8.26052,46.90078],[8.26122,46.9012],[8.26217,46.90163],[8.26252,46.90187],[8.26276,46.90219],[8.26339,46.90269],[8.26398,46.90325],[8.26585,46.90469],[8.26631,46.90536],[8.26639,46.90546],[8.26644,46.90552],[8.26701,46.90612],[8.26781,46.9076],[8.26783,46.90795],[8.2675,46.90842],[8.26708,46.90862],[8.26641,46.90877],[8.26597,46.909],[8.26501,46.91009],[8.26495,46.91017],[8.26486,46.91035],[8.26483,46.91053],[8.26492,46.91089],[8.26505,46.91106],[8.26564,46.91166],[8.26569,46.91171],[8.266,46.91199],[8.26615,46.9121],[8.26633,46.91219],[8.2665,46.91227],[8.26653,46.91228],[8.26704,46.91249],[8.26766,46.91269],[8.26823,46.91271],[8.26876,46.91262],[8.26927,46.91266],[8.26972,46.91283],[8.27013,46.91327],[8.27028,46.91371],[8.27061,46.91404],[8.27121,46.91497],[8.27203,46.91549],[8.2723,46.91578],[8.27266,46.91672],[8.273,46.91713],[8.27334,46.9174],[8.27344,46.91753],[8.27354,46.91765],[8.27377,46.91792],[8.274,46.91812],[8.27496,46.91925],[8.27572,46.92046],[8.27578,46.92082],[8.27563,46.92117],[8.27529,46.92145],[8.27474,46.92166],[8.27288,46.92222],[8.27285,46.92223],[8.27237,46.92238],[8.27218,46.92246],[8.27202,46.92256],[8.27176,46.92278],[8.27137,46.92298],[8.2698,46.92331],[8.26942,46.9234],[8.26933,46.92343],[8.26901,46.92352],[8.26838,46.92365],[8.26802,46.9237],[8.26746,46.9237],[8.26677,46.92388],[8.26517,46.92448],[8.26488,46.92461],[8.26458,46.92472],[8.26338,46.92508],[8.26317,46.92516],[8.26255,46.9257],[8.26216,46.92591],[8.26169,46.926],[8.26088,46.926],[8.26001,46.92627],[8.25969,46.92645],[8.25906,46.92663],[8.25841,46.92664],[8.25796,46.92673],[8.2575,46.92694],[8.25699,46.92706],[8.25593,46.92706],[8.25539,46.92698],[8.25485,46.92704],[8.25413,46.9273],[8.25334,46.92729],[8.25266,46.92705],[8.25212,46.92672],[8.25187,46.92648],[8.25176,46.92628],[8.25172,46.92616],[8.2517,46.92609],[8.25162,46.92589],[8.2511,46.92522],[8.25066,46.92485],[8.25035,46.92466],[8.2496,46.92434],[8.24902,46.92389],[8.24817,46.92298],[8.24763,46.92224],[8.24673,46.92179],[8.24617,46.92119],[8.24575,46.92093],[8.24501,46.92076],[8.24434,46.9208],[8.24311,46.92052],[8.24238,46.92018],[8.24193,46.92005],[8.24168,46.92003],[8.24144,46.92004],[8.2412,46.92009],[8.24098,46.92016],[8.24071,46.92027],[8.24015,46.92048],[8.23998,46.92054],[8.23973,46.9206],[8.23951,46.92067],[8.23881,46.92096],[8.23758,46.92107],[8.23696,46.92126],[8.23638,46.92133],[8.23588,46.92126],[8.23524,46.9212],[8.23473,46.92121],[8.23407,46.92148],[8.2338,46.92178],[8.23372,46.92213],[8.23384,46.9225],[8.23381,46.92287],[8.23357,46.92319],[8.23314,46.92343],[8.23242,46.92356],[8.23131,46.92354],[8.2311,46.92356],[8.23087,46.92359],[8.23045,46.92374],[8.2293,46.9245],[8.22907,46.9248],[8.2284,46.92621],[8.22838,46.92628],[8.22821,46.92675],[8.22817,46.92699],[8.2282,46.92761],[8.22822,46.92791],[8.2282,46.92815],[8.22798,46.92851],[8.22775,46.9287],[8.2274,46.92892],[8.22721,46.92902],[8.22565,46.92963],[8.22539,46.92975],[8.22528,46.92981],[8.22498,46.92994],[8.22473,46.93],[8.22397,46.93006],[8.22367,46.93011],[8.2235,46.93015],[8.22328,46.93018],[8.22302,46.93019],[8.22267,46.93019],[8.22243,46.9302],[8.22209,46.93027],[8.22185,46.9303],[8.22181,46.9303],[8.22171,46.93031],[8.22137,46.9303],[8.22087,46.93018],[8.22042,46.92997],[8.21992,46.92989],[8.21856,46.92992],[8.21809,46.93006],[8.21732,46.93047],[8.2171,46.93054],[8.21663,46.93059],[8.21615,46.93051],[8.21594,46.93043],[8.2157,46.9303],[8.2149,46.92976],[8.21473,46.92966],[8.21453,46.92958],[8.21431,46.92953],[8.21352,46.92945],[8.21234,46.92902],[8.21208,46.92899],[8.21181,46.929],[8.21154,46.92904],[8.21134,46.9291],[8.21088,46.92926],[8.21082,46.92928],[8.21048,46.92939],[8.20997,46.9295],[8.20944,46.92951],[8.20935,46.9295],[8.20882,46.92941],[8.2088,46.9294],[8.20849,46.92929],[8.20777,46.92898],[8.20745,46.92888],[8.20729,46.92884],[8.20697,46.9288],[8.20573,46.92876],[8.20465,46.92885],[8.20383,46.92873],[8.20331,46.92858],[8.20325,46.92857],[8.20285,46.92846],[8.20256,46.92841],[8.20226,46.92841],[8.20147,46.92847],[8.20113,46.92846],[8.20087,46.92843],[8.19999,46.92816],[8.19976,46.92805],[8.19936,46.92774],[8.19881,46.92744],[8.19756,46.92624],[8.19711,46.92611],[8.19623,46.92605],[8.19576,46.9259],[8.19509,46.92545],[8.19487,46.92536],[8.19463,46.9253],[8.19438,46.92527],[8.19279,46.92522],[8.19233,46.92526],[8.19182,46.9254],[8.19133,46.92544],[8.19009,46.92522],[8.18944,46.92516],[8.18915,46.92519],[8.18825,46.92537],[8.18792,46.92541],[8.18752,46.92541],[8.18708,46.92533],[8.1865,46.92512],[8.18623,46.92508],[8.18569,46.9251],[8.18519,46.92522],[8.18393,46.92512],[8.18306,46.92534],[8.18256,46.92539],[8.18231,46.92536],[8.18177,46.92523],[8.18159,46.9252],[8.18138,46.92517],[8.18087,46.92515],[8.1803,46.92517],[8.18022,46.92517],[8.18006,46.92518],[8.17959,46.92514],[8.17914,46.92503],[8.17881,46.92489],[8.17807,46.92449],[8.17795,46.92443],[8.17735,46.92418],[8.17716,46.92411],[8.17677,46.924],[8.17654,46.92395],[8.1756,46.92382],[8.17303,46.92374],[8.17249,46.92364],[8.172,46.92363],[8.17144,46.92371],[8.17096,46.92367],[8.17031,46.92339],[8.16983,46.92325],[8.16931,46.92326],[8.16884,46.9234],[8.16836,46.92382],[8.16795,46.92495],[8.16749,46.92537],[8.16687,46.92561],[8.1667,46.92569],[8.16655,46.92578],[8.16619,46.92604],[8.16609,46.92611],[8.16584,46.92633],[8.1658,46.92637],[8.1655,46.92666],[8.16535,46.92686],[8.16519,46.92715],[8.16517,46.92719],[8.16489,46.92778],[8.16482,46.92805],[8.16481,46.92866],[8.16479,46.92885],[8.16474,46.92906],[8.16473,46.92929],[8.16489,46.93051],[8.16477,46.93086],[8.16425,46.93126],[8.16394,46.93136],[8.16393,46.93136],[8.16371,46.9314],[8.16309,46.9315],[8.16225,46.93168],[8.16099,46.93191],[8.16082,46.93193],[8.15992,46.93204],[8.1597,46.93207],[8.1595,46.93214],[8.15914,46.93227],[8.1591,46.93229],[8.15855,46.93251],[8.15777,46.93287],[8.157,46.93329],[8.15654,46.9334],[8.15606,46.93339],[8.15448,46.93299],[8.15405,46.93283],[8.1532,46.93221],[8.15182,46.93104],[8.15154,46.93086],[8.14979,46.93],[8.14926,46.92984],[8.14814,46.92968],[8.14747,46.9293],[8.14656,46.92845],[8.14554,46.9278],[8.14516,46.92763],[8.14373,46.92725],[8.1414,46.92577],[8.14108,46.92548],[8.14084,46.92501],[8.14028,46.92442],[8.13974,46.92376],[8.13915,46.92335],[8.13721,46.92277],[8.13672,46.92269],[8.1359,46.92273],[8.13537,46.92263],[8.13469,46.92224],[8.13401,46.92152],[8.13367,46.92072],[8.13323,46.92018],[8.13292,46.91992],[8.13216,46.91945],[8.13061,46.91805],[8.1299,46.91732],[8.1294,46.9166],[8.129,46.91614],[8.1287,46.91562],[8.12845,46.91496],[8.12823,46.9147],[8.1277,46.91429],[8.12671,46.9137],[8.12618,46.91302],[8.12573,46.91254],[8.1252,46.91211],[8.12466,46.91134],[8.12416,46.91079],[8.12324,46.91014],[8.12232,46.90924],[8.12188,46.90859],[8.12175,46.90825],[8.12167,46.90764],[8.12146,46.90698],[8.12088,46.90621],[8.12034,46.90569],[8.11933,46.90485],[8.1189,46.90422],[8.11862,46.90395],[8.11817,46.90373],[8.11781,46.90344],[8.11756,46.90302],[8.1175,46.90243],[8.117,46.90128],[8.11635,46.90031],[8.11585,46.89894],[8.11534,46.89822],[8.11464,46.89693],[8.1137,46.89584],[8.11294,46.8944],[8.11275,46.89389],[8.1124,46.89357],[8.11163,46.89315],[8.11118,46.89304],[8.1107,46.89305],[8.11026,46.89318],[8.10942,46.8937],[8.10848,46.8944],[8.10784,46.89479],[8.10752,46.89524],[8.10727,46.89621],[8.10687,46.89722],[8.10644,46.89855],[8.10645,46.90023],[8.10628,46.90119],[8.10631,46.90151],[8.10695,46.90343],[8.10733,46.90422],[8.10733,46.90488],[8.10745,46.90516],[8.10807,46.90615],[8.10828,46.90692],[8.1083,46.90763],[8.10811,46.90796],[8.10775,46.90822],[8.10727,46.90836],[8.10624,46.9084],[8.10562,46.90856],[8.10505,46.90885],[8.10414,46.90906],[8.10367,46.90905],[8.10304,46.90892],[8.10228,46.90885],[8.1018,46.90888],[8.101,46.90903],[8.10047,46.90923],[8.09931,46.91006],[8.09819,46.91068],[8.0962,46.91141],[8.09544,46.91142],[8.09499,46.91127],[8.09426,46.91076],[8.09372,46.9103],[8.09168,46.9095],[8.09126,46.9094],[8.08928,46.90914],[8.08877,46.90889],[8.08842,46.90862],[8.08727,46.90736],[8.08698,46.90689],[8.08609,46.90622],[8.08591,46.90586],[8.08606,46.90457],[8.08585,46.90399],[8.08441,46.90249],[8.0842,46.9022],[8.08385,46.90146],[8.08356,46.90035],[8.08323,46.89993],[8.08256,46.89926],[8.08213,46.899],[8.08062,46.89842],[8.0794,46.89782],[8.07788,46.89741],[8.07702,46.8974],[8.07581,46.89717],[8.07356,46.89712],[8.07304,46.89705],[8.0717,46.89639],[8.07056,46.896],[8.07009,46.89573],[8.06981,46.89516],[8.06969,46.89091],[8.06962,46.89063],[8.06895,46.88931],[8.06865,46.88898],[8.06753,46.8882],[8.06714,46.88771],[8.06715,46.88732],[8.06752,46.88601],[8.0677,46.88566],[8.06835,46.88477],[8.06847,46.88452]]]},"properties":{"bfs_nr":1407,"name":"Sarnen"}}]}