{"type":"FeatureCollection","features":[{"type":"Feature","geometry":{"type":"Polygon","coordinates":[[[8.49611,47.20257],[8.49605,47.20239],[8.49604,47.20222],[8.49608,47.20129],[8.49608,47.20125],[8.49611,47.20095],[8.49616,47.20072],[8.49626,47.20055],[8.49661,47.20026],[8.49684,47.20016],[8.49733,47.20003],[8.49756,47.19996],[8.49821,47.19983],[8.49833,47.1998],[8.49891,47.19957],[8.49925,47.19949],[8.49949,47.19942],[8.4997,47.19931],[8.49988,47.19918],[8.50058,47.19855],[8.50098,47.1983],[8.50167,47.19817],[8.50223,47.19822],[8.50274,47.19818],[8.50338,47.19788],[8.50365,47.19739],[8.50358,47.19682],[8.50338,47.19653],[8.50296,47.19617],[8.50285,47.196],[8.50281,47.19581],[8.50281,47.19538],[8.50266,47.19508],[8.50208,47.19449],[8.50176,47.19429],[8.50063,47.1938],[8.5002,47.19363],[8.49975,47.19317],[8.49971,47.1928],[8.49979,47.19258],[8.49983,47.1925],[8.49986,47.19244],[8.49989,47.19237],[8.49993,47.19225],[8.50002,47.19181],[8.50005,47.19162],[8.49977,47.19096],[8.49982,47.19028],[8.50002,47.18967],[8.50005,47.18836],[8.49991,47.18804],[8.49961,47.18777],[8.49941,47.18768],[8.49906,47.18757],[8.49879,47.18747],[8.49853,47.1873],[8.49837,47.18714],[8.49809,47.18665],[8.49805,47.18631],[8.49821,47.18599],[8.49857,47.18569],[8.4992,47.18534],[8.4995,47.18512],[8.49982,47.18471],[8.49998,47.18458],[8.5004,47.18439],[8.50063,47.18434],[8.50113,47.18434],[8.50193,47.18454],[8.50241,47.18491],[8.5025,47.18506],[8.50276,47.18616],[8.50283,47.18634],[8.50296,47.18651],[8.50313,47.18666],[8.50335,47.18678],[8.50435,47.1871],[8.50486,47.18734],[8.5053,47.18747],[8.50634,47.18759],[8.50707,47.18747],[8.50746,47.18724],[8.50768,47.18693],[8.50781,47.18644],[8.50806,47.18616],[8.50841,47.18594],[8.50913,47.18558],[8.50959,47.18549],[8.5102,47.18551],[8.51075,47.18541],[8.51147,47.18507],[8.51189,47.18492],[8.51233,47.18465],[8.5126,47.18452],[8.51299,47.18429],[8.5132,47.18417],[8.51346,47.18402],[8.5136,47.18395],[8.51364,47.18394],[8.51372,47.1839],[8.51393,47.18379],[8.51497,47.18315],[8.51559,47.18268],[8.51603,47.1825],[8.51651,47.18243],[8.517,47.18249],[8.5176,47.18278],[8.51779,47.18287],[8.51803,47.18294],[8.5183,47.183],[8.51856,47.18302],[8.51958,47.18293],[8.52009,47.18299],[8.52053,47.18319],[8.52082,47.18348],[8.52116,47.18447],[8.52148,47.18478],[8.5222,47.18511],[8.52321,47.18592],[8.52342,47.18604],[8.5239,47.18617],[8.52416,47.18619],[8.52443,47.18617],[8.52468,47.18611],[8.52525,47.18583],[8.52741,47.18383],[8.52757,47.18352],[8.52759,47.18335],[8.52756,47.18319],[8.52752,47.18306],[8.52749,47.18299],[8.52743,47.18285],[8.5274,47.18279],[8.52733,47.18266],[8.52731,47.18263],[8.52707,47.18226],[8.52645,47.18162],[8.52609,47.18141],[8.52532,47.18122],[8.52487,47.18101],[8.52459,47.18069],[8.52436,47.18023],[8.52426,47.17986],[8.52379,47.17936],[8.52367,47.17883],[8.52385,47.17849],[8.52426,47.1782],[8.5251,47.17781],[8.52564,47.17766],[8.5267,47.17721],[8.52695,47.17713],[8.52716,47.17708],[8.52742,47.17706],[8.52771,47.17701],[8.52798,47.17692],[8.52874,47.17657],[8.52895,47.17645],[8.52912,47.17631],[8.52931,47.17597],[8.52942,47.17513],[8.52964,47.17483],[8.53,47.17461],[8.53047,47.17449],[8.53096,47.1745],[8.53162,47.17468],[8.5321,47.17472],[8.53298,47.17469],[8.53392,47.17472],[8.53403,47.17472],[8.53481,47.17469],[8.53507,47.17466],[8.53531,47.1746],[8.53573,47.17439],[8.53599,47.17408],[8.53613,47.17373],[8.53644,47.1734],[8.53694,47.17311],[8.53708,47.17298],[8.53733,47.17258],[8.53765,47.17229],[8.53816,47.17196],[8.53869,47.17171],[8.53898,47.17144],[8.53906,47.17128],[8.5391,47.17111],[8.5391,47.17101],[8.5391,47.17085],[8.53894,47.17046],[8.53892,47.17014],[8.53908,47.16967],[8.53899,47.16932],[8.53888,47.16917],[8.53854,47.16891],[8.53832,47.16883],[8.53808,47.16877],[8.53757,47.16868],[8.53729,47.16861],[8.53703,47.16851],[8.537,47.16849],[8.53673,47.16834],[8.5365,47.16818],[8.53617,47.16787],[8.5359,47.16739],[8.53595,47.16703],[8.53625,47.16643],[8.53603,47.16512],[8.53614,47.1648],[8.53629,47.16461],[8.53718,47.16374],[8.53753,47.16347],[8.53796,47.1633],[8.53884,47.16321],[8.53932,47.16305],[8.53951,47.16292],[8.53967,47.16277],[8.53997,47.1624],[8.54013,47.16207],[8.54011,47.16167],[8.54023,47.16131],[8.54109,47.15986],[8.54139,47.15954],[8.5418,47.15935],[8.54236,47.1592],[8.54276,47.15895],[8.54299,47.15862],[8.54302,47.15824],[8.54333,47.15775],[8.54374,47.15754],[8.54399,47.15747],[8.54431,47.15744],[8.54607,47.15737],[8.54718,47.15717],[8.54761,47.15705],[8.54806,47.15683],[8.54857,47.15674],[8.5489,47.15675],[8.54921,47.15673],[8.55052,47.15658],[8.55111,47.15643],[8.55163,47.15644],[8.55195,47.15651],[8.55238,47.15663],[8.55345,47.1569],[8.5539,47.15705],[8.55438,47.15712],[8.55487,47.15707],[8.55529,47.1569],[8.55559,47.15663],[8.55568,47.15647],[8.55653,47.15449],[8.55672,47.15403],[8.55673,47.15401],[8.55731,47.15268],[8.55731,47.15267],[8.55764,47.15188],[8.55765,47.15185],[8.55766,47.15182],[8.5578,47.15158],[8.55796,47.15142],[8.55843,47.15117],[8.55895,47.15108],[8.5594,47.15109],[8.56031,47.15097],[8.5611,47.15109],[8.56179,47.15155],[8.562,47.1519],[8.56198,47.15242],[8.56208,47.15273],[8.5624,47.15309],[8.56255,47.15342],[8.5625,47.15375],[8.56227,47.15406],[8.56189,47.15428],[8.56117,47.15453],[8.56098,47.15464],[8.56082,47.15477],[8.56071,47.15493],[8.56063,47.15509],[8.56061,47.15527],[8.56064,47.15544],[8.56067,47.15552],[8.56074,47.15577],[8.56075,47.15603],[8.56073,47.1564],[8.56073,47.15645],[8.5607,47.15666],[8.56068,47.15678],[8.56047,47.15723],[8.56041,47.15742],[8.5604,47.15745],[8.56039,47.15754],[8.56038,47.15796],[8.56038,47.158],[8.56036,47.15839],[8.56036,47.15843],[8.56035,47.15853],[8.56035,47.15857],[8.56034,47.15866],[8.56035,47.15875],[8.56037,47.15887],[8.56043,47.15901],[8.56055,47.15919],[8.56116,47.15971],[8.56134,47.16005],[8.56135,47.16029],[8.56134,47.16037],[8.56133,47.16043],[8.5613,47.1606],[8.56121,47.16088],[8.56116,47.16098],[8.56106,47.16114],[8.56088,47.16138],[8.56077,47.16163],[8.56073,47.16179],[8.56047,47.16212],[8.56004,47.16241],[8.55983,47.16258],[8.55969,47.16277],[8.55963,47.16288],[8.55958,47.16303],[8.55959,47.16335],[8.55965,47.16351],[8.55977,47.16373],[8.55987,47.16401],[8.55995,47.16422],[8.56012,47.16461],[8.56014,47.16477],[8.56006,47.16508],[8.55977,47.1654],[8.55945,47.16563],[8.55932,47.16578],[8.55924,47.16596],[8.55921,47.16613],[8.55925,47.16646],[8.55921,47.1672],[8.55943,47.16783],[8.55955,47.16801],[8.55991,47.16832],[8.56007,47.16849],[8.56019,47.16872],[8.56022,47.16882],[8.56023,47.16906],[8.56029,47.16936],[8.56036,47.16959],[8.56036,47.1696],[8.56049,47.16978],[8.56063,47.16997],[8.56073,47.17027],[8.56064,47.17066],[8.56063,47.17108],[8.56043,47.17162],[8.56034,47.17209],[8.56007,47.17246],[8.56,47.17264],[8.56003,47.17301],[8.56046,47.1735],[8.56065,47.17382],[8.56065,47.17416],[8.56057,47.17435],[8.56045,47.17452],[8.56045,47.17453],[8.5604,47.17458],[8.56027,47.17472],[8.56016,47.17486],[8.5599,47.17539],[8.55983,47.17563],[8.55959,47.17594],[8.55906,47.17625],[8.55879,47.17653],[8.5586,47.17706],[8.55861,47.17723],[8.55865,47.17747],[8.55866,47.17759],[8.55864,47.1778],[8.55847,47.17812],[8.55813,47.17838],[8.55792,47.17847],[8.5573,47.17862],[8.55667,47.17868],[8.55643,47.17872],[8.55583,47.17904],[8.55562,47.17935],[8.55552,47.17984],[8.55531,47.18012],[8.55523,47.18023],[8.55516,47.18033],[8.55509,47.18044],[8.55505,47.1805],[8.5549,47.18068],[8.55479,47.18085],[8.55457,47.18131],[8.55451,47.18148],[8.55453,47.18183],[8.55461,47.18199],[8.555,47.18238],[8.55525,47.1829],[8.55571,47.18335],[8.55595,47.18375],[8.55631,47.18411],[8.5565,47.18464],[8.5568,47.18513],[8.55686,47.18579],[8.55722,47.18636],[8.55725,47.18669],[8.5572,47.18686],[8.55707,47.18709],[8.557,47.18727],[8.55702,47.18763],[8.55712,47.18781],[8.55725,47.18799],[8.5574,47.18818],[8.55748,47.18826],[8.55762,47.18841],[8.55771,47.18853],[8.55779,47.18865],[8.55787,47.18878],[8.55793,47.18891],[8.55814,47.18945],[8.55815,47.18951],[8.55821,47.19001],[8.55823,47.19019],[8.55824,47.19026],[8.55825,47.19043],[8.55825,47.19048],[8.5583,47.1908],[8.5583,47.19082],[8.55843,47.19186],[8.55845,47.19193],[8.55846,47.19199],[8.55853,47.19217],[8.5589,47.19261],[8.55901,47.19295],[8.55899,47.19315],[8.55893,47.19333],[8.5587,47.1936],[8.55817,47.19396],[8.55806,47.19405],[8.55794,47.19416],[8.55791,47.19419],[8.55786,47.19424],[8.55779,47.19431],[8.55775,47.19435],[8.55765,47.19452],[8.55759,47.19487],[8.55783,47.19555],[8.55805,47.19587],[8.55815,47.19607],[8.55818,47.19624],[8.5581,47.19664],[8.55819,47.19701],[8.55848,47.19732],[8.55936,47.19792],[8.56006,47.19867],[8.56042,47.19923],[8.56053,47.19964],[8.56081,47.20018],[8.56083,47.20163],[8.56089,47.20206],[8.56133,47.20327],[8.56142,47.20344],[8.56157,47.20361],[8.56199,47.20385],[8.56253,47.20395],[8.56334,47.20396],[8.56397,47.20416],[8.56452,47.2045],[8.56475,47.2048],[8.56481,47.20514],[8.56466,47.20555],[8.56457,47.20644],[8.56469,47.20676],[8.56495,47.20702],[8.56533,47.20721],[8.56617,47.20738],[8.56793,47.20813],[8.56843,47.20823],[8.56891,47.2082],[8.56943,47.20805],[8.56971,47.20801],[8.57006,47.20801],[8.57025,47.20802],[8.57052,47.20806],[8.57081,47.20813],[8.57123,47.20835],[8.57142,47.20854],[8.57182,47.20912],[8.57206,47.20932],[8.57241,47.20954],[8.57261,47.20969],[8.57281,47.2099],[8.573,47.21007],[8.57324,47.2102],[8.57369,47.21038],[8.57407,47.21059],[8.57487,47.21112],[8.57514,47.21135],[8.57541,47.21162],[8.57601,47.21199],[8.57626,47.21234],[8.57636,47.2127],[8.5768,47.2132],[8.57702,47.21353],[8.57705,47.21367],[8.57714,47.21401],[8.5772,47.21415],[8.57739,47.2145],[8.57746,47.2147],[8.57745,47.21503],[8.57727,47.21534],[8.57708,47.2155],[8.57688,47.21564],[8.57571,47.21651],[8.5753,47.21677],[8.57475,47.21696],[8.57442,47.2172],[8.57398,47.21776],[8.57337,47.21813],[8.57285,47.21836],[8.57252,47.21841],[8.57113,47.2185],[8.57013,47.21839],[8.56836,47.21852],[8.56751,47.2185],[8.56686,47.21862],[8.56627,47.21894],[8.56497,47.21932],[8.56444,47.21951],[8.56399,47.21959],[8.56263,47.21956],[8.5607,47.21954],[8.56026,47.21959],[8.55983,47.21975],[8.5591,47.22013],[8.55878,47.22037],[8.55832,47.22108],[8.55788,47.22147],[8.55746,47.22171],[8.55549,47.22255],[8.55492,47.22276],[8.55418,47.22279],[8.55372,47.22265],[8.55338,47.22241],[8.55309,47.22205],[8.5527,47.2218],[8.55219,47.22167],[8.55114,47.22171],[8.55004,47.22187],[8.54885,47.22199],[8.54771,47.22198],[8.5469,47.22191],[8.54616,47.22164],[8.54567,47.22157],[8.54519,47.22163],[8.54457,47.22187],[8.54313,47.2221],[8.54066,47.22272],[8.54018,47.22286],[8.53969,47.22289],[8.53923,47.22279],[8.53818,47.22228],[8.53714,47.22188],[8.53645,47.22121],[8.536,47.22102],[8.53548,47.22097],[8.53496,47.22106],[8.53415,47.22131],[8.53365,47.22134],[8.53317,47.22123],[8.53278,47.22101],[8.53242,47.22055],[8.53214,47.22028],[8.53192,47.21995],[8.53173,47.21873],[8.53153,47.21841],[8.53096,47.21809],[8.53047,47.21801],[8.52998,47.21807],[8.52894,47.21845],[8.52804,47.2186],[8.52731,47.21859],[8.52669,47.21865],[8.52584,47.21863],[8.52497,47.21878],[8.52422,47.21873],[8.52324,47.21875],[8.52261,47.21882],[8.52211,47.21895],[8.52149,47.21924],[8.52097,47.21934],[8.5205,47.21934],[8.51796,47.21957],[8.51681,47.2196],[8.51378,47.21945],[8.51303,47.21927],[8.5127,47.21903],[8.51249,47.21856],[8.51277,47.21718],[8.51277,47.21647],[8.51257,47.21606],[8.51228,47.2158],[8.51186,47.21562],[8.51138,47.21556],[8.51058,47.21558],[8.5101,47.21544],[8.50955,47.21511],[8.50862,47.21491],[8.50785,47.21457],[8.50738,47.21441],[8.50691,47.21438],[8.5064,47.21425],[8.50573,47.21376],[8.50506,47.21343],[8.5045,47.21307],[8.50408,47.21271],[8.5032,47.21223],[8.50195,47.21191],[8.50125,47.21181],[8.50064,47.21151],[8.50036,47.21104],[8.50042,47.2107],[8.50083,47.21027],[8.50131,47.21003],[8.50147,47.2099],[8.50219,47.20918],[8.50234,47.20885],[8.50231,47.20851],[8.50222,47.20835],[8.50209,47.2082],[8.50192,47.20804],[8.50182,47.20796],[8.50083,47.20726],[8.50073,47.20718],[8.5001,47.20666],[8.49994,47.20651],[8.49933,47.20583],[8.49884,47.20524],[8.49847,47.20471],[8.49831,47.20439],[8.49819,47.20404],[8.4979,47.20375],[8.49747,47.20355],[8.49709,47.20348],[8.49662,47.2033],[8.4963,47.20301],[8.49618,47.20279],[8.49612,47.20261],[8.49611,47.20257]]]},"properties":{"bfs_nr":1701,"name":"Baar"}},{"type":"Feature","geometry":{"type":"Polygon","coordinates":[[[8.41513,47.22811],[8.41489,47.22513],[8.41491,47.22492],[8.41496,47.22475],[8.41521,47.22441],[8.41538,47.22376],[8.41535,47.22361],[8.41533,47.22356],[8.41526,47.22324],[8.41522,47.2222],[8.41524,47.22197],[8.41534,47.22174],[8.41563,47.22128],[8.41597,47.22085],[8.41607,47.2207],[8.41613,47.22054],[8.4162,47.22016],[8.41634,47.21975],[8.41638,47.21952],[8.41639,47.21945],[8.41641,47.21907],[8.4164,47.21889],[8.41633,47.21861],[8.41622,47.21818],[8.41617,47.21807],[8.41613,47.218],[8.41589,47.21762],[8.41583,47.21746],[8.41583,47.21687],[8.41576,47.21629],[8.4158,47.21596],[8.41596,47.21568],[8.4162,47.21544],[8.41625,47.2154],[8.41643,47.21523],[8.41669,47.21459],[8.41697,47.21401],[8.41717,47.21354],[8.41742,47.2132],[8.41795,47.2128],[8.41821,47.21257],[8.41834,47.21245],[8.4186,47.21213],[8.41873,47.21199],[8.41881,47.21188],[8.41884,47.21184],[8.41892,47.21169],[8.41896,47.21153],[8.41891,47.21121],[8.41887,47.21113],[8.41877,47.2109],[8.41866,47.21052],[8.41862,47.21028],[8.41872,47.20991],[8.41901,47.20962],[8.41971,47.2093],[8.42004,47.20904],[8.42019,47.20871],[8.42026,47.20829],[8.42048,47.20776],[8.42075,47.20751],[8.42099,47.20738],[8.42172,47.20705],[8.4219,47.20691],[8.42203,47.20674],[8.42211,47.20657],[8.42217,47.20614],[8.42241,47.20576],[8.42252,47.20564],[8.42263,47.20554],[8.42269,47.20547],[8.42518,47.20263],[8.42528,47.20248],[8.42534,47.20232],[8.42536,47.20216],[8.42534,47.202],[8.42528,47.20184],[8.42495,47.20127],[8.42491,47.20119],[8.42436,47.20067],[8.42391,47.19995],[8.4236,47.19919],[8.42332,47.19888],[8.42314,47.19839],[8.42318,47.19819],[8.4232,47.19811],[8.42325,47.19798],[8.42335,47.19777],[8.42342,47.19764],[8.42349,47.19748],[8.4234,47.19686],[8.42345,47.19652],[8.42356,47.19635],[8.42386,47.1961],[8.42442,47.19587],[8.42477,47.19561],[8.42494,47.19527],[8.42495,47.1951],[8.42493,47.19476],[8.42493,47.19451],[8.42497,47.19434],[8.42515,47.1938],[8.42532,47.19332],[8.42548,47.19264],[8.4255,47.19249],[8.42541,47.19195],[8.42553,47.19091],[8.42575,47.19058],[8.42637,47.19025],[8.42726,47.19014],[8.4275,47.19008],[8.42806,47.18974],[8.42825,47.18942],[8.42831,47.18897],[8.42855,47.18865],[8.42895,47.18843],[8.42944,47.18829],[8.42984,47.18807],[8.43031,47.18757],[8.43048,47.18726],[8.43053,47.18678],[8.43076,47.18647],[8.43103,47.18626],[8.4312,47.18611],[8.43129,47.18602],[8.43183,47.1854],[8.43229,47.18469],[8.43254,47.1844],[8.43302,47.18411],[8.43352,47.18392],[8.43376,47.18381],[8.43397,47.18366],[8.43474,47.18301],[8.43524,47.18273],[8.43595,47.18259],[8.43622,47.18251],[8.43628,47.18249],[8.4364,47.18244],[8.43702,47.18216],[8.43734,47.18205],[8.43748,47.18201],[8.43755,47.182],[8.43911,47.18162],[8.43924,47.18159],[8.43929,47.18157],[8.4395,47.18148],[8.44,47.18124],[8.44055,47.18087],[8.44098,47.18074],[8.44174,47.18068],[8.44456,47.18053],[8.44458,47.18053],[8.44497,47.1805],[8.44503,47.18049],[8.44533,47.18046],[8.4454,47.18046],[8.44575,47.18041],[8.44581,47.1804],[8.44607,47.18035],[8.4461,47.18035],[8.44618,47.18033],[8.44643,47.18027],[8.44666,47.18016],[8.44685,47.18003],[8.447,47.17988],[8.44709,47.17971],[8.44714,47.17953],[8.44713,47.17934],[8.4471,47.17921],[8.4471,47.17895],[8.4471,47.17892],[8.4471,47.17858],[8.4471,47.17847],[8.44703,47.17807],[8.44703,47.17785],[8.44708,47.17767],[8.44721,47.17747],[8.448,47.1765],[8.44857,47.17613],[8.44902,47.17602],[8.44972,47.17606],[8.45031,47.176],[8.45087,47.17583],[8.45124,47.1756],[8.45203,47.17485],[8.45393,47.17377],[8.45438,47.17358],[8.4616,47.17129],[8.47207,47.16799],[8.47287,47.1679],[8.47355,47.16811],[8.47386,47.16838],[8.474,47.16875],[8.47552,47.1808],[8.47551,47.1811],[8.47535,47.18191],[8.47539,47.18229],[8.47567,47.18274],[8.47578,47.18354],[8.47584,47.18374],[8.47596,47.18392],[8.47662,47.18468],[8.47729,47.18555],[8.47755,47.18598],[8.47778,47.18674],[8.47798,47.18715],[8.47824,47.1882],[8.47826,47.18842],[8.47821,47.18863],[8.47821,47.18896],[8.47821,47.18911],[8.47821,47.18919],[8.4782,47.18932],[8.47813,47.18955],[8.47802,47.18973],[8.47765,47.19001],[8.47734,47.19013],[8.47694,47.19025],[8.47679,47.19029],[8.4766,47.19034],[8.47642,47.19037],[8.47622,47.19042],[8.47603,47.19049],[8.47594,47.19053],[8.47581,47.1906],[8.47571,47.19066],[8.47554,47.19077],[8.47549,47.19082],[8.47539,47.19092],[8.47532,47.19099],[8.47521,47.19114],[8.4752,47.19117],[8.47516,47.19125],[8.47512,47.19136],[8.47509,47.19144],[8.47506,47.19156],[8.47504,47.19163],[8.47497,47.19209],[8.47494,47.19223],[8.47482,47.19247],[8.47442,47.1928],[8.47398,47.19301],[8.47383,47.19314],[8.47371,47.19328],[8.47362,47.19343],[8.47358,47.1936],[8.47359,47.19376],[8.47364,47.19392],[8.47396,47.19466],[8.47407,47.19482],[8.47414,47.19491],[8.47419,47.19497],[8.47436,47.19515],[8.47451,47.19535],[8.47458,47.19552],[8.47457,47.19587],[8.47413,47.19655],[8.47356,47.19692],[8.47305,47.197],[8.47236,47.19699],[8.47182,47.1969],[8.47107,47.19695],[8.47065,47.19713],[8.47048,47.19725],[8.47035,47.19735],[8.4703,47.19739],[8.47,47.19766],[8.46987,47.19779],[8.46944,47.19831],[8.46934,47.19848],[8.46928,47.19866],[8.46928,47.19884],[8.46934,47.19902],[8.46945,47.19919],[8.46981,47.19953],[8.46997,47.19985],[8.46995,47.20018],[8.46982,47.20049],[8.46984,47.20082],[8.47004,47.20112],[8.47019,47.20124],[8.47037,47.20135],[8.47128,47.20181],[8.47185,47.20237],[8.47234,47.20255],[8.4732,47.20272],[8.47351,47.2028],[8.47373,47.20289],[8.47407,47.20316],[8.47423,47.20349],[8.47425,47.20399],[8.47442,47.20429],[8.47457,47.20442],[8.47475,47.20453],[8.47522,47.20477],[8.4756,47.20506],[8.47577,47.20538],[8.47575,47.20572],[8.47561,47.206],[8.47555,47.20637],[8.47572,47.20673],[8.47609,47.207],[8.4772,47.20743],[8.47795,47.20778],[8.47826,47.20807],[8.47837,47.20842],[8.47826,47.20877],[8.47776,47.20918],[8.47695,47.20942],[8.47643,47.2095],[8.4759,47.20944],[8.47546,47.20923],[8.47495,47.20891],[8.4745,47.20879],[8.47398,47.20875],[8.47348,47.20886],[8.47293,47.20923],[8.47279,47.20976],[8.47292,47.21017],[8.47315,47.21055],[8.47313,47.21103],[8.47262,47.21157],[8.4721,47.21187],[8.47125,47.212],[8.47079,47.21212],[8.47042,47.21235],[8.47001,47.21281],[8.46961,47.21301],[8.46912,47.2131],[8.46864,47.2131],[8.46795,47.21334],[8.46736,47.21385],[8.46689,47.21405],[8.46634,47.2141],[8.46566,47.214],[8.46471,47.21392],[8.46301,47.21388],[8.4624,47.21376],[8.46189,47.21377],[8.46124,47.21402],[8.46092,47.21436],[8.46054,47.21516],[8.46027,47.21547],[8.45975,47.21594],[8.45929,47.21644],[8.45885,47.21684],[8.45776,47.21733],[8.45735,47.21763],[8.45679,47.21817],[8.45634,47.21835],[8.45601,47.21839],[8.4554,47.21837],[8.45452,47.21812],[8.45326,47.21785],[8.45278,47.21786],[8.45235,47.21799],[8.45189,47.21827],[8.45142,47.2191],[8.45106,47.21932],[8.45045,47.2195],[8.44978,47.21991],[8.44931,47.22006],[8.44877,47.22011],[8.44828,47.22026],[8.44782,47.2207],[8.44766,47.22109],[8.44749,47.22128],[8.44689,47.22166],[8.44658,47.22191],[8.44639,47.22241],[8.44617,47.22272],[8.44555,47.22304],[8.44479,47.22306],[8.444,47.22294],[8.4435,47.22302],[8.44309,47.22323],[8.44266,47.22356],[8.442,47.22425],[8.44141,47.22454],[8.44068,47.22457],[8.44023,47.22444],[8.43905,47.22392],[8.43738,47.22371],[8.43607,47.22377],[8.43524,47.22373],[8.43252,47.2241],[8.43214,47.22419],[8.4305,47.22481],[8.42995,47.22493],[8.42944,47.2249],[8.42914,47.22482],[8.42748,47.22423],[8.42679,47.22402],[8.42555,47.22375],[8.42496,47.22373],[8.42398,47.22357],[8.42293,47.22344],[8.42214,47.22355],[8.42175,47.22378],[8.42151,47.22408],[8.42136,47.22473],[8.42108,47.2253],[8.42054,47.22565],[8.4199,47.22581],[8.4195,47.22602],[8.41898,47.22617],[8.41845,47.22651],[8.41828,47.22683],[8.41796,47.22826],[8.4177,47.22858],[8.41693,47.22894],[8.4162,47.22898],[8.41555,47.22875],[8.41526,47.22848],[8.41518,47.22832],[8.41513,47.22811]]]},"properties":{"bfs_nr":1702,"name":"Cham"}},{"type":"Feature","geometry":{"type":"Polygon","coordinates":[[[8.40102,47.21379],[8.40084,47.21239],[8.40046,47.20973],[8.40042,47.20922],[8.40051,47.20828],[8.40075,47.20746],[8.40151,47.20569],[8.40166,47.20522],[8.40183,47.20428],[8.40208,47.20196],[8.40235,47.20103],[8.40255,47.20064],[8.40477,47.19709],[8.40519,47.19621],[8.40531,47.19568],[8.40531,47.19487],[8.40519,47.19431],[8.40497,47.19379],[8.40465,47.19325],[8.4044,47.19293],[8.40262,47.19109],[8.40196,47.19031],[8.40165,47.18985],[8.40122,47.18904],[8.40088,47.18808],[8.40054,47.18678],[8.40034,47.1859],[8.40023,47.18496],[8.40022,47.18449],[8.40027,47.18361],[8.40045,47.1827],[8.40126,47.18002],[8.40213,47.17731],[8.40246,47.17677],[8.40287,47.17653],[8.40347,47.17638],[8.40773,47.17576],[8.40822,47.17567],[8.409,47.17545],[8.40961,47.17521],[8.41011,47.17497],[8.41075,47.17455],[8.41116,47.17419],[8.41163,47.17366],[8.41207,47.17286],[8.41358,47.16911],[8.41497,47.16552],[8.41524,47.16458],[8.41536,47.16372],[8.41539,47.16324],[8.41526,47.15922],[8.41518,47.15861],[8.41502,47.15816],[8.41465,47.15748],[8.41468,47.15698],[8.41492,47.15669],[8.41547,47.15635],[8.4156,47.15622],[8.41577,47.15592],[8.41594,47.15527],[8.41602,47.15506],[8.41628,47.15478],[8.41691,47.15452],[8.41772,47.15444],[8.41839,47.15446],[8.41891,47.15458],[8.41984,47.1549],[8.42007,47.15493],[8.42046,47.15497],[8.42114,47.15503],[8.42168,47.15515],[8.42207,47.15537],[8.4223,47.15564],[8.42262,47.15589],[8.42305,47.15603],[8.42396,47.1562],[8.42418,47.1562],[8.4244,47.15618],[8.42695,47.15579],[8.42754,47.15574],[8.42852,47.15573],[8.42883,47.15575],[8.4293,47.15588],[8.42967,47.15612],[8.42987,47.15644],[8.42993,47.15701],[8.42997,47.15719],[8.43006,47.15736],[8.43021,47.15752],[8.4304,47.15765],[8.43087,47.15783],[8.43114,47.15786],[8.43141,47.15786],[8.43345,47.15768],[8.4352,47.15752],[8.43569,47.15753],[8.43815,47.15781],[8.43816,47.15781],[8.44017,47.15804],[8.44018,47.15804],[8.44317,47.1584],[8.44369,47.15853],[8.44406,47.15869],[8.44453,47.15878],[8.44519,47.15878],[8.44552,47.15883],[8.4458,47.15885],[8.4458,47.15886],[8.44618,47.15888],[8.44643,47.15892],[8.44666,47.159],[8.44686,47.1591],[8.44716,47.15938],[8.44728,47.15975],[8.44726,47.15994],[8.44691,47.16064],[8.44691,47.16098],[8.44709,47.1613],[8.44744,47.16154],[8.44851,47.16192],[8.44887,47.1622],[8.44904,47.16255],[8.44894,47.16345],[8.44898,47.16379],[8.44922,47.1641],[8.44983,47.16439],[8.45033,47.16444],[8.4509,47.16435],[8.45139,47.16436],[8.45184,47.16449],[8.45221,47.16468],[8.45297,47.16496],[8.45327,47.16521],[8.45348,47.1655],[8.4538,47.16573],[8.45446,47.16606],[8.45491,47.16658],[8.45556,47.16702],[8.45578,47.1672],[8.45591,47.16733],[8.45606,47.16746],[8.46024,47.17035],[8.46063,47.17083],[8.46063,47.17117],[8.46045,47.17149],[8.46011,47.17174],[8.45984,47.17185],[8.45429,47.1736],[8.45399,47.17373],[8.45203,47.17485],[8.45118,47.1756],[8.45076,47.1758],[8.45027,47.17588],[8.44943,47.17577],[8.44871,47.17588],[8.44833,47.17609],[8.44806,47.17634],[8.44777,47.17676],[8.44718,47.17751],[8.44708,47.17767],[8.44702,47.17785],[8.44703,47.17803],[8.44709,47.17845],[8.4471,47.1786],[8.4471,47.17892],[8.4471,47.17894],[8.44711,47.17938],[8.44711,47.17953],[8.44697,47.17988],[8.44663,47.18016],[8.44641,47.18026],[8.4461,47.18035],[8.44606,47.18035],[8.44583,47.1804],[8.44574,47.18041],[8.44542,47.18045],[8.44531,47.18047],[8.44504,47.18049],[8.44496,47.1805],[8.44459,47.18053],[8.44455,47.18053],[8.44179,47.18068],[8.44156,47.18069],[8.44149,47.18069],[8.44109,47.18071],[8.44082,47.18075],[8.44034,47.18093],[8.43996,47.18123],[8.43972,47.18138],[8.43955,47.18146],[8.43925,47.18158],[8.43754,47.182],[8.43749,47.18201],[8.43729,47.18207],[8.43707,47.18214],[8.43682,47.18225],[8.43679,47.18226],[8.43643,47.18243],[8.43628,47.18249],[8.43588,47.1826],[8.43524,47.18273],[8.43478,47.18297],[8.43401,47.18363],[8.4338,47.18378],[8.43361,47.18387],[8.43316,47.18404],[8.43278,47.18423],[8.43251,47.18441],[8.43232,47.18463],[8.43182,47.18541],[8.43131,47.18599],[8.43118,47.18613],[8.43107,47.18622],[8.43064,47.18654],[8.43041,47.1869],[8.43033,47.18741],[8.42978,47.18809],[8.42939,47.1883],[8.42884,47.18845],[8.42846,47.18865],[8.42821,47.18894],[8.42809,47.18951],[8.42769,47.18995],[8.42726,47.19012],[8.42637,47.19025],[8.42574,47.19057],[8.42553,47.19091],[8.42541,47.19195],[8.42549,47.19251],[8.42533,47.1933],[8.42515,47.19378],[8.42496,47.19437],[8.42494,47.19449],[8.42492,47.19467],[8.42492,47.19508],[8.42461,47.19554],[8.42397,47.19589],[8.42379,47.19604],[8.42347,47.19646],[8.42339,47.19662],[8.42336,47.19696],[8.42346,47.1975],[8.42325,47.19796],[8.42324,47.198],[8.42321,47.19809],[8.42314,47.19833],[8.42306,47.19878],[8.42329,47.19927],[8.42369,47.1996],[8.42438,47.20071],[8.42494,47.20124],[8.42526,47.20181],[8.42534,47.202],[8.42534,47.20232],[8.42528,47.20248],[8.42515,47.20266],[8.4227,47.20546],[8.42261,47.20555],[8.4225,47.20566],[8.42243,47.20574],[8.42236,47.20582],[8.4223,47.20589],[8.42223,47.20601],[8.42214,47.20619],[8.42208,47.20658],[8.42187,47.20691],[8.42169,47.20705],[8.42094,47.2074],[8.42075,47.2075],[8.42059,47.20763],[8.42046,47.20778],[8.4203,47.20812],[8.42011,47.20885],[8.4198,47.20916],[8.41914,47.20945],[8.4188,47.20971],[8.41863,47.21005],[8.41862,47.2103],[8.41864,47.21048],[8.41883,47.2111],[8.41892,47.21141],[8.41893,47.21157],[8.41889,47.21173],[8.4188,47.21189],[8.41861,47.21212],[8.41836,47.21241],[8.41818,47.2126],[8.41797,47.21278],[8.4178,47.21291],[8.41765,47.213],[8.41748,47.21314],[8.41737,47.21325],[8.4172,47.21348],[8.4171,47.21368],[8.41708,47.21373],[8.41699,47.21397],[8.4167,47.21456],[8.41642,47.21523],[8.41599,47.21564],[8.41594,47.2157],[8.41586,47.21582],[8.41579,47.21596],[8.41577,47.21611],[8.41576,47.21632],[8.41576,47.21646],[8.41582,47.21683],[8.41583,47.21746],[8.41588,47.21763],[8.41598,47.21778],[8.41602,47.21783],[8.41614,47.21802],[8.41624,47.21832],[8.41634,47.21864],[8.41639,47.21885],[8.41641,47.21911],[8.41639,47.21943],[8.41638,47.21954],[8.41635,47.2197],[8.41623,47.22002],[8.41621,47.22011],[8.41613,47.22049],[8.41607,47.2207],[8.41595,47.22088],[8.41561,47.2213],[8.41554,47.2214],[8.41531,47.22179],[8.41524,47.22197],[8.41522,47.22215],[8.41527,47.22329],[8.41535,47.22383],[8.41521,47.22414],[8.41495,47.22446],[8.41487,47.22482],[8.41523,47.22929],[8.41529,47.22972],[8.4156,47.23061],[8.41606,47.2314],[8.41642,47.2321],[8.41676,47.23301],[8.41692,47.23366],[8.41691,47.23399],[8.41663,47.23466],[8.41667,47.23511],[8.4166,47.23544],[8.41634,47.23581],[8.41627,47.23615],[8.41644,47.23687],[8.41621,47.23736],[8.41573,47.23774],[8.41526,47.23829],[8.4148,47.23862],[8.4145,47.2391],[8.41455,47.23946],[8.41479,47.23977],[8.41548,47.2401],[8.41583,47.24033],[8.41624,47.24087],[8.41629,47.24137],[8.41586,47.24207],[8.41551,47.24236],[8.41467,47.2427],[8.41436,47.24304],[8.41397,47.24371],[8.41339,47.24445],[8.41309,47.24515],[8.41259,47.24555],[8.41212,47.24568],[8.4116,47.24568],[8.41113,47.24554],[8.41077,47.24528],[8.41014,47.24444],[8.40814,47.24246],[8.40742,47.24177],[8.40694,47.24119],[8.40659,47.24044],[8.40649,47.23989],[8.40648,47.23834],[8.40641,47.23781],[8.40625,47.23738],[8.40578,47.23666],[8.40544,47.23633],[8.40463,47.23574],[8.40007,47.23289],[8.39869,47.23197],[8.39794,47.23134],[8.39702,47.23038],[8.39642,47.22955],[8.39602,47.22886],[8.39509,47.22688],[8.3949,47.2263],[8.39485,47.22582],[8.39497,47.22503],[8.3963,47.22055],[8.39658,47.21971],[8.39679,47.21926],[8.39713,47.21878],[8.39755,47.21834],[8.39909,47.21721],[8.3998,47.21661],[8.40034,47.21597],[8.4008,47.21515],[8.40096,47.21465],[8.40102,47.21379]]]},"properties":{"bfs_nr":1703,"name":"H\u00fcnenberg"}},{"type":"Feature","geometry":{"type":"Polygon","coordinates":[[[8.55461,47.18124],[8.55466,47.18112],[8.55484,47.18082],[8.55499,47.18056],[8.55505,47.18049],[8.55508,47.18045],[8.55531,47.18012],[8.5556,47.17984],[8.55579,47.17929],[8.55606,47.17898],[8.5565,47.17876],[8.55721,47.17863],[8.55768,47.17854],[8.55792,47.17847],[8.55814,47.17838],[8.55833,47.17826],[8.55848,47.17812],[8.55859,47.17796],[8.55865,47.17779],[8.55866,47.17762],[8.55864,47.17736],[8.55861,47.17704],[8.55879,47.17658],[8.55911,47.17629],[8.55955,47.17606],[8.55982,47.17579],[8.56008,47.17503],[8.56019,47.17482],[8.56029,47.1747],[8.56041,47.17457],[8.56044,47.17454],[8.56048,47.17449],[8.56056,47.17437],[8.56066,47.17421],[8.56075,47.17388],[8.56065,47.17354],[8.56021,47.17308],[8.56008,47.17273],[8.56017,47.17236],[8.56041,47.172],[8.56045,47.17161],[8.56063,47.17108],[8.56073,47.17027],[8.56064,47.16997],[8.56053,47.16983],[8.56052,47.16982],[8.5604,47.16965],[8.56033,47.1695],[8.56032,47.16945],[8.56031,47.16942],[8.56029,47.16933],[8.56027,47.16922],[8.56025,47.16895],[8.56023,47.16889],[8.5602,47.16877],[8.56019,47.16872],[8.56018,47.16869],[8.56009,47.16851],[8.56005,47.16846],[8.55991,47.1683],[8.55966,47.1681],[8.55953,47.16794],[8.55922,47.16721],[8.55926,47.16649],[8.55922,47.16613],[8.55926,47.16595],[8.5595,47.16561],[8.55986,47.16534],[8.55997,47.16522],[8.56011,47.165],[8.56016,47.16481],[8.56015,47.16462],[8.55985,47.16388],[8.5598,47.16378],[8.55971,47.16361],[8.55967,47.16355],[8.55959,47.16335],[8.55958,47.16304],[8.55965,47.16285],[8.55966,47.16282],[8.55977,47.16265],[8.55989,47.16253],[8.56004,47.16242],[8.56052,47.16212],[8.56073,47.16185],[8.56084,47.1615],[8.56108,47.16111],[8.56115,47.16101],[8.56123,47.16084],[8.56129,47.16065],[8.56133,47.16042],[8.56134,47.16038],[8.56136,47.16024],[8.56135,47.16005],[8.56128,47.15987],[8.56116,47.1597],[8.56055,47.15918],[8.56038,47.15889],[8.56035,47.15873],[8.56034,47.15864],[8.56036,47.1584],[8.56038,47.15799],[8.56038,47.15797],[8.56039,47.15757],[8.5604,47.15745],[8.56049,47.15719],[8.56062,47.15694],[8.56068,47.1568],[8.5607,47.15669],[8.56072,47.15656],[8.56073,47.15641],[8.56075,47.15602],[8.56075,47.15584],[8.56075,47.15577],[8.56074,47.15572],[8.56064,47.15535],[8.56064,47.15517],[8.56069,47.155],[8.5608,47.15483],[8.56095,47.15468],[8.56127,47.1545],[8.56172,47.15434],[8.56254,47.15416],[8.56309,47.15382],[8.56326,47.15351],[8.56326,47.15317],[8.56313,47.15291],[8.56309,47.15253],[8.56318,47.15231],[8.56358,47.15162],[8.56372,47.15122],[8.56392,47.1506],[8.56395,47.15049],[8.56419,47.14971],[8.56438,47.14932],[8.56471,47.14906],[8.56541,47.14888],[8.56591,47.14892],[8.56635,47.14908],[8.56669,47.14935],[8.56709,47.14986],[8.5675,47.15022],[8.56825,47.15072],[8.5693,47.151],[8.56978,47.15105],[8.57129,47.15081],[8.57266,47.1507],[8.57338,47.15082],[8.57424,47.15121],[8.57501,47.15145],[8.57559,47.15146],[8.576,47.15137],[8.57688,47.15109],[8.57778,47.15103],[8.57847,47.15088],[8.57957,47.15085],[8.58027,47.15096],[8.58076,47.15117],[8.58192,47.15144],[8.58229,47.15165],[8.58258,47.15194],[8.58304,47.1523],[8.58326,47.1524],[8.58392,47.15257],[8.5848,47.15273],[8.58516,47.15282],[8.58538,47.15288],[8.58583,47.15307],[8.58629,47.15324],[8.58688,47.15335],[8.58736,47.15337],[8.58782,47.15326],[8.58833,47.15295],[8.5892,47.15212],[8.58935,47.15192],[8.59035,47.15102],[8.59123,47.15053],[8.59146,47.15047],[8.59277,47.15027],[8.59327,47.15026],[8.59429,47.15046],[8.59478,47.15063],[8.59521,47.15094],[8.59617,47.15147],[8.59677,47.15167],[8.59732,47.15191],[8.59763,47.1521],[8.59814,47.15248],[8.59853,47.1528],[8.59884,47.15302],[8.59909,47.15314],[8.59955,47.15329],[8.60004,47.15333],[8.60065,47.15324],[8.60114,47.15324],[8.6019,47.15346],[8.60306,47.15365],[8.60338,47.15365],[8.6037,47.15363],[8.60392,47.15362],[8.60399,47.15362],[8.60469,47.15359],[8.6051,47.15356],[8.60556,47.15355],[8.6058,47.15352],[8.60651,47.15342],[8.60679,47.15337],[8.60723,47.15327],[8.60746,47.15325],[8.60775,47.15326],[8.60839,47.15335],[8.60876,47.15339],[8.6093,47.15347],[8.60976,47.15359],[8.6102,47.15381],[8.61026,47.15386],[8.61036,47.15392],[8.61049,47.154],[8.61068,47.1541],[8.61092,47.15419],[8.61112,47.15426],[8.61126,47.1543],[8.6115,47.15434],[8.61174,47.15436],[8.61198,47.15437],[8.6123,47.15435],[8.61264,47.1543],[8.61292,47.15423],[8.61319,47.15412],[8.61377,47.15367],[8.61493,47.15284],[8.61506,47.15276],[8.61555,47.15238],[8.61603,47.1522],[8.61687,47.15216],[8.6174,47.15203],[8.61788,47.15197],[8.61836,47.15204],[8.61863,47.15213],[8.61916,47.15235],[8.6194,47.15246],[8.61989,47.15274],[8.62008,47.15283],[8.62029,47.15289],[8.62068,47.15299],[8.62121,47.15314],[8.62134,47.15319],[8.62142,47.15321],[8.62151,47.15324],[8.62176,47.15331],[8.62202,47.15337],[8.62211,47.15338],[8.62235,47.15339],[8.62283,47.15333],[8.62305,47.15326],[8.62371,47.153],[8.62385,47.15293],[8.62428,47.15272],[8.62447,47.1526],[8.62473,47.15241],[8.62475,47.15239],[8.62499,47.15223],[8.6257,47.15205],[8.62741,47.15225],[8.62843,47.15232],[8.62892,47.15226],[8.62957,47.15204],[8.63127,47.15187],[8.63207,47.15173],[8.63271,47.15166],[8.63325,47.15166],[8.63433,47.15176],[8.6356,47.15182],[8.6364,47.15161],[8.63692,47.15154],[8.63725,47.15157],[8.63821,47.15171],[8.63825,47.15172],[8.63857,47.15177],[8.63882,47.15179],[8.63892,47.15179],[8.63901,47.15179],[8.63911,47.15179],[8.63934,47.15179],[8.63966,47.15181],[8.63992,47.15181],[8.64055,47.15168],[8.64176,47.15161],[8.6425,47.15159],[8.64257,47.15159],[8.64317,47.15155],[8.64321,47.15155],[8.64365,47.15151],[8.64371,47.15151],[8.64425,47.15144],[8.64457,47.15142],[8.6448,47.15142],[8.6451,47.15142],[8.64526,47.15143],[8.64587,47.15148],[8.64702,47.1516],[8.64732,47.15164],[8.64824,47.15198],[8.64873,47.15231],[8.64897,47.1524],[8.64923,47.15246],[8.6495,47.15248],[8.64978,47.15246],[8.65076,47.15233],[8.65083,47.15232],[8.65172,47.15216],[8.65192,47.15211],[8.65214,47.15203],[8.65286,47.15181],[8.65354,47.15158],[8.6539,47.15153],[8.65484,47.15147],[8.6561,47.15146],[8.65634,47.15143],[8.65652,47.15139],[8.65682,47.15135],[8.65708,47.15134],[8.65735,47.15136],[8.65832,47.1515],[8.65884,47.15156],[8.65914,47.15161],[8.65957,47.15179],[8.65986,47.15205],[8.66,47.15238],[8.65999,47.15255],[8.65994,47.15271],[8.65981,47.15293],[8.65974,47.15311],[8.65971,47.15329],[8.65975,47.15348],[8.65984,47.15365],[8.65998,47.15381],[8.6605,47.15417],[8.66075,47.15441],[8.66131,47.1548],[8.6615,47.1551],[8.66151,47.15544],[8.6612,47.15608],[8.66096,47.15679],[8.66078,47.15705],[8.66074,47.15741],[8.66091,47.15776],[8.66149,47.15812],[8.66228,47.15828],[8.6628,47.15829],[8.66358,47.1582],[8.66431,47.15822],[8.66467,47.15831],[8.66471,47.15833],[8.66473,47.15833],[8.66498,47.15845],[8.66515,47.15857],[8.66538,47.15887],[8.66539,47.15937],[8.66502,47.15979],[8.66392,47.16037],[8.66336,47.16051],[8.66266,47.1605],[8.66191,47.16063],[8.66151,47.16085],[8.66126,47.16115],[8.661,47.16226],[8.66081,47.16276],[8.66072,47.1632],[8.66054,47.1637],[8.66054,47.1639],[8.66069,47.16431],[8.66097,47.1654],[8.66088,47.16585],[8.66082,47.16655],[8.66085,47.16724],[8.66109,47.16794],[8.66106,47.16826],[8.66054,47.16901],[8.66045,47.16934],[8.66042,47.16981],[8.66024,47.17013],[8.6599,47.17038],[8.65939,47.17054],[8.6586,47.1706],[8.65788,47.17049],[8.65675,47.17001],[8.65632,47.16991],[8.65576,47.16987],[8.65509,47.16998],[8.65472,47.17012],[8.65322,47.17083],[8.65293,47.17094],[8.65243,47.17102],[8.65192,47.17095],[8.6505,47.17039],[8.64983,47.17028],[8.64834,47.17018],[8.64787,47.17012],[8.64698,47.16992],[8.64592,47.16983],[8.64437,47.16941],[8.64286,47.16904],[8.64244,47.16895],[8.64186,47.16892],[8.64097,47.16904],[8.64028,47.16922],[8.63986,47.1694],[8.63948,47.16984],[8.63945,47.17018],[8.63961,47.17064],[8.63958,47.17098],[8.63937,47.17128],[8.639,47.17151],[8.63847,47.17165],[8.63782,47.1717],[8.63667,47.17175],[8.63541,47.17171],[8.63405,47.17161],[8.63356,47.17164],[8.63227,47.172],[8.6311,47.17218],[8.63058,47.17217],[8.62917,47.17208],[8.62839,47.17207],[8.62769,47.17213],[8.62629,47.17231],[8.62534,47.17251],[8.62481,47.17271],[8.62418,47.17313],[8.62392,47.17349],[8.62384,47.17386],[8.62394,47.17451],[8.62412,47.17484],[8.62452,47.17519],[8.62467,47.17542],[8.62503,47.17636],[8.62523,47.17667],[8.62549,47.17686],[8.6263,47.17732],[8.62687,47.17773],[8.62786,47.17876],[8.62801,47.17896],[8.6281,47.17932],[8.62797,47.17967],[8.62766,47.17996],[8.6265,47.18044],[8.62613,47.18068],[8.62592,47.18099],[8.62582,47.1818],[8.62547,47.18236],[8.62439,47.18351],[8.62369,47.18429],[8.62245,47.1858],[8.6217,47.18664],[8.62079,47.18757],[8.62054,47.18795],[8.62052,47.18868],[8.62063,47.18911],[8.62094,47.18984],[8.62088,47.1902],[8.62062,47.19052],[8.62,47.19085],[8.61925,47.19111],[8.61883,47.19134],[8.61829,47.19178],[8.61774,47.19207],[8.61746,47.19238],[8.61739,47.19275],[8.61754,47.1931],[8.61799,47.19367],[8.61818,47.19405],[8.61817,47.19457],[8.61801,47.19486],[8.6174,47.19536],[8.61703,47.19573],[8.61633,47.1967],[8.61604,47.19724],[8.61592,47.19764],[8.61578,47.19848],[8.61566,47.19874],[8.6153,47.1992],[8.61454,47.19985],[8.61353,47.20045],[8.61339,47.2006],[8.61307,47.20122],[8.61292,47.2018],[8.61261,47.20213],[8.61223,47.20232],[8.61096,47.20263],[8.61031,47.20294],[8.60969,47.20345],[8.60937,47.204],[8.60919,47.2042],[8.60878,47.20444],[8.60771,47.20477],[8.60631,47.20515],[8.60581,47.20515],[8.60515,47.20492],[8.60477,47.20457],[8.60427,47.2039],[8.6042,47.20339],[8.60439,47.20308],[8.60473,47.20283],[8.60519,47.20269],[8.60574,47.20262],[8.6068,47.20215],[8.60715,47.20184],[8.60743,47.20111],[8.60741,47.20075],[8.60722,47.20037],[8.60716,47.19964],[8.60726,47.19932],[8.60787,47.1985],[8.60807,47.19784],[8.60832,47.19731],[8.60836,47.19714],[8.60835,47.19697],[8.60829,47.19681],[8.60805,47.19652],[8.60719,47.19603],[8.60699,47.19573],[8.60696,47.19541],[8.60706,47.19514],[8.60783,47.19378],[8.6079,47.19361],[8.60792,47.19342],[8.60788,47.19324],[8.60763,47.19264],[8.60783,47.19217],[8.60813,47.19187],[8.60827,47.19154],[8.60823,47.19115],[8.60831,47.19075],[8.60859,47.19044],[8.60902,47.19023],[8.60997,47.19003],[8.61036,47.18979],[8.61067,47.18936],[8.6107,47.18899],[8.61033,47.1885],[8.60969,47.18801],[8.60928,47.18783],[8.60879,47.18776],[8.60831,47.18782],[8.60789,47.188],[8.60697,47.18872],[8.60639,47.18908],[8.60588,47.1893],[8.60535,47.18934],[8.60471,47.18927],[8.60448,47.18928],[8.60392,47.18933],[8.60361,47.18939],[8.60294,47.18958],[8.6024,47.18976],[8.60203,47.18982],[8.60181,47.18984],[8.60148,47.18985],[8.60121,47.18981],[8.60074,47.18964],[8.60027,47.18934],[8.5999,47.18918],[8.59938,47.18886],[8.59887,47.18873],[8.59834,47.18875],[8.5977,47.18894],[8.59743,47.18898],[8.59707,47.18899],[8.59702,47.18898],[8.5967,47.18894],[8.59646,47.18887],[8.59606,47.18865],[8.5956,47.18826],[8.59459,47.18782],[8.59431,47.18775],[8.59345,47.1877],[8.59301,47.18756],[8.59246,47.1875],[8.59193,47.1876],[8.59155,47.18775],[8.5906,47.18795],[8.59004,47.18829],[8.58958,47.18851],[8.58947,47.18855],[8.58919,47.18863],[8.58881,47.18874],[8.58824,47.18905],[8.58796,47.18919],[8.58771,47.18927],[8.58728,47.18936],[8.58703,47.18946],[8.58683,47.1896],[8.58667,47.18977],[8.58629,47.19029],[8.58591,47.19077],[8.58573,47.19095],[8.58555,47.19107],[8.58511,47.19123],[8.58486,47.19126],[8.58455,47.19127],[8.58446,47.19126],[8.58416,47.19122],[8.5834,47.19099],[8.58316,47.19095],[8.58291,47.19094],[8.58266,47.19097],[8.58245,47.19101],[8.58203,47.19113],[8.58177,47.19122],[8.58166,47.19127],[8.58159,47.19131],[8.58081,47.19171],[8.58035,47.19181],[8.57982,47.19184],[8.57956,47.1919],[8.57933,47.192],[8.57913,47.19212],[8.57885,47.19234],[8.57843,47.19272],[8.57821,47.19285],[8.57711,47.19323],[8.57634,47.19327],[8.57557,47.19306],[8.57496,47.19304],[8.57448,47.19293],[8.5741,47.19271],[8.57369,47.19233],[8.57314,47.1921],[8.57287,47.19193],[8.57267,47.19178],[8.57105,47.19054],[8.571,47.1905],[8.57085,47.19037],[8.57031,47.18992],[8.57021,47.18984],[8.56982,47.18951],[8.56889,47.18891],[8.5686,47.18842],[8.56859,47.18811],[8.56842,47.18779],[8.56809,47.18754],[8.56764,47.18739],[8.5669,47.1874],[8.56615,47.18759],[8.56568,47.18762],[8.56464,47.18746],[8.56407,47.18743],[8.56359,47.18726],[8.56323,47.18705],[8.56279,47.18692],[8.562,47.18685],[8.56152,47.18668],[8.56101,47.18634],[8.56055,47.1862],[8.55984,47.18613],[8.55941,47.18597],[8.55888,47.18563],[8.55834,47.18548],[8.55759,47.18544],[8.55711,47.18528],[8.55673,47.18497],[8.55657,47.18472],[8.55648,47.18432],[8.55629,47.18401],[8.556,47.18374],[8.55581,47.18342],[8.55537,47.18299],[8.55515,47.1825],[8.55477,47.18212],[8.55455,47.1818],[8.55453,47.18145],[8.55461,47.18124]]]},"properties":{"bfs_nr":1704,"name":"Menzingen"}},{"type":"Feature","geometry":{"type":"Polygon","coordinates":[[[8.55708,47.18707],[8.5573,47.18676],[8.55748,47.18645],[8.55782,47.18618],[8.55856,47.18599],[8.55908,47.18604],[8.5598,47.18634],[8.56067,47.18651],[8.56125,47.18675],[8.56243,47.18693],[8.56321,47.18725],[8.56348,47.18743],[8.56412,47.18772],[8.56492,47.18794],[8.56539,47.18799],[8.56585,47.18793],[8.56636,47.18776],[8.56687,47.1877],[8.56738,47.18779],[8.56795,47.18815],[8.56816,47.18854],[8.56863,47.18893],[8.56925,47.18914],[8.56984,47.18953],[8.57021,47.18984],[8.57031,47.18992],[8.57085,47.19037],[8.57101,47.1905],[8.57104,47.19053],[8.57267,47.19178],[8.57325,47.19222],[8.57366,47.19245],[8.5741,47.19287],[8.57454,47.19309],[8.57537,47.19322],[8.57579,47.19336],[8.5763,47.19345],[8.57696,47.19337],[8.57752,47.19311],[8.57823,47.19285],[8.57844,47.19272],[8.57888,47.19231],[8.5793,47.19202],[8.57952,47.19192],[8.58,47.19183],[8.58037,47.19182],[8.58081,47.19172],[8.581,47.19164],[8.58158,47.19132],[8.58171,47.19125],[8.5821,47.19111],[8.58264,47.19097],[8.5829,47.19095],[8.58339,47.191],[8.58415,47.19123],[8.5844,47.19126],[8.58461,47.19127],[8.58487,47.19127],[8.58511,47.19123],[8.58534,47.19116],[8.58555,47.19107],[8.58573,47.19095],[8.58588,47.19081],[8.5863,47.19029],[8.58664,47.18982],[8.58696,47.18952],[8.58737,47.18934],[8.58762,47.18929],[8.58791,47.18921],[8.58798,47.18918],[8.58819,47.18908],[8.58882,47.18874],[8.58943,47.18857],[8.58966,47.18848],[8.58979,47.18843],[8.59027,47.18823],[8.5912,47.18811],[8.5917,47.18796],[8.5922,47.18793],[8.59273,47.18798],[8.5932,47.18793],[8.59396,47.18778],[8.59451,47.18783],[8.59476,47.18791],[8.59568,47.18837],[8.59627,47.18881],[8.59647,47.18889],[8.59669,47.18895],[8.59692,47.18898],[8.59743,47.18901],[8.59773,47.18901],[8.5983,47.18892],[8.59902,47.18902],[8.59994,47.18937],[8.60047,47.1897],[8.60093,47.18985],[8.60143,47.18988],[8.60211,47.18982],[8.60241,47.18977],[8.603,47.18956],[8.60354,47.18941],[8.604,47.18933],[8.60467,47.18928],[8.60548,47.18938],[8.606,47.18929],[8.60676,47.18897],[8.60781,47.18808],[8.60843,47.18782],[8.60892,47.18779],[8.60939,47.18789],[8.60978,47.18809],[8.61033,47.18867],[8.61044,47.18901],[8.61034,47.18936],[8.61005,47.18965],[8.60962,47.18985],[8.60916,47.18993],[8.6087,47.19009],[8.60827,47.19051],[8.6082,47.19085],[8.60825,47.19156],[8.60808,47.19192],[8.60774,47.19226],[8.60761,47.19257],[8.60766,47.1929],[8.60791,47.19348],[8.60789,47.19364],[8.6078,47.19384],[8.60704,47.19519],[8.60696,47.1954],[8.60699,47.19577],[8.60723,47.19609],[8.60777,47.19638],[8.60813,47.19663],[8.60825,47.19679],[8.60832,47.19696],[8.60834,47.19713],[8.60831,47.19731],[8.60812,47.19771],[8.60783,47.1985],[8.60734,47.19917],[8.60714,47.1995],[8.60709,47.19968],[8.60711,47.20013],[8.60732,47.20075],[8.60733,47.20135],[8.60707,47.20185],[8.60674,47.2021],[8.60607,47.20244],[8.60559,47.2026],[8.60506,47.20262],[8.60449,47.20255],[8.60373,47.20265],[8.60323,47.20284],[8.60271,47.20292],[8.60201,47.20278],[8.60127,47.20237],[8.60081,47.20203],[8.6001,47.20162],[8.59959,47.2015],[8.59906,47.20153],[8.59858,47.2017],[8.59825,47.20199],[8.59799,47.2025],[8.59748,47.20291],[8.59711,47.20329],[8.59684,47.20366],[8.59653,47.20421],[8.59635,47.20481],[8.5964,47.20519],[8.59678,47.20561],[8.59698,47.20592],[8.59693,47.20642],[8.59673,47.20675],[8.5967,47.20709],[8.59687,47.20742],[8.59745,47.20812],[8.59762,47.20839],[8.59769,47.2087],[8.59761,47.20903],[8.59735,47.20931],[8.59669,47.20968],[8.59627,47.20997],[8.59574,47.21058],[8.59526,47.21127],[8.59468,47.21179],[8.59434,47.21198],[8.59391,47.21209],[8.59343,47.21209],[8.59296,47.21199],[8.5921,47.2117],[8.59151,47.21157],[8.59099,47.2116],[8.59029,47.21175],[8.58985,47.21192],[8.58919,47.21231],[8.58866,47.21251],[8.58816,47.21255],[8.58768,47.21246],[8.58725,47.21223],[8.58642,47.21137],[8.58593,47.21103],[8.58553,47.21085],[8.58472,47.21062],[8.58371,47.2105],[8.58299,47.21057],[8.58258,47.21075],[8.5823,47.21103],[8.58219,47.21136],[8.58214,47.21212],[8.58206,47.21255],[8.58187,47.21298],[8.58128,47.21373],[8.58105,47.2142],[8.58104,47.21466],[8.58121,47.21505],[8.58159,47.21545],[8.58254,47.21618],[8.58283,47.2165],[8.58291,47.21684],[8.58267,47.21732],[8.58209,47.21763],[8.58136,47.21769],[8.5802,47.21751],[8.57916,47.21756],[8.57805,47.21785],[8.57753,47.21789],[8.57702,47.21778],[8.57628,47.21735],[8.576,47.21707],[8.5759,47.21674],[8.5761,47.21626],[8.57628,47.21609],[8.57712,47.21547],[8.57727,47.21534],[8.57746,47.21503],[8.57747,47.2147],[8.57741,47.21454],[8.57721,47.21418],[8.57713,47.21397],[8.57709,47.21382],[8.57708,47.21372],[8.57705,47.21356],[8.57686,47.21326],[8.57637,47.21266],[8.57626,47.21227],[8.57602,47.21198],[8.57542,47.21162],[8.5751,47.2113],[8.57492,47.21115],[8.57439,47.2108],[8.57401,47.21055],[8.57376,47.21041],[8.5733,47.21022],[8.57305,47.2101],[8.57289,47.20997],[8.57269,47.20976],[8.57246,47.20957],[8.5718,47.20909],[8.57158,47.20875],[8.5715,47.20864],[8.57139,47.2085],[8.57123,47.20835],[8.57081,47.20813],[8.57056,47.20806],[8.5705,47.20805],[8.5703,47.20803],[8.56993,47.208],[8.56959,47.20798],[8.56908,47.20801],[8.56861,47.20812],[8.56785,47.20806],[8.56614,47.20736],[8.56537,47.20721],[8.56498,47.20702],[8.5647,47.20674],[8.56459,47.20642],[8.56473,47.20563],[8.56494,47.20522],[8.56485,47.20472],[8.56458,47.20444],[8.56401,47.2041],[8.56351,47.20396],[8.56253,47.20392],[8.56196,47.20378],[8.56155,47.20355],[8.56141,47.20339],[8.56129,47.20317],[8.56092,47.20215],[8.56087,47.20194],[8.56082,47.20108],[8.56087,47.20025],[8.56063,47.19973],[8.56049,47.19922],[8.56003,47.19855],[8.55944,47.19793],[8.55856,47.1973],[8.55829,47.19702],[8.55819,47.19669],[8.55823,47.19631],[8.55812,47.19597],[8.55805,47.19587],[8.55788,47.19562],[8.5576,47.19487],[8.55765,47.19452],[8.55778,47.19432],[8.55787,47.19422],[8.55795,47.19415],[8.55801,47.19409],[8.55827,47.1939],[8.5587,47.19363],[8.55892,47.19336],[8.55898,47.19321],[8.559,47.19312],[8.55902,47.19295],[8.55898,47.19278],[8.5589,47.19261],[8.55854,47.19217],[8.55845,47.19195],[8.55845,47.19194],[8.55843,47.19184],[8.5583,47.19081],[8.55826,47.1905],[8.55825,47.19042],[8.55824,47.19025],[8.55823,47.1902],[8.55814,47.1895],[8.55814,47.18946],[8.55813,47.18941],[8.55809,47.18927],[8.55792,47.18889],[8.55788,47.1888],[8.55777,47.18863],[8.55772,47.18855],[8.5576,47.18839],[8.55715,47.18785],[8.55703,47.18763],[8.557,47.18727],[8.55708,47.18707]]]},"properties":{"bfs_nr":1705,"name":"Neuheim"}},{"type":"Feature","geometry":{"type":"Polygon","coordinates":[[[8.59579,47.15122],[8.59531,47.15097],[8.59497,47.15061],[8.59488,47.15037],[8.59491,47.15002],[8.59502,47.14981],[8.59605,47.14837],[8.59618,47.14801],[8.59615,47.1476],[8.59632,47.14724],[8.59681,47.14664],[8.59709,47.14641],[8.59767,47.14609],[8.59802,47.14575],[8.59824,47.14524],[8.59815,47.14448],[8.59777,47.14389],[8.5976,47.14318],[8.5978,47.14246],[8.59792,47.14223],[8.59811,47.14136],[8.59848,47.14088],[8.59866,47.14034],[8.59875,47.13971],[8.59865,47.13936],[8.59852,47.1392],[8.59796,47.13864],[8.59775,47.13825],[8.59763,47.13778],[8.59764,47.13759],[8.59791,47.13708],[8.5983,47.13647],[8.60414,47.1281],[8.60423,47.12794],[8.60426,47.12761],[8.60422,47.12745],[8.60151,47.12143],[8.60146,47.1213],[8.60142,47.12119],[8.60136,47.12103],[8.60136,47.12046],[8.6013,47.12028],[8.60122,47.12011],[8.60094,47.11961],[8.60069,47.11927],[8.6006,47.11905],[8.6006,47.11867],[8.60057,47.11851],[8.60049,47.11832],[8.5998,47.11719],[8.59969,47.11689],[8.59971,47.11643],[8.59983,47.11588],[8.60005,47.11557],[8.60042,47.11533],[8.60114,47.1152],[8.60259,47.11539],[8.60286,47.11539],[8.60315,47.11536],[8.60336,47.11534],[8.60348,47.11531],[8.60363,47.11527],[8.60411,47.11517],[8.60462,47.11516],[8.6049,47.11518],[8.60562,47.11532],[8.60667,47.11523],[8.60726,47.11512],[8.60785,47.11508],[8.60855,47.11522],[8.60891,47.11545],[8.60911,47.11576],[8.60922,47.11662],[8.60927,47.1168],[8.60937,47.11698],[8.60968,47.11739],[8.60986,47.11757],[8.61046,47.11792],[8.61096,47.11804],[8.61149,47.11802],[8.6125,47.11776],[8.61334,47.11738],[8.61373,47.11716],[8.61445,47.11691],[8.61576,47.1163],[8.61613,47.11609],[8.61663,47.11578],[8.6178,47.11531],[8.61824,47.11488],[8.61825,47.11435],[8.61782,47.11391],[8.61712,47.11371],[8.61679,47.11372],[8.61652,47.1137],[8.61626,47.1137],[8.61529,47.11385],[8.61473,47.11386],[8.61419,47.11395],[8.61339,47.11426],[8.61287,47.11428],[8.61247,47.11423],[8.61179,47.11425],[8.61128,47.11412],[8.61061,47.11366],[8.61027,47.11308],[8.61032,47.1125],[8.61027,47.11201],[8.61041,47.11169],[8.61083,47.11129],[8.61101,47.11097],[8.61099,47.1104],[8.61114,47.10997],[8.61143,47.10967],[8.61188,47.10947],[8.6124,47.10941],[8.61349,47.10955],[8.614,47.10966],[8.6147,47.10967],[8.61519,47.10956],[8.61558,47.10933],[8.61585,47.10883],[8.61578,47.10848],[8.61558,47.10817],[8.61554,47.1078],[8.61581,47.10729],[8.61617,47.10706],[8.61663,47.10689],[8.61708,47.10645],[8.61713,47.1061],[8.61698,47.10575],[8.61665,47.10548],[8.6163,47.10531],[8.61581,47.10521],[8.61506,47.10517],[8.61459,47.10499],[8.61435,47.10494],[8.61388,47.10487],[8.61356,47.10482],[8.61333,47.10478],[8.61195,47.10449],[8.6119,47.10448],[8.61095,47.10425],[8.61033,47.10421],[8.60944,47.1043],[8.60899,47.1043],[8.60898,47.1043],[8.60871,47.10427],[8.60834,47.1042],[8.6081,47.10419],[8.60734,47.10427],[8.60663,47.10415],[8.60627,47.10393],[8.60604,47.10363],[8.60599,47.10325],[8.60703,47.09528],[8.60709,47.09506],[8.60734,47.09474],[8.60776,47.09451],[8.60827,47.09442],[8.6088,47.09447],[8.61162,47.09494],[8.61198,47.09497],[8.62276,47.09472],[8.62322,47.09465],[8.62569,47.09395],[8.62622,47.09386],[8.62766,47.09381],[8.62959,47.0938],[8.63006,47.09374],[8.63047,47.09362],[8.63099,47.09359],[8.63209,47.09361],[8.6345,47.09336],[8.63684,47.09333],[8.63761,47.09346],[8.6403,47.09441],[8.64054,47.09448],[8.64123,47.09453],[8.64171,47.09466],[8.64239,47.09503],[8.6442,47.09562],[8.64468,47.09586],[8.64493,47.09618],[8.645,47.0964],[8.64545,47.0994],[8.64568,47.09982],[8.65359,47.10767],[8.65407,47.10796],[8.65529,47.10839],[8.65678,47.10926],[8.65799,47.1101],[8.65827,47.11025],[8.6595,47.11078],[8.65996,47.11113],[8.66053,47.11184],[8.66061,47.11227],[8.6605,47.11259],[8.66014,47.1133],[8.65998,47.11415],[8.66007,47.11448],[8.66034,47.11477],[8.66098,47.11502],[8.66202,47.11508],[8.66276,47.11515],[8.66388,47.11501],[8.6646,47.11506],[8.66522,47.11502],[8.66599,47.11516],[8.66697,47.11559],[8.6675,47.11568],[8.66969,47.11572],[8.67047,47.11588],[8.67082,47.11613],[8.67101,47.11645],[8.67108,47.11688],[8.67125,47.11727],[8.6711,47.11781],[8.67083,47.1181],[8.67072,47.11845],[8.67083,47.11883],[8.67114,47.11914],[8.67152,47.11933],[8.67186,47.11959],[8.67249,47.12028],[8.67284,47.12051],[8.67349,47.12082],[8.67411,47.121],[8.67475,47.12135],[8.67526,47.12151],[8.67569,47.12173],[8.67666,47.12274],[8.6768,47.12299],[8.67717,47.12341],[8.67733,47.12378],[8.67763,47.1241],[8.67824,47.12443],[8.67868,47.12453],[8.67948,47.12457],[8.68,47.12474],[8.68087,47.12494],[8.68127,47.12519],[8.68165,47.12561],[8.68203,47.12588],[8.68224,47.12618],[8.68231,47.12647],[8.68227,47.12685],[8.6824,47.12748],[8.68254,47.12776],[8.68292,47.12816],[8.68319,47.12854],[8.6834,47.12899],[8.6839,47.12941],[8.68428,47.12989],[8.68432,47.13025],[8.68422,47.13063],[8.68427,47.13093],[8.68448,47.1313],[8.68445,47.13193],[8.68457,47.1324],[8.68452,47.13282],[8.68463,47.13313],[8.68499,47.13352],[8.68544,47.1343],[8.68634,47.13507],[8.68648,47.13538],[8.68641,47.13595],[8.68655,47.1366],[8.6864,47.13694],[8.68606,47.13721],[8.68559,47.13744],[8.68529,47.13775],[8.68501,47.13838],[8.68459,47.13882],[8.68436,47.13949],[8.68421,47.14018],[8.6843,47.14088],[8.68468,47.14167],[8.68492,47.14194],[8.68554,47.14227],[8.68582,47.14255],[8.68604,47.14295],[8.68703,47.1443],[8.68788,47.14507],[8.68817,47.14565],[8.68859,47.14613],[8.68945,47.14657],[8.68995,47.14693],[8.69053,47.14761],[8.69119,47.14787],[8.69213,47.14796],[8.69238,47.14804],[8.69279,47.14828],[8.6931,47.14869],[8.69351,47.14896],[8.6951,47.14954],[8.69564,47.14992],[8.69607,47.1501],[8.6974,47.1503],[8.69809,47.15025],[8.69881,47.15038],[8.69956,47.15075],[8.69995,47.15119],[8.69998,47.15153],[8.69968,47.152],[8.69927,47.15223],[8.69897,47.15249],[8.69875,47.15296],[8.69864,47.15363],[8.69867,47.15382],[8.69896,47.15433],[8.69907,47.15467],[8.69911,47.15517],[8.69892,47.15577],[8.69868,47.15625],[8.69833,47.15658],[8.69816,47.15688],[8.6981,47.15775],[8.69817,47.15829],[8.69804,47.15864],[8.69772,47.15893],[8.69707,47.15924],[8.69679,47.15954],[8.6967,47.15989],[8.69677,47.16041],[8.69648,47.16108],[8.69601,47.16246],[8.69564,47.16294],[8.69523,47.16313],[8.69396,47.16336],[8.69274,47.16346],[8.6915,47.16325],[8.69036,47.16294],[8.68875,47.16271],[8.6877,47.1626],[8.68714,47.16258],[8.68544,47.16266],[8.68443,47.16258],[8.6835,47.16234],[8.68236,47.16213],[8.68135,47.16202],[8.68065,47.162],[8.68004,47.16187],[8.67918,47.1615],[8.67775,47.161],[8.67684,47.16077],[8.67631,47.16044],[8.67604,47.16007],[8.67563,47.15976],[8.67509,47.1595],[8.67462,47.15944],[8.6741,47.15944],[8.67261,47.15953],[8.67195,47.15968],[8.67162,47.1597],[8.6701,47.15969],[8.66834,47.15948],[8.66752,47.15948],[8.66694,47.15956],[8.66645,47.15955],[8.666,47.15941],[8.66565,47.15918],[8.66522,47.15861],[8.66501,47.15846],[8.66477,47.15835],[8.66464,47.1583],[8.66439,47.15823],[8.66383,47.15818],[8.6628,47.15827],[8.66228,47.15824],[8.66163,47.15808],[8.66122,47.15789],[8.66088,47.15745],[8.66087,47.15712],[8.66132,47.15589],[8.66158,47.1555],[8.66161,47.15516],[8.66132,47.15469],[8.66081,47.15438],[8.66,47.15382],[8.65977,47.15352],[8.65973,47.15318],[8.65978,47.15301],[8.65991,47.15279],[8.65999,47.15262],[8.66001,47.15244],[8.65998,47.15227],[8.6599,47.1521],[8.65977,47.15194],[8.6596,47.1518],[8.6594,47.15169],[8.65916,47.15161],[8.65891,47.15156],[8.6573,47.15135],[8.65708,47.15134],[8.65686,47.15134],[8.65678,47.15135],[8.6561,47.15146],[8.655,47.15146],[8.65488,47.15146],[8.65383,47.15153],[8.65351,47.15158],[8.65245,47.15192],[8.65222,47.152],[8.65192,47.15211],[8.65168,47.15217],[8.65084,47.15231],[8.65074,47.15233],[8.64985,47.15246],[8.6495,47.15248],[8.64897,47.1524],[8.64873,47.1523],[8.64824,47.15198],[8.64756,47.15171],[8.64733,47.15164],[8.64708,47.1516],[8.64574,47.15146],[8.64523,47.15143],[8.64513,47.15142],[8.64476,47.15142],[8.64461,47.15142],[8.64438,47.15143],[8.64428,47.15144],[8.64373,47.1515],[8.64364,47.15151],[8.64316,47.15155],[8.64173,47.15161],[8.64054,47.15167],[8.6399,47.15181],[8.63958,47.15181],[8.6393,47.15179],[8.63915,47.15179],[8.63889,47.15179],[8.63851,47.15176],[8.63824,47.15171],[8.63822,47.15171],[8.63716,47.15156],[8.63693,47.15154],[8.63671,47.15154],[8.63649,47.15158],[8.6356,47.15181],[8.63432,47.15176],[8.63316,47.15165],[8.6328,47.15166],[8.63201,47.15173],[8.63077,47.15191],[8.6298,47.15189],[8.62934,47.152],[8.62868,47.15226],[8.62821,47.15229],[8.62733,47.15224],[8.62665,47.15212],[8.62625,47.152],[8.62551,47.152],[8.62507,47.15216],[8.62489,47.15228],[8.62475,47.15239],[8.62472,47.15241],[8.62451,47.15257],[8.62423,47.15274],[8.62388,47.15292],[8.62367,47.15301],[8.6231,47.15324],[8.62283,47.15333],[8.62235,47.15339],[8.62207,47.15337],[8.6217,47.1533],[8.62154,47.15325],[8.62139,47.15321],[8.62132,47.15318],[8.62123,47.15315],[8.62066,47.15299],[8.62035,47.15291],[8.62008,47.15282],[8.61985,47.15271],[8.61961,47.15258],[8.61936,47.15244],[8.6192,47.15236],[8.61837,47.15202],[8.61813,47.15197],[8.61761,47.15195],[8.61696,47.15209],[8.61632,47.15211],[8.6156,47.15233],[8.61496,47.15282],[8.61374,47.15369],[8.61318,47.15412],[8.6129,47.15423],[8.61257,47.15431],[8.61238,47.15434],[8.6119,47.15437],[8.6118,47.15437],[8.61153,47.15435],[8.61121,47.15428],[8.61117,47.15427],[8.61087,47.15417],[8.61073,47.15412],[8.61045,47.15397],[8.61039,47.15394],[8.61023,47.15384],[8.61018,47.1538],[8.61014,47.15377],[8.60983,47.15361],[8.6097,47.15356],[8.60938,47.15348],[8.60904,47.15342],[8.60798,47.15329],[8.6077,47.15326],[8.60746,47.15325],[8.60723,47.15326],[8.60701,47.15331],[8.60686,47.15335],[8.60663,47.1534],[8.60651,47.15341],[8.6063,47.15344],[8.60586,47.15351],[8.6055,47.15355],[8.60514,47.15356],[8.60467,47.15359],[8.604,47.15362],[8.6039,47.15362],[8.60367,47.15363],[8.60315,47.15364],[8.60237,47.15349],[8.6018,47.15342],[8.6012,47.15324],[8.60073,47.1532],[8.60013,47.1533],[8.59964,47.15329],[8.59894,47.15306],[8.59856,47.15281],[8.59821,47.15251],[8.59754,47.15202],[8.59732,47.15188],[8.59698,47.15174],[8.59618,47.15144],[8.59579,47.15122]]]},"properties":{"bfs_nr":1706,"name":"Ober\u00e4geri"}},{"type":"Feature","geometry":{"type":"Polygon","coordinates":[[[8.41249,47.14008],[8.4131,47.139],[8.41353,47.13813],[8.41518,47.13567],[8.41527,47.13549],[8.41583,47.13373],[8.41609,47.13318],[8.4161,47.13287],[8.416,47.1326],[8.41567,47.13223],[8.41537,47.13165],[8.41538,47.13132],[8.41556,47.13102],[8.4162,47.13058],[8.41643,47.13028],[8.41647,47.12994],[8.41629,47.12946],[8.4157,47.12821],[8.41474,47.12744],[8.41436,47.12656],[8.41438,47.12619],[8.41486,47.12528],[8.41544,47.12443],[8.41657,47.12363],[8.41704,47.12346],[8.41757,47.12343],[8.41804,47.12351],[8.41855,47.12353],[8.41902,47.12341],[8.41978,47.12299],[8.42023,47.12287],[8.42095,47.12292],[8.42195,47.1233],[8.4228,47.12336],[8.42329,47.12344],[8.42404,47.12344],[8.42475,47.12359],[8.42522,47.12365],[8.4262,47.12365],[8.42706,47.12356],[8.42776,47.12367],[8.42852,47.12395],[8.42904,47.12396],[8.4299,47.1238],[8.43042,47.12386],[8.43087,47.12406],[8.43148,47.12448],[8.43191,47.12464],[8.43278,47.12471],[8.43413,47.12494],[8.43469,47.12511],[8.43665,47.12605],[8.43883,47.12714],[8.44004,47.12793],[8.4408,47.12829],[8.4411,47.12858],[8.44133,47.12901],[8.44187,47.12936],[8.44235,47.12946],[8.44318,47.12943],[8.44547,47.12904],[8.44599,47.12908],[8.4472,47.12953],[8.44755,47.1296],[8.44805,47.12981],[8.44852,47.1299],[8.44925,47.12981],[8.44965,47.1296],[8.44996,47.12914],[8.45078,47.12521],[8.45095,47.12389],[8.45117,47.12336],[8.45162,47.12122],[8.45176,47.12086],[8.45178,47.12055],[8.45197,47.11999],[8.45221,47.11967],[8.45267,47.1183],[8.45303,47.11758],[8.45332,47.11688],[8.45351,47.11613],[8.45355,47.11569],[8.45384,47.11487],[8.45403,47.11414],[8.45445,47.11372],[8.45514,47.11352],[8.45565,47.11355],[8.45615,47.11373],[8.45989,47.11575],[8.46067,47.11607],[8.46245,47.11644],[8.46312,47.11654],[8.46431,47.11685],[8.46549,47.11719],[8.46587,47.11745],[8.46625,47.11801],[8.46687,47.11842],[8.4671,47.11873],[8.46742,47.119],[8.48005,47.12614],[8.48052,47.1266],[8.48921,47.14392],[8.48929,47.14413],[8.48926,47.14446],[8.48916,47.14467],[8.47406,47.16709],[8.47392,47.16727],[8.47334,47.16759],[8.4625,47.17101],[8.46218,47.17108],[8.46192,47.1711],[8.46139,47.17104],[8.4609,47.17081],[8.4561,47.16749],[8.45587,47.1673],[8.45572,47.16715],[8.45571,47.16713],[8.45559,47.16701],[8.45477,47.16635],[8.45445,47.16597],[8.45391,47.16569],[8.45354,47.16545],[8.45307,47.16489],[8.45265,47.16466],[8.45172,47.16433],[8.45071,47.16414],[8.45024,47.16414],[8.44972,47.16405],[8.4493,47.16383],[8.44904,47.16351],[8.44899,47.16311],[8.44905,47.16255],[8.44888,47.1622],[8.44872,47.16205],[8.44852,47.16192],[8.44828,47.16183],[8.44744,47.16154],[8.4471,47.16129],[8.44691,47.16098],[8.44692,47.16064],[8.44728,47.15992],[8.44729,47.15972],[8.44724,47.15952],[8.44714,47.15934],[8.447,47.1592],[8.44683,47.15908],[8.44663,47.15898],[8.44641,47.15891],[8.44617,47.15887],[8.44601,47.15886],[8.44565,47.15885],[8.44535,47.15879],[8.44499,47.15871],[8.44473,47.15866],[8.4443,47.15863],[8.44367,47.15845],[8.44339,47.15841],[8.44311,47.15839],[8.44018,47.15804],[8.44017,47.15804],[8.43815,47.15781],[8.43564,47.15752],[8.43525,47.15752],[8.43345,47.15768],[8.43148,47.15785],[8.43114,47.15786],[8.43088,47.15782],[8.4304,47.15765],[8.43007,47.15736],[8.42998,47.15719],[8.42993,47.15696],[8.42988,47.15644],[8.4298,47.15627],[8.42967,47.15612],[8.42951,47.15599],[8.42931,47.15588],[8.42908,47.1558],[8.42883,47.15575],[8.42858,47.15573],[8.4275,47.15574],[8.42698,47.15578],[8.42446,47.15617],[8.42418,47.1562],[8.42396,47.15619],[8.42299,47.156],[8.42258,47.15577],[8.42229,47.15544],[8.42189,47.15517],[8.42137,47.15505],[8.42028,47.15495],[8.41971,47.15484],[8.41894,47.15456],[8.4183,47.1544],[8.41699,47.15445],[8.41651,47.15459],[8.41615,47.15484],[8.41603,47.155],[8.41596,47.15517],[8.4158,47.15579],[8.41571,47.15601],[8.41559,47.15616],[8.415,47.1565],[8.41449,47.15657],[8.41375,47.15641],[8.41334,47.15612],[8.41243,47.15511],[8.41218,47.15469],[8.41198,47.15397],[8.41197,47.15341],[8.41206,47.1529],[8.41236,47.15213],[8.41412,47.14899],[8.41442,47.1484],[8.41463,47.14785],[8.41483,47.14707],[8.4149,47.1466],[8.41493,47.14592],[8.41488,47.14527],[8.41475,47.14457],[8.41445,47.14368],[8.41389,47.14258],[8.41344,47.14191],[8.41249,47.14078],[8.41239,47.14045],[8.41249,47.14008]]]},"properties":{"bfs_nr":1707,"name":"Risch"}},{"type":"Feature","geometry":{"type":"Polygon","coordinates":[[[8.46961,47.19934],[8.46945,47.19919],[8.46929,47.19884],[8.46934,47.19848],[8.46948,47.19827],[8.46983,47.19783],[8.47012,47.19756],[8.47029,47.19741],[8.4704,47.19731],[8.47064,47.19716],[8.47086,47.19706],[8.47137,47.19697],[8.47281,47.19711],[8.47333,47.19709],[8.4738,47.19693],[8.47414,47.19666],[8.47457,47.1961],[8.47468,47.19576],[8.47465,47.19559],[8.47447,47.19527],[8.4742,47.19499],[8.47413,47.1949],[8.4741,47.19486],[8.47395,47.19461],[8.47366,47.19397],[8.47359,47.19375],[8.47359,47.19358],[8.47364,47.19341],[8.47374,47.19325],[8.47388,47.1931],[8.47406,47.19298],[8.47445,47.19278],[8.47482,47.19247],[8.47492,47.19228],[8.47494,47.19222],[8.47497,47.19212],[8.47504,47.19165],[8.47506,47.19155],[8.47508,47.19145],[8.47512,47.19134],[8.4752,47.19117],[8.47535,47.19095],[8.47551,47.1908],[8.47575,47.19063],[8.47599,47.19051],[8.47622,47.19042],[8.47658,47.19034],[8.47682,47.19029],[8.47692,47.19026],[8.47741,47.19011],[8.47765,47.19002],[8.47786,47.18989],[8.47802,47.18973],[8.47814,47.18956],[8.47819,47.18937],[8.4782,47.1893],[8.4782,47.18927],[8.47821,47.18917],[8.47821,47.18912],[8.47821,47.18908],[8.47824,47.18889],[8.47831,47.18863],[8.4783,47.18844],[8.47797,47.18709],[8.47772,47.1865],[8.47762,47.18605],[8.4777,47.18572],[8.47795,47.18544],[8.47834,47.18523],[8.479,47.18508],[8.47999,47.18503],[8.48049,47.18507],[8.48131,47.18533],[8.48138,47.18535],[8.48145,47.18537],[8.48194,47.18551],[8.48201,47.18553],[8.48216,47.18556],[8.48257,47.1856],[8.48278,47.18564],[8.48344,47.18578],[8.48383,47.1859],[8.48396,47.18596],[8.4841,47.18603],[8.48422,47.18611],[8.48432,47.1862],[8.48441,47.18629],[8.48457,47.18642],[8.48476,47.18653],[8.48497,47.18661],[8.48521,47.18666],[8.48545,47.18669],[8.4857,47.18668],[8.4867,47.18658],[8.48736,47.18629],[8.48778,47.18571],[8.48817,47.18545],[8.48894,47.18531],[8.48921,47.18534],[8.48952,47.18542],[8.49015,47.18563],[8.4904,47.18574],[8.49072,47.18598],[8.49119,47.18645],[8.49203,47.18679],[8.49237,47.18707],[8.49259,47.18762],[8.49284,47.1879],[8.49344,47.18816],[8.49391,47.18827],[8.49416,47.18832],[8.49476,47.18846],[8.49496,47.18851],[8.49572,47.18879],[8.49614,47.18889],[8.49637,47.18893],[8.497,47.189],[8.49892,47.18947],[8.49944,47.1897],[8.49973,47.19002],[8.4998,47.19045],[8.49975,47.19082],[8.49981,47.19138],[8.49996,47.19169],[8.49997,47.19204],[8.49993,47.19222],[8.49988,47.1924],[8.49982,47.19252],[8.49974,47.19269],[8.49967,47.19285],[8.49976,47.19333],[8.50027,47.19379],[8.50049,47.19387],[8.50093,47.19396],[8.50124,47.19407],[8.50188,47.19437],[8.50266,47.19514],[8.5028,47.19549],[8.50279,47.19571],[8.50282,47.19594],[8.50295,47.19657],[8.50311,47.19691],[8.50308,47.19726],[8.50286,47.19757],[8.50225,47.19788],[8.50146,47.198],[8.50105,47.19815],[8.50063,47.19851],[8.49992,47.19915],[8.49972,47.19929],[8.49934,47.19946],[8.49887,47.19958],[8.49868,47.19966],[8.49827,47.19981],[8.49818,47.19984],[8.49749,47.19998],[8.49706,47.20007],[8.49681,47.20014],[8.4964,47.20038],[8.49625,47.20053],[8.49616,47.2007],[8.49611,47.20088],[8.49608,47.20126],[8.49608,47.20128],[8.49604,47.20225],[8.49605,47.20239],[8.49609,47.20253],[8.49613,47.20262],[8.49624,47.20294],[8.49632,47.2031],[8.49662,47.20339],[8.49706,47.20358],[8.49756,47.20368],[8.49795,47.20388],[8.49822,47.20416],[8.49833,47.20444],[8.49843,47.20466],[8.49884,47.20525],[8.49933,47.20583],[8.49996,47.20653],[8.50007,47.20664],[8.50075,47.2072],[8.50081,47.20724],[8.50179,47.20794],[8.50205,47.20816],[8.50222,47.20835],[8.50231,47.20851],[8.50234,47.20885],[8.50218,47.20918],[8.50152,47.20984],[8.50126,47.21005],[8.50049,47.21038],[8.5001,47.2106],[8.49863,47.21187],[8.4984,47.21203],[8.49794,47.21221],[8.49741,47.21225],[8.49596,47.21205],[8.49547,47.21196],[8.49457,47.2119],[8.49342,47.21194],[8.49284,47.21185],[8.49187,47.21142],[8.49071,47.2111],[8.48962,47.21092],[8.48905,47.21076],[8.48813,47.21036],[8.48642,47.20953],[8.48539,47.20901],[8.48415,47.20859],[8.48363,47.20857],[8.48305,47.2087],[8.48253,47.20872],[8.48158,47.20866],[8.48073,47.2087],[8.47976,47.20853],[8.47859,47.20802],[8.47651,47.20714],[8.4762,47.20687],[8.47606,47.20636],[8.47624,47.20595],[8.47625,47.20561],[8.47607,47.20529],[8.47574,47.20504],[8.47484,47.20458],[8.47459,47.20443],[8.47444,47.20428],[8.47427,47.20395],[8.47426,47.20342],[8.47407,47.20311],[8.47392,47.20298],[8.47373,47.20287],[8.47351,47.20279],[8.47247,47.20255],[8.47207,47.20233],[8.47174,47.20202],[8.47049,47.20141],[8.47025,47.20127],[8.46998,47.20097],[8.46989,47.20063],[8.47005,47.20013],[8.46993,47.19964],[8.46961,47.19934]]]},"properties":{"bfs_nr":1708,"name":"Steinhausen"}},{"type":"Feature","geometry":{"type":"Polygon","coordinates":[[[8.54172,47.13412],[8.54175,47.13393],[8.54198,47.13354],[8.54227,47.13297],[8.54249,47.13231],[8.54269,47.13198],[8.54277,47.13178],[8.54278,47.13156],[8.54276,47.13139],[8.54279,47.13122],[8.54298,47.1309],[8.54343,47.13054],[8.54356,47.13037],[8.54363,47.1302],[8.54365,47.13001],[8.54356,47.1297],[8.5435,47.12938],[8.5435,47.12881],[8.54354,47.12858],[8.54364,47.12835],[8.54392,47.12797],[8.54489,47.12728],[8.54504,47.12714],[8.54516,47.127],[8.54523,47.12684],[8.54526,47.12667],[8.54525,47.1265],[8.54518,47.12634],[8.54505,47.12609],[8.54493,47.12578],[8.5448,47.12557],[8.54471,47.12531],[8.54471,47.12504],[8.54484,47.12428],[8.54506,47.12345],[8.54512,47.12277],[8.54534,47.12219],[8.54559,47.12191],[8.54607,47.12152],[8.54653,47.12106],[8.54663,47.12086],[8.54664,47.12039],[8.5467,47.11994],[8.54679,47.11969],[8.54731,47.11909],[8.54759,47.11871],[8.54783,47.11835],[8.54889,47.11755],[8.5493,47.1174],[8.54977,47.11735],[8.55029,47.11737],[8.55078,47.11735],[8.55087,47.11734],[8.55124,47.11731],[8.55166,47.1173],[8.55258,47.11734],[8.55278,47.11732],[8.55305,47.11728],[8.55341,47.11718],[8.55378,47.11704],[8.55414,47.11696],[8.55451,47.11693],[8.55474,47.11693],[8.55486,47.11693],[8.55548,47.11689],[8.55556,47.11688],[8.55596,47.11684],[8.55618,47.11681],[8.55639,47.11675],[8.55694,47.11654],[8.55723,47.1164],[8.55827,47.1158],[8.55876,47.1152],[8.55976,47.11453],[8.5599,47.11438],[8.56,47.11423],[8.56006,47.11406],[8.56007,47.11313],[8.55996,47.11282],[8.5597,47.11237],[8.55964,47.11197],[8.5598,47.11147],[8.56006,47.11119],[8.56068,47.11082],[8.56085,47.11066],[8.56096,47.11047],[8.56103,47.11029],[8.56105,47.11023],[8.56114,47.10989],[8.56134,47.10948],[8.5614,47.1093],[8.5614,47.10911],[8.56134,47.10893],[8.56124,47.10876],[8.56108,47.1086],[8.56088,47.10848],[8.56026,47.10823],[8.56,47.10806],[8.55964,47.10777],[8.55944,47.10758],[8.55937,47.1075],[8.55924,47.10733],[8.55915,47.10701],[8.55921,47.10658],[8.55955,47.10618],[8.55984,47.10558],[8.56029,47.10517],[8.56049,47.10482],[8.56051,47.10421],[8.56087,47.10332],[8.56089,47.10327],[8.56104,47.10285],[8.56111,47.1025],[8.56137,47.10211],[8.56151,47.10167],[8.56174,47.10138],[8.56232,47.1011],[8.56273,47.10101],[8.56295,47.10092],[8.56314,47.1008],[8.56329,47.10066],[8.5638,47.10009],[8.56433,47.09978],[8.56456,47.09961],[8.56462,47.09955],[8.56472,47.09943],[8.56483,47.09929],[8.56493,47.09911],[8.56496,47.09874],[8.56484,47.09833],[8.56491,47.09798],[8.56516,47.09768],[8.56551,47.09747],[8.5658,47.09721],[8.56589,47.09706],[8.56623,47.09627],[8.56676,47.09557],[8.56695,47.09489],[8.5672,47.09428],[8.56756,47.09384],[8.56805,47.09357],[8.56895,47.09323],[8.56914,47.09311],[8.56941,47.09289],[8.56978,47.09264],[8.56992,47.09253],[8.57037,47.09212],[8.57049,47.09198],[8.57059,47.09179],[8.57073,47.09156],[8.57087,47.09139],[8.57116,47.09107],[8.57124,47.09099],[8.57158,47.09068],[8.57219,47.09002],[8.57235,47.08961],[8.57249,47.08942],[8.57276,47.0891],[8.57294,47.08893],[8.57319,47.08876],[8.57341,47.08858],[8.57377,47.08794],[8.57445,47.08731],[8.5749,47.08705],[8.57506,47.08692],[8.57517,47.08679],[8.57533,47.08656],[8.57547,47.08627],[8.57567,47.08598],[8.57582,47.08579],[8.57603,47.08557],[8.5761,47.08549],[8.5762,47.08537],[8.57634,47.08516],[8.57648,47.08499],[8.57679,47.08477],[8.57777,47.08443],[8.57843,47.08415],[8.57967,47.08397],[8.58023,47.08396],[8.58138,47.08405],[8.58185,47.08416],[8.58331,47.08459],[8.58373,47.08475],[8.58517,47.08545],[8.58564,47.08554],[8.58631,47.08555],[8.5875,47.08572],[8.58939,47.08622],[8.58968,47.08631],[8.59005,47.08655],[8.59028,47.08692],[8.59084,47.0886],[8.59103,47.0889],[8.59139,47.08915],[8.5921,47.08943],[8.5924,47.0896],[8.59327,47.09032],[8.59392,47.09063],[8.5946,47.0908],[8.59525,47.09115],[8.59573,47.09132],[8.59626,47.09135],[8.59677,47.09124],[8.598,47.09071],[8.59846,47.09061],[8.59964,47.09056],[8.60024,47.0906],[8.60635,47.09178],[8.60665,47.09186],[8.6072,47.09223],[8.60735,47.09256],[8.60736,47.09278],[8.60599,47.10331],[8.60604,47.10366],[8.60629,47.10397],[8.60669,47.10419],[8.60719,47.10429],[8.60805,47.1042],[8.6083,47.10421],[8.60864,47.10427],[8.60885,47.1043],[8.60907,47.10431],[8.60937,47.1043],[8.61025,47.10422],[8.61102,47.10427],[8.61191,47.10448],[8.61194,47.10448],[8.61336,47.10479],[8.61352,47.10482],[8.6139,47.10487],[8.61421,47.10492],[8.61458,47.10501],[8.61512,47.10527],[8.61592,47.10546],[8.61631,47.10567],[8.61661,47.10613],[8.61651,47.10663],[8.61622,47.10691],[8.61574,47.10719],[8.61549,47.10753],[8.61531,47.1082],[8.61541,47.10854],[8.61539,47.10888],[8.61517,47.1092],[8.61479,47.10943],[8.61402,47.10956],[8.61294,47.10948],[8.61247,47.10937],[8.61197,47.10937],[8.6115,47.10951],[8.61114,47.10975],[8.61095,47.11007],[8.61087,47.11053],[8.61091,47.11088],[8.61075,47.11134],[8.61025,47.11181],[8.6101,47.1123],[8.61027,47.1131],[8.61061,47.11371],[8.6109,47.11398],[8.61129,47.11416],[8.61178,47.11429],[8.61244,47.11429],[8.61303,47.11433],[8.61355,47.11424],[8.6142,47.11395],[8.6148,47.11386],[8.61538,47.11384],[8.6162,47.11371],[8.61641,47.1137],[8.61702,47.11374],[8.61727,47.11377],[8.61772,47.11393],[8.61804,47.11419],[8.6182,47.11452],[8.61816,47.11486],[8.61794,47.11517],[8.61757,47.1154],[8.61706,47.11558],[8.61651,47.11584],[8.61613,47.11609],[8.61552,47.11637],[8.61507,47.11661],[8.61433,47.11694],[8.61372,47.11714],[8.61329,47.11738],[8.61251,47.11775],[8.61153,47.11798],[8.61105,47.11802],[8.61034,47.11784],[8.60969,47.11738],[8.60934,47.11691],[8.60922,47.11656],[8.60912,47.11574],[8.60888,47.11542],[8.6087,47.11529],[8.60849,47.11519],[8.60824,47.11511],[8.60799,47.11508],[8.60716,47.1151],[8.60642,47.11524],[8.60571,47.11528],[8.60482,47.11516],[8.60454,47.11516],[8.60432,47.11516],[8.60419,47.11517],[8.60411,47.11517],[8.60403,47.11518],[8.60371,47.11525],[8.60339,47.11533],[8.60309,47.11537],[8.60297,47.11538],[8.60262,47.11538],[8.60115,47.11514],[8.60063,47.11518],[8.60017,47.11536],[8.59975,47.11581],[8.59968,47.11652],[8.59968,47.11699],[8.59974,47.11718],[8.60007,47.11763],[8.60023,47.11799],[8.60053,47.11844],[8.60057,47.11862],[8.60057,47.11894],[8.60061,47.11911],[8.60068,47.11928],[8.60104,47.11991],[8.60127,47.12021],[8.60134,47.12041],[8.60133,47.12095],[8.60147,47.12133],[8.6042,47.12741],[8.60426,47.12761],[8.60422,47.12794],[8.60412,47.12814],[8.59829,47.13649],[8.59761,47.13754],[8.59758,47.13787],[8.59783,47.13847],[8.59793,47.13864],[8.59819,47.13888],[8.59865,47.13946],[8.59872,47.1398],[8.59862,47.14029],[8.59842,47.14082],[8.59815,47.1411],[8.59798,47.14143],[8.59795,47.14206],[8.59773,47.14255],[8.59757,47.14326],[8.59779,47.14405],[8.59806,47.1444],[8.59822,47.14509],[8.59813,47.1454],[8.5979,47.14579],[8.59761,47.14606],[8.59725,47.14626],[8.59681,47.14663],[8.59593,47.14761],[8.59583,47.14795],[8.5959,47.14826],[8.59586,47.1486],[8.59575,47.14879],[8.59505,47.14977],[8.59487,47.14996],[8.59447,47.1502],[8.59397,47.15031],[8.5931,47.15025],[8.59283,47.15026],[8.59145,47.15045],[8.59103,47.1506],[8.59032,47.15103],[8.58954,47.15166],[8.58922,47.15205],[8.58865,47.15257],[8.58843,47.15283],[8.58777,47.15325],[8.58724,47.15335],[8.58697,47.15334],[8.58613,47.15317],[8.58541,47.15289],[8.58536,47.15287],[8.58527,47.15285],[8.58506,47.15278],[8.58479,47.15271],[8.5837,47.15251],[8.58305,47.15228],[8.58259,47.15193],[8.58231,47.15161],[8.58188,47.15138],[8.58108,47.15122],[8.58019,47.15091],[8.57956,47.15084],[8.5786,47.15085],[8.57788,47.15094],[8.57724,47.15093],[8.57678,47.151],[8.57619,47.15127],[8.57542,47.15143],[8.5749,47.1514],[8.57443,47.15127],[8.57357,47.15087],[8.57299,47.1507],[8.57254,47.15067],[8.57184,47.15076],[8.5712,47.15077],[8.57013,47.15096],[8.56961,47.15099],[8.56904,47.1509],[8.56821,47.15065],[8.56756,47.15023],[8.56687,47.14959],[8.56667,47.14926],[8.56613,47.14889],[8.56564,47.14879],[8.5649,47.14888],[8.5645,47.1491],[8.56425,47.14941],[8.56417,47.14977],[8.56394,47.15051],[8.56393,47.15055],[8.56391,47.15063],[8.56387,47.15075],[8.56377,47.15096],[8.56365,47.15111],[8.56308,47.15143],[8.56259,47.1515],[8.56176,47.15134],[8.56129,47.15109],[8.56087,47.15095],[8.5604,47.15091],[8.55981,47.151],[8.55931,47.15098],[8.55886,47.15085],[8.55852,47.1506],[8.55827,47.15023],[8.55797,47.14996],[8.55738,47.14961],[8.55702,47.14946],[8.55586,47.14888],[8.55519,47.14874],[8.55475,47.14855],[8.5539,47.14784],[8.55336,47.14744],[8.55153,47.14637],[8.54993,47.14555],[8.54992,47.14555],[8.54973,47.14545],[8.5495,47.1453],[8.54916,47.14492],[8.54858,47.14461],[8.54783,47.14448],[8.54716,47.14418],[8.54616,47.14395],[8.54533,47.14353],[8.54512,47.14337],[8.54489,47.14304],[8.54477,47.14262],[8.54466,47.14246],[8.54451,47.14232],[8.54444,47.14228],[8.54437,47.14221],[8.54424,47.14202],[8.54421,47.14198],[8.54413,47.14185],[8.54362,47.1413],[8.54352,47.14111],[8.54348,47.14083],[8.54338,47.14035],[8.54324,47.13973],[8.54326,47.13914],[8.54325,47.139],[8.54321,47.13887],[8.54292,47.13819],[8.54292,47.13817],[8.54226,47.13671],[8.54219,47.13651],[8.5421,47.13609],[8.54208,47.13593],[8.54208,47.13586],[8.542,47.13544],[8.54201,47.13534],[8.54196,47.13513],[8.54178,47.13465],[8.54174,47.13444],[8.54172,47.13412]]]},"properties":{"bfs_nr":1709,"name":"Unter\u00e4geri"}},{"type":"Feature","geometry":{"type":"Polygon","coordinates":[[[8.4937,47.11295],[8.49309,47.10079],[8.49327,47.10026],[8.49385,47.0999],[8.52121,47.09018],[8.52152,47.09009],[8.52204,47.09007],[8.52253,47.09018],[8.52325,47.09046],[8.52407,47.09056],[8.52452,47.09076],[8.52514,47.09133],[8.52582,47.09159],[8.52669,47.09166],[8.52777,47.09163],[8.5285,47.09167],[8.52932,47.09162],[8.53008,47.09164],[8.5306,47.09156],[8.53107,47.09156],[8.53168,47.09167],[8.53216,47.09169],[8.53326,47.09184],[8.53411,47.09205],[8.53537,47.09208],[8.53578,47.092],[8.53643,47.09181],[8.53697,47.09179],[8.53761,47.0919],[8.53816,47.09192],[8.5391,47.09205],[8.53981,47.09206],[8.54041,47.09222],[8.54097,47.09264],[8.5416,47.09297],[8.54241,47.09347],[8.54271,47.09369],[8.54405,47.09433],[8.54452,47.0944],[8.54568,47.09437],[8.54615,47.09429],[8.54697,47.09388],[8.54756,47.09373],[8.5482,47.09376],[8.54873,47.09371],[8.54992,47.09371],[8.55064,47.09384],[8.5514,47.09385],[8.55208,47.09398],[8.55291,47.09399],[8.55589,47.09348],[8.55642,47.09351],[8.5581,47.09389],[8.55866,47.09394],[8.55945,47.09389],[8.5603,47.09379],[8.56154,47.09369],[8.56223,47.09373],[8.56293,47.0937],[8.56343,47.09377],[8.56401,47.09411],[8.5642,47.09444],[8.56427,47.09481],[8.56438,47.09499],[8.56455,47.09514],[8.5658,47.0959],[8.56603,47.0962],[8.56608,47.09654],[8.56602,47.09675],[8.56592,47.09698],[8.5658,47.09718],[8.56566,47.09733],[8.565,47.09778],[8.5648,47.09813],[8.56479,47.09831],[8.56494,47.09875],[8.56491,47.09913],[8.56479,47.09934],[8.56475,47.0994],[8.5646,47.09956],[8.56426,47.09981],[8.56386,47.10004],[8.56355,47.10029],[8.56331,47.10062],[8.5631,47.1008],[8.56264,47.10102],[8.56209,47.10112],[8.56175,47.10124],[8.56134,47.1015],[8.56114,47.10186],[8.56113,47.1022],[8.56107,47.1026],[8.56102,47.1029],[8.5609,47.10326],[8.56087,47.10333],[8.5605,47.1042],[8.56049,47.10482],[8.56029,47.10516],[8.55983,47.10558],[8.55957,47.1061],[8.55931,47.10637],[8.55912,47.10674],[8.55912,47.10693],[8.55921,47.10729],[8.55933,47.10746],[8.55947,47.10762],[8.5596,47.10774],[8.56004,47.1081],[8.56025,47.10823],[8.56086,47.10848],[8.56121,47.10874],[8.56139,47.10907],[8.56136,47.10942],[8.56116,47.10983],[8.56098,47.11042],[8.56084,47.11065],[8.56068,47.11082],[8.56005,47.11119],[8.55979,47.11146],[8.55964,47.11197],[8.5597,47.11237],[8.55994,47.11278],[8.56006,47.11313],[8.56005,47.11406],[8.5599,47.11438],[8.55875,47.1152],[8.55826,47.11579],[8.55729,47.11636],[8.55686,47.11657],[8.55644,47.11673],[8.55618,47.1168],[8.5559,47.11685],[8.55557,47.11688],[8.55547,47.11689],[8.55489,47.11692],[8.55471,47.11693],[8.55443,47.11693],[8.55413,47.11695],[8.55385,47.11702],[8.55368,47.11708],[8.55349,47.11715],[8.55296,47.11729],[8.55283,47.11731],[8.55258,47.11734],[8.55159,47.1173],[8.55131,47.1173],[8.5509,47.11734],[8.55075,47.11735],[8.55039,47.11737],[8.54983,47.11734],[8.54958,47.11734],[8.54934,47.11738],[8.54911,47.11744],[8.5489,47.11754],[8.54783,47.11834],[8.54732,47.11907],[8.54692,47.1195],[8.54678,47.11969],[8.5467,47.11989],[8.54665,47.12021],[8.54662,47.12086],[8.54651,47.12108],[8.54605,47.12153],[8.54572,47.12179],[8.54561,47.12189],[8.54539,47.12212],[8.5452,47.12239],[8.54483,47.12268],[8.54459,47.12277],[8.54371,47.12294],[8.54242,47.12291],[8.54176,47.12278],[8.54152,47.12275],[8.54029,47.12278],[8.53983,47.12269],[8.53929,47.12242],[8.5388,47.12226],[8.53788,47.12206],[8.53729,47.12205],[8.53677,47.12193],[8.53635,47.1217],[8.53594,47.12134],[8.53541,47.12106],[8.53463,47.12095],[8.53412,47.12107],[8.5339,47.12117],[8.53372,47.12131],[8.53358,47.12147],[8.53331,47.12186],[8.53322,47.12206],[8.53289,47.12319],[8.53259,47.12425],[8.53245,47.12456],[8.5324,47.12463],[8.53201,47.12533],[8.532,47.12534],[8.53117,47.12675],[8.53102,47.12695],[8.53065,47.1272],[8.53017,47.12733],[8.52984,47.12735],[8.52737,47.12733],[8.52609,47.12732],[8.52544,47.12738],[8.52496,47.12733],[8.52385,47.12691],[8.52311,47.1266],[8.52261,47.12656],[8.52212,47.12665],[8.5219,47.12674],[8.52138,47.12708],[8.52116,47.12719],[8.52047,47.12745],[8.52017,47.12754],[8.51985,47.12758],[8.51982,47.12759],[8.51955,47.12759],[8.51928,47.12757],[8.51812,47.12739],[8.51767,47.12719],[8.51745,47.127],[8.51622,47.12569],[8.51603,47.12553],[8.5158,47.12541],[8.51553,47.12532],[8.5145,47.12509],[8.51406,47.12499],[8.51404,47.12499],[8.51393,47.12497],[8.51369,47.12494],[8.51344,47.12494],[8.51289,47.12503],[8.51178,47.12532],[8.5117,47.12534],[8.51135,47.12542],[8.51102,47.12547],[8.51048,47.12543],[8.50959,47.12509],[8.50928,47.12481],[8.50914,47.12447],[8.50913,47.12324],[8.50895,47.1229],[8.50859,47.12264],[8.50836,47.12254],[8.50796,47.12235],[8.5074,47.12197],[8.50706,47.12161],[8.50689,47.12127],[8.50656,47.12067],[8.50654,47.12031],[8.50663,47.11988],[8.50651,47.11958],[8.50606,47.11909],[8.50567,47.11872],[8.50541,47.11853],[8.50527,47.11838],[8.50505,47.11802],[8.50465,47.11761],[8.50387,47.11707],[8.50331,47.11676],[8.50305,47.1166],[8.50271,47.11624],[8.5026,47.11597],[8.50249,47.11578],[8.50233,47.11562],[8.50168,47.11522],[8.50115,47.11505],[8.50024,47.11456],[8.49975,47.11443],[8.49487,47.11386],[8.49456,47.1138],[8.49433,47.11373],[8.49396,47.11349],[8.49375,47.11317],[8.4937,47.11295]]]},"properties":{"bfs_nr":1710,"name":"Walchwil"}},{"type":"Feature","geometry":{"type":"MultiPolygon","coordinates":[[[[8.56268,47.08306],[8.56265,47.08269],[8.56299,47.08204],[8.56348,47.08168],[8.5639,47.08153],[8.56467,47.08136],[8.56515,47.08116],[8.56571,47.08104],[8.5663,47.08103],[8.56789,47.08111],[8.56839,47.08111],[8.56925,47.08122],[8.56973,47.0814],[8.57005,47.08161],[8.57045,47.08175],[8.57149,47.08193],[8.57248,47.08197],[8.57349,47.08205],[8.57427,47.08227],[8.57451,47.0824],[8.57636,47.08365],[8.57668,47.08396],[8.57679,47.08429],[8.57671,47.08462],[8.57649,47.08493],[8.57623,47.08533],[8.57608,47.08552],[8.57603,47.08557],[8.57579,47.08582],[8.57569,47.08594],[8.57545,47.08631],[8.57535,47.0865],[8.57512,47.08685],[8.57509,47.08688],[8.5749,47.08705],[8.57444,47.08731],[8.57376,47.08794],[8.57341,47.08857],[8.57302,47.08887],[8.57279,47.08906],[8.57246,47.08945],[8.57235,47.08961],[8.57218,47.09002],[8.57156,47.0907],[8.57123,47.091],[8.57117,47.09106],[8.57085,47.0914],[8.5708,47.09147],[8.5707,47.09159],[8.57048,47.09198],[8.57033,47.09215],[8.56995,47.0925],[8.56974,47.09266],[8.56943,47.09287],[8.56918,47.09308],[8.56895,47.09323],[8.56776,47.09366],[8.56739,47.09392],[8.56718,47.09424],[8.56691,47.09488],[8.56658,47.09523],[8.56614,47.09543],[8.56562,47.0955],[8.56511,47.09542],[8.56458,47.09516],[8.56432,47.09487],[8.56424,47.09458],[8.5641,47.09389],[8.56404,47.09336],[8.56388,47.09299],[8.56354,47.09254],[8.56351,47.09221],[8.56362,47.09186],[8.56372,47.09084],[8.56372,47.09003],[8.56384,47.08956],[8.56385,47.08877],[8.56411,47.08805],[8.56437,47.08764],[8.56475,47.08721],[8.5648,47.08685],[8.56463,47.0865],[8.56381,47.08561],[8.56349,47.08506],[8.5634,47.08458],[8.56323,47.08409],[8.56282,47.08354],[8.56268,47.08306]]],[[[8.47538,47.18174],[8.47552,47.18105],[8.47553,47.18085],[8.47387,47.16771],[8.47401,47.16718],[8.48918,47.14463],[8.48927,47.14447],[8.4893,47.1443],[8.48929,47.14413],[8.48923,47.14396],[8.48062,47.12681],[8.48055,47.1266],[8.48058,47.12626],[8.48082,47.12591],[8.49323,47.11422],[8.49383,47.11388],[8.49461,47.11383],[8.49963,47.11441],[8.50025,47.11458],[8.50066,47.11484],[8.50124,47.1151],[8.50175,47.11526],[8.5022,47.11554],[8.50242,47.11573],[8.50255,47.1159],[8.50272,47.11627],[8.50293,47.1165],[8.50309,47.11664],[8.5035,47.11689],[8.50373,47.117],[8.50467,47.11767],[8.5051,47.11811],[8.50521,47.11831],[8.50534,47.11848],[8.50604,47.11908],[8.50645,47.11958],[8.5065,47.11994],[8.5064,47.12036],[8.5065,47.1207],[8.50665,47.12089],[8.50687,47.12124],[8.50706,47.12161],[8.5074,47.122],[8.50754,47.12212],[8.508,47.12238],[8.50823,47.1225],[8.50859,47.12264],[8.50895,47.12291],[8.50912,47.12325],[8.50914,47.12454],[8.50929,47.12485],[8.5096,47.1251],[8.51048,47.12543],[8.51102,47.12547],[8.51129,47.12543],[8.51171,47.12534],[8.51176,47.12532],[8.51286,47.12504],[8.51344,47.12494],[8.51369,47.12494],[8.51399,47.12498],[8.51546,47.1253],[8.51579,47.12541],[8.51603,47.12553],[8.51626,47.12573],[8.51749,47.12704],[8.51766,47.12719],[8.51812,47.12739],[8.51933,47.12757],[8.51955,47.12759],[8.51976,47.12759],[8.51992,47.12758],[8.52017,47.12754],[8.52041,47.12747],[8.52121,47.12717],[8.52139,47.12709],[8.52186,47.12678],[8.5223,47.12663],[8.52279,47.1266],[8.52327,47.1267],[8.52365,47.12689],[8.52501,47.12736],[8.5255,47.1274],[8.52628,47.12732],[8.52738,47.12733],[8.52991,47.12735],[8.53017,47.12734],[8.53042,47.12729],[8.53065,47.1272],[8.53086,47.12709],[8.53102,47.12695],[8.53115,47.12679],[8.532,47.12533],[8.53201,47.12532],[8.53239,47.12465],[8.53248,47.12451],[8.53258,47.1243],[8.53288,47.1232],[8.53289,47.12319],[8.5332,47.12211],[8.53335,47.12181],[8.53368,47.12136],[8.53405,47.12113],[8.53428,47.12105],[8.53478,47.12099],[8.53527,47.12107],[8.53589,47.12137],[8.53637,47.12179],[8.5369,47.12202],[8.53738,47.12213],[8.53795,47.12217],[8.53874,47.1223],[8.53942,47.1225],[8.53976,47.12266],[8.54017,47.12279],[8.54063,47.12281],[8.54137,47.12276],[8.54179,47.12279],[8.54253,47.12298],[8.54351,47.12295],[8.54425,47.12308],[8.54465,47.12332],[8.54492,47.12383],[8.5449,47.12406],[8.54484,47.12429],[8.54483,47.12435],[8.5447,47.12509],[8.5447,47.12531],[8.54478,47.12551],[8.54491,47.12576],[8.54507,47.12613],[8.54522,47.12644],[8.54526,47.12662],[8.54524,47.1268],[8.54517,47.12697],[8.54505,47.12713],[8.54484,47.12731],[8.54392,47.12797],[8.5438,47.12811],[8.54362,47.12839],[8.54353,47.12857],[8.5435,47.12877],[8.5435,47.12944],[8.54354,47.12965],[8.54364,47.13001],[8.54362,47.13019],[8.54343,47.13054],[8.54295,47.13092],[8.54282,47.1311],[8.54275,47.13129],[8.54277,47.13166],[8.54275,47.13183],[8.54266,47.13204],[8.54246,47.13236],[8.54237,47.13259],[8.54235,47.13274],[8.54225,47.13302],[8.54208,47.13334],[8.54197,47.13352],[8.54179,47.13373],[8.54172,47.1339],[8.54169,47.13422],[8.54172,47.13443],[8.5418,47.13474],[8.54196,47.13515],[8.5421,47.13606],[8.5422,47.13655],[8.54225,47.13668],[8.54292,47.13818],[8.54293,47.1382],[8.5432,47.13884],[8.54325,47.139],[8.54326,47.13917],[8.54324,47.13978],[8.54327,47.14],[8.54338,47.14037],[8.54347,47.1408],[8.54352,47.14115],[8.54361,47.14132],[8.54416,47.1419],[8.54422,47.14198],[8.54423,47.14201],[8.5444,47.14224],[8.54473,47.14263],[8.54488,47.1431],[8.54511,47.1434],[8.54528,47.14352],[8.54615,47.14396],[8.54717,47.14419],[8.54777,47.14447],[8.54833,47.14459],[8.54877,47.14479],[8.5493,47.14522],[8.54992,47.14555],[8.54993,47.14555],[8.55151,47.14637],[8.55333,47.14742],[8.55391,47.14785],[8.55476,47.14858],[8.55519,47.14877],[8.55598,47.14896],[8.55627,47.14913],[8.55734,47.14961],[8.55801,47.15],[8.55822,47.15025],[8.5583,47.15062],[8.5582,47.15099],[8.55787,47.15136],[8.55777,47.15154],[8.55765,47.15185],[8.55764,47.15188],[8.55731,47.15267],[8.5573,47.15269],[8.55672,47.15402],[8.55672,47.15403],[8.55653,47.15448],[8.55652,47.15449],[8.5557,47.15642],[8.55559,47.15662],[8.55529,47.15688],[8.55487,47.15705],[8.55414,47.15709],[8.5536,47.15694],[8.5524,47.15663],[8.55225,47.15659],[8.55208,47.15653],[8.55182,47.15645],[8.55126,47.15637],[8.55098,47.1564],[8.55036,47.15657],[8.54928,47.15673],[8.54901,47.15674],[8.54873,47.15673],[8.54857,47.15672],[8.54827,47.15671],[8.54798,47.15675],[8.5472,47.15699],[8.54644,47.15708],[8.54594,47.15729],[8.54568,47.15736],[8.54533,47.1574],[8.54422,47.15744],[8.54397,47.15747],[8.54374,47.15752],[8.54352,47.15761],[8.54318,47.15785],[8.543,47.15816],[8.54283,47.15869],[8.54252,47.15896],[8.54168,47.15925],[8.54122,47.15965],[8.54015,47.16144],[8.54007,47.16162],[8.54007,47.16211],[8.54001,47.1623],[8.53988,47.16252],[8.53971,47.16272],[8.53954,47.16289],[8.53937,47.163],[8.53895,47.16316],[8.53796,47.1633],[8.53752,47.16347],[8.53719,47.16373],[8.53626,47.16465],[8.53614,47.16479],[8.53606,47.16495],[8.53602,47.16512],[8.53604,47.16529],[8.53615,47.16583],[8.53611,47.16626],[8.5358,47.16674],[8.53577,47.1672],[8.53587,47.16749],[8.53596,47.16763],[8.53621,47.16793],[8.53643,47.16813],[8.53677,47.16837],[8.53695,47.16847],[8.53708,47.16853],[8.53728,47.16861],[8.53751,47.16867],[8.5383,47.16883],[8.53852,47.16892],[8.53887,47.1692],[8.53897,47.16936],[8.53903,47.16972],[8.53891,47.17005],[8.53891,47.17041],[8.53908,47.17081],[8.5391,47.17105],[8.53905,47.17126],[8.53896,47.17142],[8.53864,47.17171],[8.53822,47.1719],[8.53763,47.17228],[8.53736,47.17252],[8.53709,47.17291],[8.53678,47.17317],[8.53632,47.17345],[8.5361,47.17373],[8.53584,47.17422],[8.53527,47.17459],[8.53502,47.17466],[8.53469,47.17469],[8.53406,47.17471],[8.53389,47.17472],[8.53294,47.17469],[8.53227,47.1747],[8.53178,47.17458],[8.53133,47.17439],[8.53061,47.17431],[8.53014,47.17442],[8.52966,47.1747],[8.52943,47.175],[8.52929,47.1756],[8.52929,47.17588],[8.52918,47.1762],[8.5289,47.17647],[8.52866,47.17661],[8.52804,47.17689],[8.52778,47.17699],[8.52755,47.17704],[8.52727,47.17706],[8.527,47.17711],[8.52676,47.17719],[8.52601,47.1775],[8.52569,47.17761],[8.52539,47.17767],[8.52516,47.17776],[8.52407,47.17829],[8.52367,47.17858],[8.52347,47.17892],[8.52348,47.17928],[8.52366,47.17958],[8.52422,47.18008],[8.52442,47.18054],[8.52466,47.18095],[8.52493,47.18122],[8.52532,47.18142],[8.5262,47.18166],[8.52642,47.18176],[8.527,47.1822],[8.52716,47.18239],[8.5273,47.18263],[8.52733,47.18267],[8.52739,47.18277],[8.52744,47.18287],[8.52748,47.18297],[8.52754,47.18312],[8.52758,47.18336],[8.52746,47.18373],[8.52729,47.18393],[8.52607,47.18506],[8.52564,47.18539],[8.52524,47.18583],[8.52471,47.18609],[8.52424,47.18617],[8.52376,47.18613],[8.52334,47.18597],[8.52225,47.18513],[8.52149,47.18478],[8.52117,47.18447],[8.52082,47.18348],[8.52053,47.18319],[8.5201,47.18299],[8.51958,47.18293],[8.51853,47.18301],[8.51805,47.18295],[8.51782,47.18288],[8.51757,47.18276],[8.5172,47.18255],[8.51696,47.18247],[8.51671,47.18242],[8.51645,47.18241],[8.51595,47.18249],[8.51573,47.18258],[8.51509,47.18297],[8.51482,47.18324],[8.51408,47.1837],[8.51377,47.18387],[8.51369,47.18391],[8.51357,47.18397],[8.51356,47.18397],[8.51345,47.18403],[8.51319,47.18417],[8.513,47.18429],[8.51273,47.18444],[8.51242,47.18459],[8.51195,47.18486],[8.51119,47.18517],[8.51071,47.18527],[8.50984,47.18528],[8.50936,47.18544],[8.50837,47.18594],[8.50742,47.18647],[8.50674,47.18697],[8.5063,47.1871],[8.50542,47.18724],[8.50488,47.18725],[8.50336,47.18678],[8.50296,47.18651],[8.50284,47.18634],[8.50275,47.18611],[8.50272,47.18581],[8.50281,47.18533],[8.50269,47.18499],[8.50239,47.18471],[8.50197,47.18453],[8.50138,47.18438],[8.50113,47.18433],[8.50088,47.18432],[8.50063,47.18434],[8.50039,47.18439],[8.50017,47.18447],[8.49998,47.18458],[8.49982,47.18471],[8.4995,47.18512],[8.49917,47.18536],[8.49834,47.18582],[8.49815,47.18595],[8.49791,47.18626],[8.49791,47.18678],[8.49815,47.18709],[8.49867,47.18741],[8.49894,47.18754],[8.49929,47.18772],[8.49969,47.18817],[8.49971,47.18852],[8.49953,47.18885],[8.49896,47.18919],[8.49846,47.18927],[8.49789,47.18921],[8.49667,47.18892],[8.49593,47.18884],[8.49558,47.18872],[8.49529,47.18858],[8.49501,47.18851],[8.49492,47.1885],[8.49477,47.18846],[8.49415,47.18832],[8.49412,47.18831],[8.4938,47.18823],[8.49358,47.18813],[8.49325,47.18786],[8.49303,47.18736],[8.4926,47.18698],[8.49186,47.18668],[8.49154,47.18643],[8.49128,47.18612],[8.49084,47.18587],[8.48944,47.18539],[8.4892,47.18533],[8.48895,47.1853],[8.48844,47.18534],[8.48799,47.18552],[8.48767,47.18579],[8.48729,47.18632],[8.48668,47.18658],[8.48577,47.18667],[8.48546,47.18668],[8.48498,47.1866],[8.48458,47.18641],[8.48438,47.18625],[8.48432,47.18619],[8.48424,47.18613],[8.48421,47.1861],[8.48412,47.18604],[8.48409,47.18603],[8.48399,47.18597],[8.48394,47.18595],[8.48385,47.18591],[8.48375,47.18587],[8.48364,47.18583],[8.48346,47.18579],[8.48274,47.18563],[8.48259,47.1856],[8.48215,47.18556],[8.48198,47.18552],[8.48133,47.18533],[8.4812,47.18528],[8.48106,47.18523],[8.48091,47.18518],[8.48071,47.18509],[8.48046,47.18501],[8.47992,47.18496],[8.47925,47.18504],[8.47871,47.18514],[8.4778,47.18523],[8.4773,47.18514],[8.47688,47.18493],[8.47669,47.18476],[8.476,47.18397],[8.47584,47.18373],[8.47577,47.18348],[8.47565,47.18253],[8.4754,47.18212],[8.47538,47.18174]]]]},"properties":{"bfs_nr":1711,"name":"Zug"}}]}