{"type":"FeatureCollection","features":[{"type":"Feature","geometry":{"type":"Polygon","coordinates":[[[9.37308,47.32523],[9.37328,47.32461],[9.37416,47.32364],[9.37463,47.32332],[9.37495,47.32281],[9.37549,47.32221],[9.37563,47.32188],[9.37563,47.32129],[9.37585,47.32096],[9.37669,47.32043],[9.37716,47.31983],[9.37732,47.3195],[9.37776,47.31909],[9.37793,47.31878],[9.37808,47.31823],[9.3786,47.31767],[9.37934,47.31713],[9.37983,47.31686],[9.38027,47.31639],[9.38046,47.31608],[9.38079,47.31579],[9.38149,47.31551],[9.3819,47.31523],[9.38227,47.31472],[9.38225,47.31405],[9.38244,47.31349],[9.38246,47.3134],[9.38247,47.31335],[9.38249,47.313],[9.38267,47.31259],[9.38264,47.31219],[9.38244,47.31168],[9.38251,47.31133],[9.38247,47.31102],[9.38209,47.31019],[9.38129,47.30939],[9.38114,47.30903],[9.38114,47.30849],[9.381,47.30821],[9.38085,47.30745],[9.38093,47.30712],[9.38106,47.30683],[9.38109,47.30675],[9.38117,47.3066],[9.38125,47.30641],[9.3812,47.30559],[9.38137,47.30506],[9.38166,47.30477],[9.38208,47.30458],[9.38258,47.30451],[9.38314,47.30459],[9.38399,47.30482],[9.38412,47.30486],[9.38507,47.30518],[9.38519,47.30523],[9.38585,47.30549],[9.38595,47.30553],[9.38651,47.30571],[9.38661,47.30574],[9.3874,47.30594],[9.38741,47.30595],[9.38866,47.30626],[9.38872,47.30627],[9.39011,47.30657],[9.39146,47.30691],[9.39219,47.30705],[9.39281,47.30728],[9.39354,47.3077],[9.39397,47.3081],[9.39428,47.30857],[9.39443,47.30875],[9.39464,47.3089],[9.39488,47.30901],[9.39505,47.30907],[9.39685,47.30977],[9.39709,47.30984],[9.39865,47.3102],[9.39915,47.31037],[9.40008,47.31081],[9.40063,47.31099],[9.40126,47.31108],[9.4019,47.31121],[9.40317,47.31132],[9.40402,47.31144],[9.40455,47.31157],[9.40491,47.3118],[9.40504,47.31194],[9.40513,47.3121],[9.40518,47.31236],[9.40516,47.31263],[9.40495,47.31312],[9.40487,47.31357],[9.40487,47.31376],[9.40492,47.31394],[9.4052,47.31433],[9.40531,47.31463],[9.40533,47.31503],[9.40554,47.31547],[9.40582,47.31578],[9.40618,47.31632],[9.40628,47.3167],[9.40649,47.31711],[9.40668,47.31774],[9.40686,47.31805],[9.4072,47.3183],[9.40772,47.3185],[9.40819,47.31874],[9.40844,47.31882],[9.40894,47.31888],[9.40942,47.31903],[9.4102,47.31947],[9.41085,47.31966],[9.41186,47.32017],[9.41217,47.3204],[9.41253,47.32085],[9.41301,47.32128],[9.41322,47.32159],[9.41321,47.32212],[9.41285,47.32301],[9.41273,47.32334],[9.4128,47.32368],[9.41312,47.32419],[9.41316,47.3245],[9.41308,47.32482],[9.41283,47.32521],[9.41267,47.32568],[9.41236,47.32596],[9.41173,47.32632],[9.4115,47.32661],[9.41141,47.32717],[9.41133,47.32736],[9.41079,47.32835],[9.41078,47.32837],[9.41075,47.32843],[9.41068,47.32861],[9.41073,47.32899],[9.41107,47.3294],[9.41162,47.32975],[9.41187,47.33007],[9.41198,47.3304],[9.4123,47.33072],[9.41298,47.33106],[9.41325,47.33137],[9.41332,47.33173],[9.41317,47.33207],[9.4127,47.33247],[9.41248,47.33296],[9.41257,47.3333],[9.41284,47.33359],[9.41326,47.33379],[9.41411,47.33401],[9.41451,47.33406],[9.41457,47.33407],[9.41463,47.33407],[9.41483,47.33409],[9.41494,47.33409],[9.415,47.33409],[9.41534,47.33408],[9.41607,47.334],[9.41658,47.33409],[9.41737,47.33449],[9.41807,47.33479],[9.41857,47.33516],[9.41909,47.33572],[9.41945,47.33594],[9.42035,47.33628],[9.42112,47.33638],[9.42171,47.33662],[9.42256,47.3369],[9.42369,47.33717],[9.42453,47.33764],[9.42487,47.33814],[9.42532,47.33851],[9.42644,47.33884],[9.42691,47.33902],[9.42736,47.33908],[9.42798,47.33901],[9.42846,47.33886],[9.42897,47.33883],[9.42956,47.33891],[9.43029,47.33914],[9.43093,47.33925],[9.43143,47.3392],[9.43187,47.33905],[9.43236,47.33897],[9.4341,47.33892],[9.43453,47.3388],[9.43515,47.33874],[9.43566,47.33864],[9.43623,47.3386],[9.437,47.33868],[9.43744,47.33878],[9.43783,47.33895],[9.43835,47.33909],[9.43905,47.33915],[9.44058,47.33958],[9.44178,47.33987],[9.44276,47.34005],[9.44339,47.34025],[9.44397,47.34034],[9.44468,47.34036],[9.4452,47.3405],[9.44584,47.34057],[9.44645,47.34069],[9.44714,47.34069],[9.44762,47.34077],[9.44807,47.34099],[9.44943,47.34194],[9.44946,47.34196],[9.45072,47.34278],[9.45094,47.3429],[9.45119,47.34298],[9.45145,47.34302],[9.45427,47.34328],[9.45432,47.34329],[9.45602,47.3434],[9.4563,47.34343],[9.46095,47.3442],[9.46151,47.34437],[9.46241,47.3448],[9.4626,47.34488],[9.46282,47.34493],[9.46304,47.34496],[9.4646,47.34507],[9.46514,47.34518],[9.46555,47.34534],[9.46632,47.34539],[9.4668,47.34525],[9.46733,47.34495],[9.46762,47.34487],[9.4691,47.34453],[9.46977,47.34449],[9.47014,47.34455],[9.47301,47.34531],[9.47351,47.34552],[9.4738,47.34581],[9.47388,47.34634],[9.47351,47.3468],[9.47306,47.347],[9.47248,47.34706],[9.4718,47.34703],[9.46783,47.34663],[9.46752,47.34658],[9.46698,47.34637],[9.46645,47.3463],[9.46617,47.34631],[9.46567,47.34647],[9.46333,47.34793],[9.45993,47.34998],[9.45956,47.35016],[9.45593,47.35151],[9.45034,47.354],[9.44999,47.35423],[9.44969,47.35455],[9.44924,47.3548],[9.44832,47.35503],[9.44769,47.35543],[9.44699,47.35599],[9.4465,47.35616],[9.44591,47.35622],[9.44547,47.35635],[9.4451,47.35658],[9.44462,47.35674],[9.44409,47.35676],[9.44376,47.35671],[9.44267,47.35632],[9.44194,47.35632],[9.4415,47.35647],[9.4406,47.35695],[9.44036,47.35703],[9.43981,47.35709],[9.43894,47.35688],[9.4384,47.35686],[9.43789,47.35697],[9.43736,47.35738],[9.43587,47.35964],[9.43552,47.35998],[9.43505,47.36016],[9.43444,47.3602],[9.43253,47.36008],[9.43177,47.36018],[9.43123,47.36047],[9.43072,47.3606],[9.43018,47.36064],[9.4297,47.36081],[9.42929,47.36107],[9.42908,47.36115],[9.42858,47.36124],[9.42838,47.36125],[9.42805,47.36126],[9.42775,47.36127],[9.42756,47.36126],[9.42753,47.36126],[9.4274,47.36126],[9.42685,47.36118],[9.42678,47.36116],[9.42674,47.36115],[9.42649,47.36109],[9.42641,47.36106],[9.42624,47.36101],[9.42571,47.36088],[9.42526,47.36075],[9.42483,47.36066],[9.42454,47.36055],[9.42419,47.36038],[9.42396,47.36021],[9.42298,47.35931],[9.42281,47.35918],[9.4226,47.35908],[9.42213,47.35888],[9.42091,47.35852],[9.42047,47.35844],[9.42008,47.35826],[9.41962,47.35793],[9.41917,47.35778],[9.41857,47.35773],[9.4175,47.35747],[9.41696,47.35749],[9.41643,47.35761],[9.41543,47.35759],[9.41497,47.35742],[9.41463,47.35715],[9.41427,47.35649],[9.41423,47.35603],[9.41398,47.35565],[9.4134,47.35534],[9.41196,47.35505],[9.4113,47.35478],[9.41049,47.35452],[9.41012,47.35436],[9.40965,47.35405],[9.40919,47.35391],[9.40814,47.35386],[9.40769,47.35371],[9.40723,47.35331],[9.40709,47.35302],[9.40674,47.35274],[9.4059,47.35237],[9.40526,47.35223],[9.40463,47.35222],[9.40397,47.35202],[9.40335,47.3519],[9.40243,47.35158],[9.40188,47.35145],[9.40154,47.35134],[9.40131,47.35124],[9.40063,47.35098],[9.40027,47.35078],[9.39975,47.3503],[9.39957,47.35006],[9.39909,47.34961],[9.39868,47.34936],[9.39788,47.34911],[9.39705,47.34863],[9.39683,47.34834],[9.39663,47.34741],[9.3967,47.3471],[9.3972,47.34649],[9.3973,47.34629],[9.39744,47.34591],[9.39748,47.34574],[9.39763,47.34461],[9.39756,47.34395],[9.39738,47.34362],[9.39722,47.34348],[9.39703,47.34337],[9.39697,47.34334],[9.3968,47.34327],[9.39647,47.34316],[9.39588,47.34298],[9.39563,47.3429],[9.39549,47.34285],[9.39522,47.34274],[9.39503,47.34261],[9.39488,47.34247],[9.39478,47.3423],[9.39472,47.34213],[9.39471,47.34185],[9.39486,47.34122],[9.39516,47.3409],[9.39546,47.34072],[9.39565,47.34059],[9.39579,47.34044],[9.39588,47.34027],[9.39593,47.34008],[9.39591,47.3399],[9.39584,47.33972],[9.39572,47.33956],[9.39556,47.33942],[9.39549,47.33937],[9.39526,47.33923],[9.395,47.33908],[9.39447,47.33881],[9.3942,47.33852],[9.39394,47.33791],[9.3939,47.33768],[9.39371,47.33739],[9.39342,47.33717],[9.39302,47.33697],[9.39253,47.33683],[9.39194,47.33645],[9.3917,47.33634],[9.39161,47.33631],[9.39128,47.33624],[9.39094,47.33619],[9.3907,47.33612],[9.3899,47.33577],[9.38933,47.33545],[9.3883,47.33515],[9.38796,47.33511],[9.38712,47.33516],[9.38658,47.33513],[9.38605,47.33501],[9.38541,47.33462],[9.38512,47.3345],[9.38461,47.33442],[9.38396,47.33445],[9.3833,47.33438],[9.38236,47.3345],[9.38188,47.33443],[9.38142,47.33424],[9.38087,47.33409],[9.38044,47.33385],[9.38029,47.33369],[9.3801,47.33332],[9.38,47.33277],[9.37948,47.33212],[9.37938,47.33177],[9.37941,47.33138],[9.37914,47.3308],[9.37905,47.33037],[9.37882,47.33002],[9.3784,47.32977],[9.37712,47.32938],[9.37684,47.32924],[9.3762,47.32882],[9.3757,47.32864],[9.37535,47.32839],[9.37512,47.3281],[9.37459,47.32775],[9.37419,47.32714],[9.37392,47.32685],[9.37365,47.32639],[9.37328,47.32611],[9.37304,47.32578],[9.37308,47.32523]]]},"properties":{"bfs_nr":3101,"name":"Appenzell"}},{"type":"Feature","geometry":{"type":"Polygon","coordinates":[[[9.31008,47.32277],[9.30995,47.32256],[9.30988,47.32222],[9.31001,47.32189],[9.31031,47.32161],[9.31075,47.32143],[9.31146,47.32133],[9.31203,47.3213],[9.31269,47.32136],[9.31345,47.32118],[9.3138,47.3209],[9.31396,47.32055],[9.31417,47.31969],[9.31445,47.3192],[9.31498,47.31883],[9.31567,47.31819],[9.31578,47.31801],[9.31612,47.31688],[9.3165,47.31636],[9.31657,47.316],[9.31641,47.31565],[9.31608,47.31531],[9.31597,47.31499],[9.31603,47.31466],[9.31629,47.31408],[9.31613,47.31361],[9.31584,47.3132],[9.31583,47.31287],[9.31611,47.31217],[9.3165,47.31151],[9.31711,47.31079],[9.31779,47.30988],[9.31783,47.30955],[9.31758,47.30909],[9.31676,47.3085],[9.31603,47.30785],[9.31506,47.30638],[9.31505,47.30594],[9.31533,47.30488],[9.31542,47.30465],[9.3165,47.3027],[9.3168,47.30227],[9.31686,47.30194],[9.31674,47.30161],[9.31608,47.30095],[9.31578,47.30016],[9.31512,47.29941],[9.31478,47.29892],[9.3147,47.29868],[9.3146,47.29791],[9.31401,47.2971],[9.31341,47.29659],[9.31313,47.29611],[9.31313,47.29546],[9.3129,47.29485],[9.31291,47.2944],[9.31281,47.29401],[9.31291,47.29365],[9.31343,47.29304],[9.31355,47.29274],[9.31347,47.2921],[9.31363,47.29151],[9.31415,47.29104],[9.31438,47.29069],[9.31448,47.29023],[9.31489,47.28978],[9.31521,47.28956],[9.3157,47.28939],[9.31639,47.28935],[9.31741,47.28914],[9.31782,47.28892],[9.31826,47.28851],[9.31847,47.28816],[9.31852,47.28759],[9.31875,47.28724],[9.31884,47.28687],[9.31877,47.28651],[9.31898,47.28582],[9.31946,47.2853],[9.31988,47.28493],[9.32062,47.28446],[9.32122,47.28428],[9.32158,47.28409],[9.32204,47.28369],[9.32305,47.28321],[9.32356,47.28312],[9.32428,47.28315],[9.32492,47.2834],[9.32523,47.28369],[9.32558,47.2839],[9.32606,47.28404],[9.32627,47.28414],[9.32648,47.28427],[9.32676,47.28448],[9.3269,47.28459],[9.32732,47.28499],[9.32756,47.28533],[9.32766,47.28563],[9.32817,47.28612],[9.32837,47.28642],[9.32839,47.28704],[9.3286,47.28754],[9.32883,47.28784],[9.32928,47.28818],[9.32941,47.28834],[9.32948,47.28851],[9.32959,47.28933],[9.32946,47.28989],[9.32918,47.2903],[9.32907,47.29085],[9.32919,47.29117],[9.32948,47.29144],[9.32967,47.29155],[9.32989,47.29162],[9.33048,47.29179],[9.33069,47.29185],[9.33113,47.29202],[9.3319,47.29226],[9.33277,47.29248],[9.33401,47.29295],[9.33463,47.29308],[9.33521,47.29315],[9.33572,47.29329],[9.33647,47.29346],[9.33674,47.29355],[9.33721,47.2938],[9.33793,47.29408],[9.33851,47.29424],[9.33889,47.29445],[9.33924,47.29475],[9.33991,47.29499],[9.34088,47.29515],[9.34171,47.29536],[9.34222,47.29555],[9.34296,47.29594],[9.34309,47.29601],[9.34529,47.29736],[9.34555,47.29748],[9.34585,47.29756],[9.34614,47.29761],[9.34649,47.29764],[9.34854,47.29761],[9.34931,47.29773],[9.35176,47.29847],[9.35238,47.2988],[9.35322,47.29952],[9.35337,47.29963],[9.35354,47.29972],[9.35593,47.30052],[9.3565,47.30075],[9.35683,47.30102],[9.35703,47.30141],[9.35731,47.3017],[9.35773,47.30189],[9.35878,47.30219],[9.35879,47.30219],[9.35947,47.30238],[9.35958,47.30242],[9.36003,47.30257],[9.36012,47.30259],[9.36089,47.3028],[9.36122,47.30292],[9.36172,47.30321],[9.36216,47.30334],[9.3629,47.30338],[9.36354,47.30355],[9.36464,47.30377],[9.36581,47.30411],[9.36602,47.30416],[9.36704,47.30433],[9.36756,47.30435],[9.36818,47.30424],[9.36877,47.30423],[9.36949,47.30432],[9.37005,47.30442],[9.37096,47.30458],[9.37133,47.30462],[9.37169,47.30461],[9.37247,47.30476],[9.37424,47.30507],[9.37452,47.3051],[9.37483,47.3051],[9.37533,47.30502],[9.3766,47.305],[9.37707,47.30503],[9.37823,47.30523],[9.37888,47.30527],[9.38003,47.3054],[9.38057,47.30553],[9.38095,47.30576],[9.38117,47.30607],[9.3812,47.30642],[9.38114,47.30661],[9.38102,47.30692],[9.38097,47.30699],[9.38088,47.30718],[9.3808,47.30746],[9.38088,47.30822],[9.38106,47.30862],[9.38109,47.30903],[9.38121,47.30933],[9.38167,47.30982],[9.3821,47.31035],[9.38229,47.31086],[9.38236,47.31131],[9.38227,47.31163],[9.38229,47.31199],[9.38251,47.31245],[9.38244,47.31314],[9.38246,47.31341],[9.38222,47.31398],[9.38221,47.3146],[9.38188,47.31518],[9.38154,47.31542],[9.38101,47.31563],[9.38068,47.31583],[9.38039,47.31612],[9.38021,47.31645],[9.37967,47.31691],[9.37907,47.31719],[9.37844,47.31769],[9.37794,47.31803],[9.37777,47.31838],[9.37774,47.31878],[9.37756,47.31909],[9.37706,47.31961],[9.37691,47.32006],[9.37661,47.32038],[9.37579,47.32078],[9.37547,47.32108],[9.37536,47.32141],[9.37542,47.32182],[9.37536,47.32215],[9.37505,47.32264],[9.3746,47.32305],[9.37419,47.32326],[9.37384,47.32356],[9.37364,47.32405],[9.37331,47.32441],[9.37276,47.32515],[9.37268,47.3255],[9.3728,47.32584],[9.37344,47.32639],[9.37376,47.32694],[9.37409,47.3272],[9.37459,47.32778],[9.37496,47.32806],[9.37524,47.32842],[9.37555,47.32866],[9.37621,47.32889],[9.37702,47.32936],[9.37751,47.32959],[9.37794,47.3299],[9.37856,47.33014],[9.37893,47.33042],[9.37914,47.33084],[9.37924,47.33127],[9.3792,47.33173],[9.37937,47.33211],[9.37989,47.33264],[9.37998,47.33282],[9.38014,47.33352],[9.38021,47.33377],[9.38064,47.33418],[9.38109,47.33433],[9.38169,47.33443],[9.38218,47.33461],[9.38265,47.33468],[9.38329,47.33465],[9.38422,47.33476],[9.38502,47.3347],[9.38551,47.3348],[9.38606,47.33507],[9.38676,47.33519],[9.388,47.33511],[9.38832,47.33516],[9.38921,47.33543],[9.38976,47.33578],[9.39071,47.33618],[9.3914,47.33627],[9.39167,47.33633],[9.39206,47.33653],[9.39244,47.33682],[9.39324,47.33709],[9.39367,47.33738],[9.39386,47.33769],[9.39389,47.33803],[9.39409,47.3385],[9.39437,47.33877],[9.39498,47.33907],[9.39553,47.3394],[9.39571,47.33955],[9.39592,47.34004],[9.3959,47.34021],[9.39582,47.34038],[9.39571,47.34053],[9.39555,47.34066],[9.39526,47.34083],[9.39509,47.34093],[9.39495,47.34107],[9.39478,47.34136],[9.39471,47.34166],[9.3947,47.34215],[9.39476,47.34232],[9.39487,47.34247],[9.39501,47.34262],[9.3952,47.34274],[9.39542,47.34283],[9.39584,47.34297],[9.39644,47.34315],[9.39699,47.34335],[9.39722,47.34349],[9.39755,47.34395],[9.39762,47.34466],[9.39749,47.3457],[9.39743,47.34595],[9.39732,47.34623],[9.3972,47.34646],[9.39705,47.34662],[9.39662,47.34686],[9.39611,47.34699],[9.39556,47.34699],[9.39496,47.34684],[9.39387,47.34669],[9.39307,47.34659],[9.39264,47.34642],[9.39219,47.34632],[9.39182,47.34631],[9.39125,47.34624],[9.39066,47.34618],[9.39012,47.3461],[9.38948,47.34603],[9.38922,47.34601],[9.38894,47.34601],[9.38842,47.34613],[9.38794,47.34634],[9.38742,47.34642],[9.38715,47.3464],[9.38683,47.34634],[9.38637,47.34619],[9.38575,47.34581],[9.38484,47.34555],[9.38447,47.34536],[9.38403,47.34526],[9.38391,47.34525],[9.38356,47.34523],[9.38328,47.34519],[9.38322,47.34517],[9.38305,47.34514],[9.38257,47.34507],[9.38255,47.34507],[9.38221,47.34503],[9.38211,47.34502],[9.38187,47.345],[9.38178,47.34499],[9.38155,47.34497],[9.38143,47.34496],[9.38038,47.3449],[9.37858,47.34508],[9.37793,47.34525],[9.37768,47.3453],[9.3773,47.34535],[9.37704,47.34537],[9.37673,47.34538],[9.37574,47.34534],[9.37448,47.34534],[9.37369,47.34558],[9.37301,47.3457],[9.37251,47.34568],[9.37182,47.34551],[9.37082,47.34503],[9.37056,47.34496],[9.37037,47.3449],[9.37021,47.34482],[9.37013,47.34478],[9.36962,47.34458],[9.36921,47.34446],[9.36854,47.34419],[9.36836,47.34413],[9.36791,47.344],[9.36712,47.34348],[9.36654,47.34325],[9.36617,47.343],[9.36566,47.34285],[9.36501,47.34277],[9.36456,47.34261],[9.36417,47.34237],[9.36332,47.34212],[9.36272,47.3419],[9.36207,47.34171],[9.36154,47.34168],[9.36094,47.34176],[9.36017,47.34172],[9.35968,47.34176],[9.35926,47.3419],[9.35874,47.34197],[9.35798,47.3419],[9.35737,47.34198],[9.35671,47.342],[9.3561,47.342],[9.35557,47.34195],[9.35506,47.34199],[9.35461,47.34215],[9.35442,47.34228],[9.35428,47.34242],[9.35408,47.34267],[9.35389,47.34287],[9.3532,47.34315],[9.35265,47.34317],[9.35223,47.34311],[9.3511,47.34318],[9.34996,47.34301],[9.34929,47.34297],[9.34905,47.34292],[9.34809,47.34282],[9.34725,47.34293],[9.34637,47.34294],[9.34568,47.34314],[9.34461,47.34327],[9.34403,47.34364],[9.3438,47.34404],[9.3435,47.34433],[9.34305,47.34452],[9.34253,47.34457],[9.34156,47.34442],[9.33963,47.34392],[9.33919,47.34375],[9.33834,47.34329],[9.33759,47.34281],[9.33692,47.34253],[9.33602,47.34205],[9.33512,47.34174],[9.33453,47.34147],[9.33371,47.34097],[9.33327,47.3405],[9.3291,47.33112],[9.3289,47.33085],[9.32857,47.33064],[9.32749,47.33014],[9.32705,47.33002],[9.32646,47.32998],[9.326,47.32988],[9.32534,47.32957],[9.32457,47.32943],[9.32338,47.32909],[9.32271,47.32898],[9.32214,47.32877],[9.32136,47.32861],[9.32016,47.3283],[9.31921,47.328],[9.31837,47.32759],[9.31793,47.32746],[9.31689,47.32738],[9.31636,47.32728],[9.31517,47.3269],[9.31477,47.32669],[9.31434,47.32629],[9.31395,47.32608],[9.31186,47.32536],[9.3113,47.32503],[9.31102,47.32455],[9.31086,47.32399],[9.3103,47.32323],[9.31008,47.32277]]]},"properties":{"bfs_nr":3102,"name":"Gonten"}},{"type":"Feature","geometry":{"type":"MultiPolygon","coordinates":[[[[9.3434,47.35057],[9.34338,47.35033],[9.34353,47.34997],[9.34424,47.34937],[9.34482,47.34827],[9.34491,47.34786],[9.34525,47.34732],[9.34541,47.34677],[9.34547,47.34635],[9.34593,47.34544],[9.34587,47.34509],[9.34562,47.34478],[9.34532,47.34454],[9.34511,47.34423],[9.3451,47.34389],[9.34543,47.34343],[9.3463,47.34304],[9.34679,47.34295],[9.34741,47.34299],[9.34823,47.34289],[9.34885,47.34292],[9.34938,47.34301],[9.34993,47.34304],[9.35134,47.34322],[9.35202,47.34318],[9.35275,47.34326],[9.35327,47.34322],[9.3539,47.3429],[9.35403,47.34275],[9.35411,47.34263],[9.35423,47.34248],[9.35442,47.34229],[9.35461,47.34217],[9.35507,47.34201],[9.35532,47.34198],[9.35596,47.342],[9.3569,47.34201],[9.3578,47.34206],[9.35844,47.34203],[9.35916,47.34209],[9.35969,47.34198],[9.36008,47.34183],[9.36061,47.34176],[9.3612,47.34181],[9.36184,47.34176],[9.36246,47.34183],[9.36323,47.34209],[9.3637,47.34233],[9.36407,47.34267],[9.36455,47.34287],[9.36521,47.34294],[9.3657,47.34309],[9.36621,47.34338],[9.36694,47.34361],[9.36768,47.34396],[9.36831,47.34411],[9.36868,47.34425],[9.36926,47.34452],[9.36989,47.34469],[9.3703,47.34487],[9.3703,47.34486],[9.37054,47.34496],[9.37058,47.34497],[9.37097,47.34512],[9.37134,47.34535],[9.37184,47.34555],[9.37265,47.34573],[9.37318,47.34571],[9.37392,47.34557],[9.37468,47.34537],[9.37558,47.34534],[9.37678,47.34538],[9.37699,47.34538],[9.37714,47.34537],[9.37727,47.34535],[9.3778,47.34528],[9.37806,47.34524],[9.37858,47.34509],[9.38038,47.34491],[9.3814,47.34496],[9.38186,47.345],[9.38209,47.34502],[9.38223,47.34503],[9.38255,47.34507],[9.38259,47.34508],[9.38301,47.34514],[9.38326,47.34518],[9.38335,47.3452],[9.38368,47.34525],[9.384,47.34526],[9.38444,47.34537],[9.38493,47.3456],[9.38578,47.34585],[9.38637,47.34619],[9.38701,47.3464],[9.38724,47.34646],[9.38773,47.34648],[9.3882,47.34638],[9.38884,47.3461],[9.38931,47.34603],[9.38961,47.34605],[9.39011,47.3461],[9.39069,47.34619],[9.39122,47.34624],[9.39193,47.34634],[9.39267,47.34661],[9.39317,47.34667],[9.3937,47.34668],[9.39481,47.34683],[9.39568,47.34716],[9.39642,47.34769],[9.39668,47.34801],[9.39681,47.34837],[9.39704,47.34864],[9.39789,47.34914],[9.39854,47.34933],[9.39912,47.34966],[9.39967,47.35035],[9.40023,47.35081],[9.40075,47.35104],[9.40103,47.35113],[9.4016,47.35136],[9.40184,47.35144],[9.40234,47.35156],[9.40331,47.35195],[9.40411,47.3522],[9.40529,47.35227],[9.40591,47.35241],[9.40661,47.35277],[9.40696,47.35304],[9.40731,47.35355],[9.40768,47.35381],[9.40843,47.35397],[9.40907,47.35397],[9.40958,47.35408],[9.41021,47.35442],[9.41112,47.35476],[9.41155,47.35498],[9.41255,47.35519],[9.41325,47.35537],[9.41369,47.35554],[9.414,47.35581],[9.41414,47.35614],[9.41416,47.35647],[9.41458,47.35725],[9.41495,47.35751],[9.41543,47.35765],[9.4162,47.35769],[9.41711,47.35753],[9.4176,47.35751],[9.41833,47.35771],[9.41919,47.35781],[9.41963,47.35796],[9.4201,47.35831],[9.42056,47.3585],[9.42104,47.35858],[9.42218,47.3589],[9.42254,47.35905],[9.4228,47.35918],[9.42302,47.35935],[9.424,47.36025],[9.42414,47.36035],[9.42429,47.36044],[9.42461,47.36059],[9.42521,47.36077],[9.4257,47.36088],[9.42627,47.36102],[9.42643,47.36107],[9.42648,47.36108],[9.42674,47.36115],[9.42677,47.36116],[9.42694,47.3612],[9.42731,47.36125],[9.42755,47.36126],[9.42757,47.36126],[9.4278,47.36127],[9.42847,47.36126],[9.42874,47.36123],[9.42927,47.36114],[9.42986,47.36087],[9.43033,47.36072],[9.43101,47.3607],[9.43155,47.36055],[9.43191,47.36032],[9.43237,47.36014],[9.43297,47.36011],[9.43387,47.36019],[9.43431,47.36034],[9.43474,47.36075],[9.43482,47.36108],[9.43468,47.36145],[9.43338,47.36343],[9.43301,47.36381],[9.43278,47.36414],[9.4325,47.36438],[9.43227,47.36471],[9.43223,47.36517],[9.43203,47.36553],[9.4314,47.36596],[9.43115,47.36627],[9.43101,47.36665],[9.43072,47.36708],[9.43068,47.36729],[9.43075,47.36772],[9.43129,47.36838],[9.43136,47.36855],[9.43133,47.36896],[9.43118,47.36938],[9.43073,47.36988],[9.43036,47.37038],[9.43001,47.37061],[9.42956,47.37074],[9.42907,47.37074],[9.42856,47.37061],[9.42805,47.37039],[9.42724,47.37012],[9.42679,47.36991],[9.42621,47.36974],[9.42552,47.36942],[9.4247,47.3691],[9.42409,47.36892],[9.42328,47.36862],[9.42265,47.3683],[9.42213,47.36825],[9.42161,47.36833],[9.42119,47.36855],[9.42094,47.36881],[9.42054,47.36906],[9.42,47.36924],[9.41946,47.36952],[9.41896,47.36961],[9.4179,47.36958],[9.41707,47.36939],[9.41529,47.36879],[9.41478,47.36874],[9.41385,47.36883],[9.41232,47.36878],[9.41178,47.36884],[9.41153,47.36892],[9.40945,47.36985],[9.40894,47.36999],[9.40849,47.37005],[9.40804,47.37021],[9.40753,47.3706],[9.40705,47.37102],[9.40644,47.3713],[9.40616,47.37155],[9.40583,47.37216],[9.40557,47.37244],[9.40462,47.37298],[9.40422,47.37314],[9.40367,47.37326],[9.40312,47.37361],[9.40258,47.37446],[9.4021,47.37487],[9.40191,47.37539],[9.40203,47.37598],[9.4019,47.37632],[9.40159,47.3766],[9.40069,47.37698],[9.40023,47.37722],[9.39972,47.37736],[9.39924,47.37738],[9.3987,47.37749],[9.39814,47.37781],[9.39785,47.3781],[9.39769,47.3786],[9.39743,47.37892],[9.39702,47.37914],[9.39601,47.37929],[9.39555,47.37948],[9.39525,47.37975],[9.39461,47.38005],[9.39381,47.38018],[9.39304,47.38006],[9.39235,47.37968],[9.39176,47.37939],[9.39142,47.37915],[9.39101,47.37866],[9.39079,47.37818],[9.39056,47.37788],[9.39019,47.37766],[9.38973,47.37754],[9.38924,47.37755],[9.38818,47.37779],[9.3877,47.3778],[9.38679,47.37772],[9.38611,47.37794],[9.3858,47.37821],[9.38565,47.37871],[9.38549,47.37902],[9.38517,47.37927],[9.38466,47.37944],[9.38368,47.37944],[9.38308,47.37953],[9.38228,47.37975],[9.38191,47.37994],[9.38146,47.38006],[9.38099,47.38012],[9.38011,47.38039],[9.37907,47.38046],[9.37839,47.38072],[9.37805,47.38119],[9.37806,47.38154],[9.37827,47.38186],[9.37896,47.38243],[9.37912,47.38274],[9.37911,47.38307],[9.37894,47.38344],[9.37896,47.38381],[9.37932,47.38431],[9.37943,47.38467],[9.37945,47.38542],[9.3794,47.38564],[9.37919,47.38597],[9.37856,47.38628],[9.37802,47.38635],[9.37753,47.38652],[9.37704,47.38684],[9.3768,47.38692],[9.37626,47.38698],[9.37537,47.38691],[9.37377,47.38645],[9.37325,47.38605],[9.37313,47.3857],[9.37322,47.3853],[9.37319,47.38497],[9.37294,47.38456],[9.37262,47.38433],[9.3721,47.38412],[9.37164,47.38402],[9.37104,47.38406],[9.3701,47.38443],[9.36946,47.38455],[9.36901,47.38471],[9.36824,47.38478],[9.36737,47.38463],[9.36639,47.38461],[9.36578,47.38471],[9.36501,47.38465],[9.36426,47.38436],[9.36381,47.3843],[9.36325,47.38434],[9.36249,47.38455],[9.36141,47.38473],[9.36079,47.38487],[9.35994,47.38494],[9.35952,47.38503],[9.35883,47.38507],[9.3583,47.38498],[9.35776,47.3848],[9.35743,47.38451],[9.35715,47.38406],[9.35678,47.3838],[9.35603,47.38365],[9.35551,47.38372],[9.35494,47.38397],[9.35443,47.38407],[9.35395,47.38405],[9.35231,47.38359],[9.35173,47.38322],[9.35157,47.38289],[9.35161,47.38255],[9.35183,47.38224],[9.35221,47.38201],[9.35285,47.38184],[9.3536,47.38137],[9.35449,47.38038],[9.3552,47.3799],[9.35619,47.37939],[9.35728,47.37869],[9.35802,47.37849],[9.35842,47.37826],[9.3587,47.37777],[9.35868,47.37727],[9.35882,47.37684],[9.35914,47.37638],[9.35924,47.37592],[9.35905,47.37526],[9.35895,47.37457],[9.35898,47.37436],[9.35927,47.37369],[9.35924,47.37333],[9.359,47.373],[9.35815,47.37248],[9.35748,47.37211],[9.35726,47.37178],[9.35724,47.37142],[9.35742,47.37109],[9.35802,47.37068],[9.35826,47.37036],[9.3583,47.37002],[9.35809,47.36938],[9.35827,47.36888],[9.35882,47.36837],[9.35905,47.36783],[9.3592,47.3673],[9.35935,47.36707],[9.35981,47.36674],[9.36029,47.36659],[9.36068,47.36638],[9.36099,47.36593],[9.3609,47.36543],[9.36035,47.3648],[9.36025,47.36444],[9.36032,47.36411],[9.36062,47.36364],[9.36121,47.36299],[9.3616,47.36273],[9.36183,47.36247],[9.36208,47.36197],[9.36229,47.36134],[9.36243,47.36117],[9.3635,47.3604],[9.36391,47.36014],[9.36429,47.35968],[9.36474,47.35925],[9.36497,47.35884],[9.36489,47.35832],[9.3646,47.35803],[9.36386,47.35763],[9.36358,47.35754],[9.36247,47.35736],[9.36159,47.35724],[9.36072,47.35696],[9.35974,47.35686],[9.35924,47.35672],[9.35886,47.35646],[9.35771,47.35586],[9.35701,47.35556],[9.35566,47.35529],[9.3546,47.35516],[9.35356,47.3551],[9.35311,47.35513],[9.35186,47.35497],[9.35123,47.35468],[9.35037,47.35436],[9.34971,47.35427],[9.34921,47.35426],[9.34738,47.35408],[9.3471,47.354],[9.34641,47.35365],[9.34567,47.35305],[9.34516,47.35278],[9.34459,47.35234],[9.34395,47.35207],[9.34368,47.35183],[9.34347,47.3514],[9.3434,47.35057]]],[[[9.36224,47.38683],[9.36204,47.38673],[9.36178,47.38638],[9.36275,47.38601],[9.36324,47.3864],[9.36276,47.3867],[9.36232,47.3869],[9.36224,47.38683]]]]},"properties":{"bfs_nr":3104,"name":"Schlatt-Haslen"}},{"type":"Feature","geometry":{"type":"MultiPolygon","coordinates":[[[[9.51146,47.40204],[9.51129,47.40149],[9.51134,47.40118],[9.51194,47.40033],[9.51202,47.39997],[9.51186,47.39936],[9.51192,47.39901],[9.51172,47.39844],[9.51178,47.39809],[9.51194,47.3978],[9.51194,47.39744],[9.51156,47.39697],[9.511,47.39668],[9.51062,47.39623],[9.51061,47.39588],[9.51095,47.39541],[9.51137,47.39521],[9.51187,47.39514],[9.51269,47.39518],[9.51346,47.39543],[9.51408,47.39551],[9.5164,47.39592],[9.51716,47.39596],[9.51799,47.39611],[9.51849,47.39626],[9.51921,47.39666],[9.5203,47.39681],[9.5213,47.39671],[9.52256,47.39685],[9.52401,47.39695],[9.52543,47.39714],[9.52696,47.39743],[9.52801,47.39751],[9.52878,47.39752],[9.52971,47.39763],[9.53093,47.39794],[9.53342,47.39864],[9.53481,47.39893],[9.53625,47.39931],[9.53699,47.39935],[9.53769,47.39925],[9.53823,47.39924],[9.53996,47.39937],[9.54138,47.39953],[9.54219,47.39966],[9.54268,47.39962],[9.54312,47.39945],[9.54351,47.39916],[9.54393,47.39896],[9.54441,47.39884],[9.54482,47.3986],[9.54509,47.39809],[9.54499,47.39768],[9.54455,47.39703],[9.54437,47.39597],[9.54453,47.39563],[9.54505,47.3952],[9.54527,47.39487],[9.54563,47.39457],[9.54593,47.39444],[9.54663,47.39432],[9.54704,47.39417],[9.54758,47.39373],[9.54799,47.39352],[9.54848,47.39344],[9.54907,47.39344],[9.54958,47.39336],[9.55009,47.3934],[9.55073,47.39357],[9.55129,47.39364],[9.55174,47.3938],[9.55226,47.39407],[9.55286,47.39447],[9.55327,47.39513],[9.55385,47.39559],[9.55435,47.39587],[9.5546,47.3962],[9.55464,47.39656],[9.55446,47.39691],[9.55393,47.39728],[9.55346,47.39748],[9.55317,47.39771],[9.55278,47.39828],[9.55243,47.39853],[9.55191,47.39874],[9.5513,47.39912],[9.55096,47.39961],[9.55039,47.40029],[9.54983,47.4007],[9.5492,47.4014],[9.54896,47.40199],[9.54857,47.40236],[9.54817,47.40286],[9.54792,47.40336],[9.54742,47.40397],[9.547,47.40431],[9.54647,47.40524],[9.54607,47.4056],[9.54577,47.40607],[9.54541,47.4063],[9.54452,47.40672],[9.54362,47.40701],[9.54323,47.40722],[9.54293,47.40768],[9.54296,47.40802],[9.54333,47.40846],[9.54424,47.40896],[9.54538,47.40928],[9.54614,47.4093],[9.54683,47.40945],[9.54863,47.40994],[9.54891,47.40997],[9.55047,47.40979],[9.55122,47.40983],[9.55174,47.40972],[9.55254,47.40927],[9.55292,47.40871],[9.5531,47.40829],[9.55362,47.40791],[9.55411,47.4078],[9.55479,47.40778],[9.55539,47.40789],[9.55582,47.40805],[9.55705,47.40828],[9.55747,47.40842],[9.55817,47.40875],[9.55871,47.40879],[9.55958,47.40868],[9.5602,47.40875],[9.56075,47.40872],[9.56123,47.40859],[9.56223,47.40853],[9.56271,47.40843],[9.56343,47.40806],[9.56368,47.40777],[9.5641,47.40639],[9.56438,47.40611],[9.56481,47.40584],[9.5655,47.40566],[9.56622,47.40577],[9.56689,47.40609],[9.56771,47.40621],[9.56839,47.40613],[9.56887,47.40615],[9.56947,47.40626],[9.57027,47.40635],[9.57091,47.40656],[9.57132,47.40684],[9.57197,47.4071],[9.57239,47.40734],[9.57266,47.40765],[9.57313,47.40795],[9.57342,47.40827],[9.57358,47.40872],[9.5735,47.40932],[9.57351,47.41141],[9.57348,47.41164],[9.57327,47.41197],[9.57295,47.41221],[9.57269,47.41253],[9.5727,47.41307],[9.57316,47.41354],[9.57392,47.41394],[9.5748,47.41429],[9.57515,47.41452],[9.57535,47.41483],[9.57537,47.41523],[9.57521,47.41556],[9.57466,47.41591],[9.57304,47.41628],[9.57235,47.4163],[9.57149,47.4165],[9.57094,47.41656],[9.56969,47.41653],[9.56874,47.41639],[9.56702,47.41629],[9.56603,47.41637],[9.56509,47.4165],[9.56451,47.41666],[9.56407,47.41686],[9.56378,47.41715],[9.56361,47.41747],[9.5633,47.41773],[9.56263,47.41794],[9.56214,47.41793],[9.56165,47.41783],[9.56113,47.41786],[9.56025,47.4181],[9.55951,47.41813],[9.55902,47.41829],[9.55848,47.41873],[9.55806,47.41891],[9.55702,47.41911],[9.55647,47.41941],[9.55617,47.41988],[9.55618,47.42052],[9.5558,47.42131],[9.5557,47.42163],[9.55543,47.42207],[9.55538,47.42254],[9.5552,47.42288],[9.55463,47.42329],[9.55436,47.42376],[9.55445,47.4243],[9.55437,47.42468],[9.5541,47.42509],[9.55407,47.42567],[9.5539,47.42601],[9.55351,47.42632],[9.5531,47.42684],[9.55245,47.42717],[9.55192,47.42721],[9.55095,47.4271],[9.55042,47.42715],[9.54885,47.4277],[9.54852,47.42793],[9.54821,47.42827],[9.54726,47.42872],[9.54699,47.42898],[9.54681,47.42939],[9.54651,47.42971],[9.54585,47.43021],[9.54542,47.43041],[9.54477,47.43049],[9.54357,47.43093],[9.54231,47.43136],[9.54155,47.43159],[9.54104,47.43168],[9.54049,47.43168],[9.53972,47.43145],[9.53937,47.43119],[9.5392,47.43086],[9.53914,47.42988],[9.53886,47.42909],[9.53896,47.42866],[9.53899,47.428],[9.5389,47.42767],[9.53846,47.42728],[9.5377,47.42697],[9.5374,47.42667],[9.53725,47.42599],[9.53701,47.42568],[9.53646,47.42533],[9.53529,47.42485],[9.53461,47.42472],[9.5339,47.42431],[9.53312,47.42414],[9.53243,47.42389],[9.53186,47.42383],[9.53026,47.42413],[9.52932,47.42401],[9.52889,47.42382],[9.52862,47.42362],[9.52819,47.42346],[9.52729,47.42334],[9.52683,47.42314],[9.52636,47.42276],[9.52494,47.42178],[9.52463,47.42146],[9.52453,47.42113],[9.52462,47.42045],[9.52506,47.41978],[9.52519,47.41944],[9.52509,47.41895],[9.52492,47.41848],[9.52497,47.41815],[9.52519,47.41785],[9.52565,47.41756],[9.52665,47.41645],[9.52681,47.41613],[9.52681,47.41579],[9.52663,47.41547],[9.52629,47.41523],[9.52583,47.41508],[9.5253,47.41502],[9.52481,47.41485],[9.52433,47.41444],[9.52419,47.41409],[9.52427,47.41373],[9.52456,47.41342],[9.52499,47.41315],[9.52531,47.41263],[9.52558,47.41234],[9.52623,47.41209],[9.52707,47.41203],[9.5275,47.41187],[9.52798,47.41149],[9.52863,47.41126],[9.52912,47.41126],[9.53002,47.4114],[9.53052,47.41137],[9.53133,47.41115],[9.53174,47.41093],[9.532,47.41061],[9.53206,47.41026],[9.53191,47.40992],[9.53157,47.40964],[9.53063,47.40908],[9.53021,47.40894],[9.52929,47.40882],[9.52795,47.40831],[9.52705,47.40783],[9.52607,47.40745],[9.52456,47.40707],[9.5235,47.40664],[9.52293,47.40656],[9.5221,47.40655],[9.51924,47.40572],[9.51857,47.40565],[9.51747,47.40575],[9.51685,47.4057],[9.51626,47.40555],[9.51581,47.40527],[9.51527,47.405],[9.51351,47.40387],[9.51272,47.40345],[9.51243,47.4032],[9.51189,47.40291],[9.51158,47.40259],[9.51146,47.40204]]],[[[9.55967,47.43406],[9.5593,47.43391],[9.55897,47.43367],[9.55879,47.43337],[9.55866,47.43272],[9.55867,47.43233],[9.55898,47.43176],[9.55927,47.43148],[9.5597,47.4313],[9.56029,47.43121],[9.56074,47.43106],[9.56118,47.43065],[9.56128,47.43027],[9.56153,47.42994],[9.5621,47.42961],[9.56281,47.42936],[9.56331,47.42931],[9.56409,47.42945],[9.56489,47.42936],[9.56549,47.42909],[9.56596,47.42901],[9.56654,47.42903],[9.56737,47.42889],[9.5681,47.42863],[9.56884,47.42857],[9.56948,47.42868],[9.5702,47.42858],[9.57059,47.42838],[9.57175,47.42727],[9.57202,47.42691],[9.57242,47.42667],[9.57315,47.42654],[9.57361,47.42641],[9.57397,47.42617],[9.57417,47.42586],[9.57419,47.42552],[9.57402,47.4252],[9.57371,47.42488],[9.57357,47.42449],[9.57333,47.42419],[9.57295,47.42397],[9.57222,47.42386],[9.57149,47.42386],[9.57056,47.42373],[9.56989,47.42357],[9.5695,47.42337],[9.56924,47.4231],[9.5691,47.4227],[9.56887,47.4223],[9.56895,47.42177],[9.56925,47.42147],[9.56995,47.42124],[9.57057,47.42123],[9.57105,47.42114],[9.57158,47.42095],[9.57233,47.42086],[9.57305,47.42096],[9.57354,47.42115],[9.57503,47.42133],[9.57593,47.4214],[9.57667,47.42123],[9.57705,47.42103],[9.57757,47.42092],[9.57803,47.4209],[9.5787,47.42075],[9.57923,47.42054],[9.5797,47.4204],[9.58045,47.42008],[9.581,47.41998],[9.582,47.41999],[9.58272,47.4198],[9.58306,47.41953],[9.58323,47.41902],[9.58314,47.41874],[9.58323,47.41794],[9.58306,47.41697],[9.583,47.41646],[9.5828,47.41607],[9.58289,47.41555],[9.58318,47.41527],[9.58362,47.41508],[9.58462,47.41491],[9.58507,47.41471],[9.58543,47.41423],[9.58551,47.41315],[9.58529,47.4128],[9.58442,47.41208],[9.58424,47.4119],[9.58409,47.41157],[9.58414,47.41122],[9.58457,47.41078],[9.58528,47.41059],[9.58636,47.41068],[9.58722,47.41087],[9.58811,47.41084],[9.58852,47.41088],[9.58907,47.41108],[9.58959,47.41141],[9.59008,47.41155],[9.5906,47.41155],[9.59115,47.41141],[9.59165,47.41137],[9.59281,47.41156],[9.59374,47.41153],[9.59415,47.41157],[9.59487,47.41154],[9.59625,47.41163],[9.59763,47.412],[9.59867,47.41233],[9.59937,47.41265],[9.60071,47.41354],[9.60166,47.41376],[9.60261,47.41424],[9.60292,47.41452],[9.60305,47.41484],[9.603,47.41518],[9.60276,47.41549],[9.60153,47.4162],[9.60109,47.41639],[9.59956,47.41686],[9.5987,47.41699],[9.59752,47.41705],[9.59685,47.41715],[9.59628,47.41748],[9.59608,47.41779],[9.596,47.41815],[9.59575,47.41846],[9.59534,47.41867],[9.59447,47.41881],[9.59402,47.41896],[9.59368,47.41921],[9.59348,47.41953],[9.59318,47.4198],[9.59168,47.42044],[9.59136,47.42054],[9.59043,47.42066],[9.58967,47.42095],[9.5893,47.42122],[9.58913,47.42154],[9.58915,47.42189],[9.5895,47.4224],[9.58954,47.42288],[9.58933,47.42325],[9.58885,47.42369],[9.58869,47.424],[9.58874,47.42439],[9.5887,47.42482],[9.5888,47.42517],[9.5891,47.42546],[9.59086,47.42617],[9.59155,47.42647],[9.59248,47.42676],[9.59365,47.4272],[9.59501,47.42774],[9.59648,47.42839],[9.59833,47.42917],[9.5993,47.42928],[9.59998,47.4294],[9.60102,47.42964],[9.60156,47.42987],[9.60233,47.43029],[9.60293,47.43054],[9.60347,47.43064],[9.60504,47.43107],[9.60647,47.43159],[9.60694,47.43194],[9.60714,47.43222],[9.60803,47.43287],[9.60845,47.43325],[9.60888,47.43345],[9.60974,47.43357],[9.61248,47.43417],[9.61345,47.43468],[9.614,47.43491],[9.61442,47.43525],[9.61486,47.43594],[9.61494,47.43628],[9.61471,47.43676],[9.61436,47.437],[9.61364,47.43715],[9.61256,47.437],[9.6114,47.43674],[9.61082,47.43667],[9.60994,47.43667],[9.60904,47.43659],[9.60862,47.43651],[9.60745,47.43649],[9.60698,47.43655],[9.60661,47.43669],[9.60609,47.43678],[9.60483,47.43675],[9.60335,47.43656],[9.60242,47.43635],[9.60165,47.43593],[9.60033,47.43546],[9.59992,47.43534],[9.59862,47.43505],[9.59769,47.4348],[9.59671,47.43456],[9.59599,47.43435],[9.59543,47.4343],[9.59468,47.43431],[9.59375,47.43423],[9.59323,47.43435],[9.59282,47.4346],[9.59239,47.43505],[9.59196,47.43524],[9.59146,47.43531],[9.59068,47.43519],[9.58933,47.43475],[9.58888,47.43464],[9.58839,47.43461],[9.58634,47.43473],[9.58484,47.43469],[9.58318,47.43457],[9.58255,47.43465],[9.58208,47.4346],[9.58129,47.43442],[9.58053,47.43444],[9.58004,47.43435],[9.57938,47.43399],[9.57859,47.43385],[9.57806,47.43395],[9.57751,47.43421],[9.57701,47.43431],[9.57668,47.43431],[9.57612,47.43421],[9.57566,47.43399],[9.57517,47.43387],[9.57371,47.43393],[9.57289,47.43408],[9.572,47.43431],[9.57124,47.43436],[9.57055,47.43465],[9.57028,47.43497],[9.57023,47.43534],[9.57032,47.4357],[9.57022,47.43606],[9.56977,47.43669],[9.56946,47.43695],[9.56911,47.43714],[9.56884,47.43744],[9.56872,47.43782],[9.56849,47.43813],[9.5681,47.43835],[9.56762,47.43846],[9.5668,47.43843],[9.56629,47.43847],[9.56578,47.43843],[9.56534,47.43825],[9.56502,47.43797],[9.56474,47.43737],[9.56442,47.43712],[9.56399,47.43696],[9.56333,47.4369],[9.56278,47.43672],[9.56218,47.43629],[9.56193,47.43602],[9.56183,47.4357],[9.56181,47.43519],[9.56159,47.4349],[9.5612,47.43465],[9.56011,47.4342],[9.55967,47.43406]]],[[[9.61311,47.44369],[9.61251,47.44356],[9.6121,47.44338],[9.61222,47.44328],[9.61298,47.44317],[9.61304,47.44337],[9.61328,47.44343],[9.61311,47.44369]]]]},"properties":{"bfs_nr":3111,"name":"Oberegg"}},{"type":"Feature","geometry":{"type":"Polygon","coordinates":[[[9.3244,47.2818],[9.33265,47.2701],[9.33278,47.2698],[9.33305,47.26786],[9.33316,47.26731],[9.33337,47.26665],[9.3334,47.26589],[9.33325,47.26553],[9.3332,47.26513],[9.33355,47.26439],[9.33386,47.26393],[9.33399,47.26305],[9.33419,47.26265],[9.33467,47.26212],[9.33477,47.2617],[9.33502,47.2612],[9.33579,47.26039],[9.33625,47.25953],[9.34124,47.25214],[9.34173,47.25131],[9.34198,47.25103],[9.34212,47.25069],[9.34214,47.25031],[9.34232,47.25001],[9.34287,47.2496],[9.34311,47.24925],[9.34314,47.24882],[9.34342,47.24811],[9.34375,47.24775],[9.34451,47.24736],[9.3456,47.24663],[9.34588,47.24648],[9.34754,47.24599],[9.34843,47.24545],[9.34898,47.24502],[9.35036,47.24458],[9.35121,47.24437],[9.35223,47.24431],[9.35277,47.24431],[9.35362,47.24421],[9.35477,47.24423],[9.35535,47.24436],[9.35579,47.24437],[9.3564,47.24431],[9.35716,47.24434],[9.35818,47.24427],[9.35863,47.24429],[9.35969,47.24411],[9.3605,47.24409],[9.36098,47.244],[9.3618,47.24376],[9.36258,47.2437],[9.3631,47.24359],[9.36361,47.2436],[9.36412,47.24353],[9.36482,47.24327],[9.36525,47.24291],[9.36581,47.24218],[9.36616,47.24194],[9.36725,47.24142],[9.36768,47.24112],[9.36812,47.24095],[9.36883,47.24083],[9.36962,47.24061],[9.37016,47.24036],[9.37037,47.24017],[9.37122,47.23968],[9.37182,47.23951],[9.37261,47.23909],[9.37294,47.23887],[9.37361,47.23853],[9.37398,47.23824],[9.37474,47.2373],[9.37496,47.23709],[9.37536,47.23687],[9.37586,47.2367],[9.37819,47.23618],[9.37865,47.236],[9.38136,47.23438],[9.38205,47.23415],[9.38253,47.23415],[9.38418,47.23457],[9.38527,47.23467],[9.38687,47.23506],[9.38784,47.23538],[9.38863,47.23555],[9.38895,47.23568],[9.38968,47.23609],[9.38995,47.23618],[9.39225,47.23669],[9.39368,47.23684],[9.39602,47.23732],[9.3964,47.23735],[9.39879,47.23737],[9.40166,47.23754],[9.40217,47.23762],[9.40295,47.23795],[9.40373,47.23824],[9.40495,47.23918],[9.40527,47.23973],[9.4062,47.24073],[9.40641,47.24101],[9.40754,47.24183],[9.4086,47.24274],[9.40937,47.24349],[9.40987,47.2439],[9.4104,47.24424],[9.41138,47.24475],[9.41237,47.24515],[9.41373,47.2456],[9.41423,47.24585],[9.41468,47.24633],[9.41489,47.24646],[9.41539,47.24663],[9.41594,47.24665],[9.41647,47.24675],[9.41741,47.2471],[9.41859,47.2475],[9.41929,47.24759],[9.4247,47.24727],[9.42551,47.24721],[9.4262,47.24736],[9.42662,47.24756],[9.42723,47.2477],[9.42764,47.24787],[9.42815,47.24827],[9.4289,47.24858],[9.4296,47.24907],[9.43003,47.24927],[9.43047,47.24938],[9.43099,47.24961],[9.43217,47.24995],[9.43312,47.25041],[9.43434,47.25076],[9.43661,47.25097],[9.43715,47.251],[9.43761,47.25112],[9.43797,47.25136],[9.43834,47.25176],[9.43898,47.25225],[9.43941,47.25266],[9.43976,47.2529],[9.44058,47.25313],[9.44121,47.25318],[9.44186,47.25333],[9.44271,47.25385],[9.44348,47.25412],[9.44423,47.25452],[9.44459,47.25466],[9.44496,47.25492],[9.44525,47.25524],[9.44579,47.25563],[9.44651,47.25582],[9.44695,47.25598],[9.44727,47.25624],[9.44744,47.25656],[9.44771,47.25684],[9.4485,47.2574],[9.44974,47.25818],[9.45014,47.2586],[9.45028,47.25896],[9.45084,47.25969],[9.45117,47.25996],[9.45214,47.26031],[9.45267,47.26047],[9.45327,47.26059],[9.45381,47.2608],[9.45466,47.26131],[9.45527,47.26161],[9.45579,47.26181],[9.45673,47.26222],[9.45714,47.26248],[9.45763,47.2629],[9.45799,47.26312],[9.45844,47.26324],[9.45905,47.2633],[9.45955,47.26343],[9.46002,47.26364],[9.46102,47.26399],[9.4613,47.26415],[9.46197,47.26479],[9.46263,47.26515],[9.46338,47.26542],[9.46403,47.26572],[9.46505,47.26668],[9.46566,47.26696],[9.46618,47.26742],[9.4665,47.26802],[9.46702,47.26845],[9.46786,47.26873],[9.46832,47.26902],[9.46946,47.26941],[9.47013,47.2698],[9.4706,47.27021],[9.4709,47.27034],[9.4716,47.2708],[9.47233,47.27111],[9.47271,47.27136],[9.47304,47.27178],[9.47337,47.27201],[9.47361,47.27229],[9.47379,47.27263],[9.47442,47.27348],[9.47536,47.27413],[9.47584,47.2746],[9.47596,47.27497],[9.47597,47.27536],[9.47608,47.27571],[9.47644,47.27617],[9.47658,47.27662],[9.47684,47.27692],[9.47743,47.27738],[9.4779,47.2776],[9.47844,47.27803],[9.47862,47.27835],[9.4789,47.27864],[9.47947,47.27895],[9.47976,47.27926],[9.47987,47.27964],[9.48014,47.28007],[9.48029,47.28052],[9.48067,47.28101],[9.48082,47.28146],[9.48095,47.28163],[9.48153,47.28204],[9.48227,47.28242],[9.48297,47.28255],[9.48348,47.28275],[9.48409,47.28309],[9.48479,47.2836],[9.48511,47.28393],[9.48645,47.28612],[9.487,47.28718],[9.48762,47.28807],[9.48778,47.28852],[9.4877,47.289],[9.48745,47.28928],[9.48703,47.28958],[9.48682,47.28987],[9.48678,47.29019],[9.48692,47.29084],[9.48755,47.2919],[9.4883,47.29325],[9.48916,47.29446],[9.48933,47.29497],[9.48928,47.29626],[9.48954,47.29743],[9.48959,47.29779],[9.48989,47.29825],[9.49008,47.29872],[9.49036,47.29915],[9.49039,47.29981],[9.49028,47.30018],[9.49034,47.30062],[9.49027,47.30096],[9.48987,47.30144],[9.48975,47.3018],[9.48986,47.30215],[9.49024,47.30254],[9.49082,47.30344],[9.49115,47.30371],[9.4918,47.30396],[9.49236,47.30428],[9.49282,47.30463],[9.49322,47.30475],[9.4937,47.30479],[9.4947,47.30503],[9.49561,47.30559],[9.49602,47.30605],[9.49605,47.30638],[9.49584,47.307],[9.4957,47.3076],[9.49555,47.3079],[9.49495,47.30858],[9.49416,47.3097],[9.49367,47.31019],[9.49319,47.31054],[9.49297,47.31091],[9.49276,47.31203],[9.49257,47.31283],[9.4929,47.31368],[9.49335,47.31438],[9.49368,47.31468],[9.49423,47.31496],[9.49462,47.31533],[9.49499,47.31556],[9.49536,47.31568],[9.4961,47.31605],[9.49637,47.31636],[9.49645,47.31671],[9.49635,47.31718],[9.49646,47.31752],[9.49695,47.31791],[9.49749,47.31808],[9.49789,47.3183],[9.4982,47.3186],[9.49836,47.31889],[9.49842,47.31932],[9.49842,47.31997],[9.49847,47.32078],[9.49859,47.32113],[9.49907,47.32156],[9.49926,47.32191],[9.50012,47.32509],[9.50033,47.32591],[9.50022,47.32626],[9.49988,47.32669],[9.4998,47.32702],[9.50004,47.3275],[9.50046,47.3278],[9.50071,47.32811],[9.50077,47.32847],[9.50061,47.32895],[9.50065,47.3293],[9.50088,47.3296],[9.50141,47.32993],[9.50168,47.33024],[9.50175,47.33059],[9.50166,47.33092],[9.5017,47.33131],[9.50201,47.33181],[9.50204,47.33208],[9.50186,47.33266],[9.50185,47.33301],[9.50216,47.33344],[9.50249,47.33369],[9.50269,47.33401],[9.50269,47.33451],[9.50286,47.33963],[9.50303,47.34491],[9.50295,47.34672],[9.50291,47.34692],[9.50257,47.34735],[9.5019,47.34761],[9.48773,47.35015],[9.48742,47.35018],[9.48663,47.35005],[9.47926,47.34722],[9.4761,47.34612],[9.47006,47.34453],[9.46977,47.34448],[9.46917,47.34452],[9.46654,47.34511],[9.46586,47.34516],[9.46309,47.34496],[9.46282,47.34493],[9.46261,47.34487],[9.46236,47.34478],[9.46146,47.34434],[9.46101,47.34421],[9.45625,47.34342],[9.45607,47.3434],[9.45433,47.34329],[9.45425,47.34328],[9.45152,47.34303],[9.45119,47.34297],[9.45094,47.34289],[9.45067,47.34275],[9.44947,47.34196],[9.44942,47.34193],[9.44799,47.34093],[9.44778,47.34081],[9.44729,47.34067],[9.44633,47.34065],[9.44603,47.34058],[9.44548,47.34052],[9.44454,47.34032],[9.44378,47.34029],[9.44135,47.33968],[9.44067,47.33958],[9.43901,47.3391],[9.43826,47.33904],[9.43782,47.33893],[9.43735,47.33873],[9.43645,47.33858],[9.43563,47.33859],[9.43517,47.33866],[9.43433,47.33866],[9.4338,47.33879],[9.43279,47.33891],[9.43198,47.33887],[9.43128,47.33902],[9.43076,47.33909],[9.43024,47.339],[9.42968,47.33879],[9.42895,47.33868],[9.42846,47.33874],[9.42798,47.33887],[9.42721,47.33893],[9.42671,47.33887],[9.42535,47.33833],[9.42497,47.33807],[9.42471,47.33771],[9.42411,47.3373],[9.42375,47.33714],[9.42257,47.33687],[9.42163,47.33655],[9.42101,47.33629],[9.42031,47.3362],[9.41942,47.33587],[9.41886,47.33537],[9.41848,47.3349],[9.41813,47.33468],[9.41752,47.33451],[9.417,47.3342],[9.41658,47.33402],[9.41609,47.33395],[9.41584,47.33397],[9.41549,47.33405],[9.41512,47.33408],[9.41502,47.33409],[9.41493,47.33409],[9.41488,47.33409],[9.41459,47.33407],[9.4145,47.33406],[9.41434,47.33404],[9.41404,47.33398],[9.41332,47.33364],[9.41294,47.33319],[9.41292,47.33285],[9.41326,47.33231],[9.41353,47.33174],[9.41342,47.33124],[9.41268,47.33063],[9.41248,47.33025],[9.41219,47.32997],[9.41158,47.32969],[9.41112,47.32943],[9.41075,47.32897],[9.4107,47.3286],[9.41078,47.32837],[9.41079,47.32834],[9.41131,47.3274],[9.4114,47.32727],[9.41149,47.3271],[9.41154,47.32679],[9.41169,47.32647],[9.41199,47.32622],[9.41259,47.32591],[9.41288,47.32555],[9.41299,47.32516],[9.41317,47.32489],[9.41328,47.32453],[9.41314,47.32409],[9.41288,47.32377],[9.41277,47.32343],[9.41279,47.32326],[9.41295,47.32277],[9.41324,47.32204],[9.41328,47.32163],[9.41312,47.32131],[9.41281,47.32105],[9.41218,47.3203],[9.41181,47.32007],[9.41075,47.31957],[9.41018,47.31941],[9.40953,47.31903],[9.40901,47.31885],[9.40863,47.31882],[9.40819,47.31872],[9.40775,47.31849],[9.40713,47.31824],[9.40681,47.31792],[9.40623,47.3164],[9.40593,47.31587],[9.40553,47.31544],[9.40536,47.31503],[9.40531,47.31446],[9.405,47.31402],[9.40488,47.31369],[9.40494,47.31318],[9.4052,47.31256],[9.40518,47.31225],[9.40514,47.31208],[9.40505,47.31193],[9.40492,47.31179],[9.40455,47.31156],[9.40409,47.31144],[9.40321,47.31132],[9.40226,47.31124],[9.40151,47.3111],[9.40063,47.31099],[9.40004,47.31079],[9.39907,47.31034],[9.39874,47.31022],[9.39715,47.30986],[9.3968,47.30975],[9.39504,47.30907],[9.39464,47.30889],[9.39444,47.30875],[9.39425,47.30853],[9.39394,47.30805],[9.39359,47.30773],[9.39276,47.30724],[9.39226,47.30706],[9.39144,47.3069],[9.39012,47.30657],[9.38874,47.30628],[9.38865,47.30626],[9.38741,47.30595],[9.38739,47.30594],[9.38663,47.30574],[9.38648,47.3057],[9.38597,47.30553],[9.38582,47.30548],[9.38517,47.30522],[9.38509,47.30519],[9.3841,47.30486],[9.38401,47.30483],[9.38286,47.30451],[9.38231,47.30445],[9.38178,47.30454],[9.38135,47.30477],[9.38099,47.30512],[9.38058,47.30531],[9.3801,47.30539],[9.37884,47.30527],[9.37831,47.30523],[9.37715,47.30503],[9.37653,47.30499],[9.3755,47.30499],[9.37473,47.30508],[9.37447,47.30509],[9.37416,47.30506],[9.37249,47.30476],[9.37236,47.30474],[9.37195,47.30464],[9.37173,47.30461],[9.37127,47.3046],[9.3703,47.30446],[9.36953,47.30432],[9.36835,47.30417],[9.36742,47.30431],[9.36714,47.30432],[9.3668,47.30429],[9.36608,47.30417],[9.36576,47.3041],[9.3646,47.30376],[9.36359,47.30356],[9.36262,47.30328],[9.36211,47.3032],[9.36145,47.30296],[9.36014,47.3026],[9.36001,47.30256],[9.35956,47.30241],[9.35949,47.30239],[9.35879,47.30219],[9.35877,47.30219],[9.35823,47.30203],[9.35794,47.30192],[9.35774,47.30181],[9.35746,47.30151],[9.35716,47.30104],[9.35674,47.30081],[9.35594,47.30052],[9.35354,47.29971],[9.35337,47.29962],[9.35319,47.29949],[9.35233,47.29876],[9.35183,47.2985],[9.34929,47.29772],[9.3486,47.29761],[9.34658,47.29764],[9.34606,47.29759],[9.34593,47.29757],[9.34556,47.29747],[9.34523,47.29732],[9.34307,47.296],[9.34299,47.29595],[9.34214,47.29551],[9.3418,47.29539],[9.34084,47.29514],[9.33993,47.29497],[9.33948,47.29473],[9.3392,47.29448],[9.33878,47.29429],[9.33808,47.29412],[9.33772,47.29395],[9.33726,47.29381],[9.33674,47.29355],[9.33652,47.29348],[9.33605,47.29336],[9.33578,47.2933],[9.3352,47.29315],[9.33459,47.29307],[9.334,47.29294],[9.33285,47.2925],[9.3321,47.2923],[9.33186,47.29224],[9.33121,47.29204],[9.33077,47.29186],[9.32995,47.29164],[9.32968,47.29154],[9.32948,47.29144],[9.3292,47.29117],[9.32908,47.29085],[9.32918,47.29034],[9.32953,47.28983],[9.32961,47.28914],[9.32961,47.28897],[9.32947,47.28842],[9.32936,47.28825],[9.3292,47.2881],[9.32889,47.28784],[9.32871,47.28759],[9.32861,47.28717],[9.32869,47.28686],[9.32867,47.28651],[9.32845,47.28619],[9.32814,47.28593],[9.32781,47.28545],[9.32688,47.28457],[9.32679,47.2845],[9.32645,47.28424],[9.32628,47.28413],[9.32561,47.28385],[9.32527,47.28355],[9.32507,47.28319],[9.32459,47.28283],[9.32427,47.28236],[9.32429,47.28201],[9.3244,47.2818]]]},"properties":{"bfs_nr":3112,"name":"Schwende-R\u00fcte"}}]}