{"type":"FeatureCollection","features":[{"type":"Feature","geometry":{"type":"Polygon","coordinates":[[[7.55679,47.56489],[7.55644,47.56474],[7.55606,47.5643],[7.55609,47.56379],[7.55657,47.56335],[7.55781,47.56269],[7.55878,47.56189],[7.56001,47.56043],[7.56165,47.55914],[7.56398,47.55761],[7.56438,47.55693],[7.56424,47.55657],[7.56303,47.55488],[7.56172,47.55255],[7.56141,47.55224],[7.56095,47.55203],[7.5604,47.55198],[7.55967,47.55206],[7.55878,47.5518],[7.55839,47.55133],[7.55634,47.54559],[7.5565,47.54485],[7.55737,47.54446],[7.55797,47.54447],[7.5608,47.54493],[7.56153,47.5451],[7.56292,47.5453],[7.56431,47.54561],[7.56509,47.54565],[7.57114,47.54474],[7.57556,47.54398],[7.57842,47.54378],[7.57924,47.54384],[7.58146,47.54377],[7.58191,47.54369],[7.58615,47.54228],[7.58673,47.54189],[7.58689,47.54153],[7.5865,47.54048],[7.58576,47.53918],[7.58552,47.5386],[7.58557,47.53825],[7.58592,47.53758],[7.58583,47.53724],[7.58508,47.53601],[7.58342,47.53341],[7.58277,47.53255],[7.58281,47.53199],[7.58321,47.5315],[7.58362,47.53128],[7.58475,47.53118],[7.58542,47.53096],[7.58582,47.53053],[7.58596,47.52983],[7.58619,47.52952],[7.58682,47.52922],[7.58767,47.52911],[7.58832,47.52878],[7.58879,47.5282],[7.58943,47.52783],[7.58966,47.52752],[7.58993,47.52662],[7.58994,47.52575],[7.58967,47.52516],[7.58959,47.52436],[7.58934,47.52309],[7.58942,47.52243],[7.58969,47.52175],[7.58989,47.52085],[7.59018,47.52012],[7.59049,47.51984],[7.59127,47.51961],[7.59397,47.51937],[7.59458,47.5194],[7.5953,47.51974],[7.59781,47.52193],[7.60165,47.52524],[7.60187,47.52547],[7.60461,47.52922],[7.60477,47.52965],[7.60538,47.53017],[7.6057,47.5307],[7.60612,47.53111],[7.60908,47.53487],[7.61024,47.53561],[7.61075,47.53578],[7.61271,47.53704],[7.61287,47.53743],[7.61297,47.53821],[7.61314,47.53869],[7.61379,47.53926],[7.61704,47.54014],[7.61777,47.54048],[7.6185,47.54058],[7.62095,47.54007],[7.62193,47.54029],[7.62239,47.54097],[7.62297,47.54926],[7.62288,47.54999],[7.62261,47.55064],[7.62206,47.55141],[7.62093,47.55231],[7.61889,47.55336],[7.61802,47.554],[7.61769,47.55449],[7.61759,47.55503],[7.61782,47.55637],[7.61776,47.55799],[7.61788,47.55847],[7.61816,47.55874],[7.6226,47.56021],[7.62435,47.56075],[7.62725,47.56149],[7.62888,47.56169],[7.63015,47.56171],[7.6318,47.56166],[7.6325,47.56188],[7.63293,47.56237],[7.63397,47.56508],[7.63401,47.56545],[7.63387,47.56576],[7.6337,47.56593],[7.6322,47.56722],[7.63198,47.56738],[7.63154,47.56755],[7.63104,47.56759],[7.63055,47.56751],[7.62935,47.56695],[7.62912,47.56686],[7.6281,47.56684],[7.6275,47.56716],[7.62589,47.56872],[7.62521,47.56908],[7.62396,47.56905],[7.62305,47.56931],[7.62264,47.56971],[7.62201,47.57066],[7.62194,47.57077],[7.62101,47.57293],[7.62096,47.57311],[7.62097,47.5733],[7.62103,47.57347],[7.62114,47.57364],[7.6213,47.57379],[7.62332,47.57531],[7.62347,47.57541],[7.62594,47.57676],[7.62647,47.57739],[7.62647,47.57757],[7.62633,47.5779],[7.62615,47.57809],[7.62514,47.57889],[7.62445,47.5791],[7.62344,47.5789],[7.62236,47.57834],[7.61979,47.57718],[7.61927,47.57703],[7.61844,47.57711],[7.61652,47.57772],[7.61486,47.57801],[7.61309,47.57816],[7.6095,47.57819],[7.60634,47.57801],[7.60541,47.57835],[7.60518,47.57867],[7.60526,47.57969],[7.6046,47.58097],[7.60423,47.58148],[7.60424,47.58185],[7.6046,47.58292],[7.60476,47.58435],[7.60462,47.58487],[7.60409,47.58524],[7.59864,47.58757],[7.59828,47.58769],[7.59321,47.58897],[7.59031,47.58962],[7.58926,47.58959],[7.58871,47.58925],[7.58694,47.5865],[7.5857,47.58401],[7.58476,47.58092],[7.58441,47.57869],[7.58455,47.5768],[7.58423,47.57616],[7.58384,47.57595],[7.58285,47.57588],[7.57919,47.5766],[7.57852,47.57664],[7.57666,47.57648],[7.5755,47.57623],[7.57476,47.57627],[7.5718,47.57706],[7.56911,47.57741],[7.56717,47.57758],[7.56622,47.57724],[7.5656,47.57644],[7.56513,47.57609],[7.5624,47.57487],[7.55738,47.57268],[7.55685,47.57229],[7.55663,47.5717],[7.55671,47.57133],[7.55704,47.57099],[7.55877,47.56978],[7.55911,47.56936],[7.55908,47.56887],[7.55825,47.56722],[7.55748,47.56544],[7.55679,47.56489]]]},"properties":{"bfs_nr":2701,"name":"Basel"}},{"type":"Feature","geometry":{"type":"Polygon","coordinates":[[[7.65637,47.56564],[7.65546,47.56466],[7.65536,47.56433],[7.65574,47.5637],[7.65641,47.56345],[7.65739,47.56357],[7.65849,47.56429],[7.65915,47.56454],[7.66383,47.56533],[7.66463,47.5653],[7.66544,47.56512],[7.66599,47.56512],[7.66757,47.56532],[7.67023,47.56582],[7.67088,47.56578],[7.67188,47.56548],[7.6722,47.56521],[7.67243,47.56425],[7.6728,47.56383],[7.67321,47.56365],[7.67469,47.56347],[7.67578,47.56351],[7.6763,47.56367],[7.67677,47.56409],[7.67672,47.56478],[7.67593,47.56547],[7.67594,47.56615],[7.67779,47.56796],[7.67838,47.56885],[7.67925,47.56957],[7.68094,47.57039],[7.68219,47.57075],[7.6827,47.5707],[7.68332,47.57041],[7.68361,47.56976],[7.68351,47.56902],[7.68359,47.56857],[7.68437,47.56759],[7.6852,47.56712],[7.68622,47.5672],[7.68661,47.56743],[7.68722,47.5685],[7.68897,47.57039],[7.68951,47.57132],[7.68946,47.57164],[7.68903,47.57223],[7.68829,47.57255],[7.6858,47.57304],[7.68529,47.57322],[7.6841,47.57388],[7.68373,47.57456],[7.68382,47.57634],[7.68362,47.57668],[7.68235,47.57733],[7.6819,47.5779],[7.68149,47.57995],[7.68123,47.58027],[7.6803,47.58057],[7.67977,47.58052],[7.67919,47.5803],[7.67875,47.57992],[7.67854,47.57945],[7.67781,47.57829],[7.67772,47.57796],[7.67761,47.57736],[7.67751,47.57713],[7.67743,47.57689],[7.67737,47.57655],[7.67735,47.57644],[7.67733,47.57607],[7.67734,47.57586],[7.67739,47.57562],[7.67746,47.57539],[7.6775,47.57516],[7.67751,47.57498],[7.67708,47.57437],[7.6761,47.57392],[7.67554,47.57387],[7.6751,47.57394],[7.67462,47.574],[7.6734,47.57404],[7.67287,47.57404],[7.67264,47.57401],[7.67236,47.57394],[7.6719,47.57378],[7.67169,47.57373],[7.67146,47.57369],[7.67059,47.57362],[7.67006,47.57365],[7.66909,47.57396],[7.66813,47.57417],[7.66811,47.57417],[7.6673,47.57436],[7.66633,47.57492],[7.66519,47.57516],[7.66462,47.57534],[7.6641,47.57537],[7.66284,47.57506],[7.66226,47.57456],[7.66189,47.57397],[7.66186,47.57364],[7.66214,47.57307],[7.66213,47.5727],[7.66164,47.57187],[7.66056,47.5712],[7.65979,47.57078],[7.65941,47.57017],[7.65897,47.56964],[7.65878,47.56942],[7.65867,47.56925],[7.65851,47.56886],[7.65839,47.5687],[7.65732,47.56752],[7.65637,47.56564]]]},"properties":{"bfs_nr":2702,"name":"Bettingen"}},{"type":"Feature","geometry":{"type":"Polygon","coordinates":[[[7.62579,47.56889],[7.626,47.56861],[7.62746,47.5672],[7.6281,47.56685],[7.62911,47.56686],[7.63033,47.56742],[7.63054,47.56751],[7.63078,47.56757],[7.63104,47.5676],[7.63129,47.56759],[7.63154,47.56755],[7.63177,47.56748],[7.63198,47.56738],[7.63216,47.56726],[7.63374,47.5659],[7.63387,47.56576],[7.63397,47.56561],[7.63402,47.56545],[7.63398,47.56512],[7.63381,47.56438],[7.63416,47.5639],[7.63459,47.56369],[7.63537,47.56363],[7.6361,47.56378],[7.63659,47.56376],[7.63811,47.5633],[7.63851,47.56311],[7.64007,47.56203],[7.64108,47.56141],[7.64186,47.56127],[7.64379,47.56129],[7.64431,47.56122],[7.64592,47.56076],[7.64669,47.56045],[7.64786,47.5601],[7.6484,47.56009],[7.64897,47.56026],[7.65031,47.56088],[7.65166,47.5614],[7.65221,47.56177],[7.65254,47.56222],[7.65376,47.56306],[7.65634,47.56561],[7.65734,47.56758],[7.65835,47.56866],[7.65851,47.56886],[7.65866,47.56925],[7.65876,47.56939],[7.65897,47.56964],[7.65938,47.57014],[7.65974,47.57073],[7.66009,47.57118],[7.66112,47.57169],[7.6619,47.57285],[7.66196,47.57321],[7.66181,47.57371],[7.66188,47.57404],[7.6623,47.57461],[7.66283,47.57506],[7.66326,47.57522],[7.66439,47.57544],[7.66487,47.57543],[7.66614,47.57509],[7.6671,47.5745],[7.66732,47.57438],[7.66765,47.57428],[7.66915,47.57394],[7.67006,47.57366],[7.67066,47.57363],[7.67141,47.57369],[7.67168,47.57373],[7.67195,47.5738],[7.67242,47.57396],[7.67264,47.57402],[7.67287,47.57405],[7.67311,47.57405],[7.6734,47.57404],[7.6747,47.57399],[7.67502,47.57396],[7.67544,47.57389],[7.67597,47.57393],[7.67702,47.57444],[7.67748,47.57505],[7.67747,47.57529],[7.67736,47.57573],[7.67733,47.57589],[7.67733,47.57604],[7.67736,47.57646],[7.67736,47.57654],[7.67744,47.57693],[7.67778,47.57823],[7.67794,47.57855],[7.67798,47.57863],[7.67856,47.57949],[7.67875,47.57994],[7.67905,47.58023],[7.68078,47.58114],[7.68111,47.58174],[7.6808,47.58255],[7.68018,47.5829],[7.67886,47.58329],[7.67487,47.58427],[7.67271,47.58502],[7.67216,47.58539],[7.672,47.58572],[7.67182,47.58684],[7.67193,47.58732],[7.67617,47.59045],[7.67665,47.591],[7.67706,47.59124],[7.67933,47.59215],[7.67978,47.59241],[7.68192,47.59421],[7.68355,47.59591],[7.68449,47.59651],[7.68502,47.59669],[7.68677,47.59702],[7.68733,47.59735],[7.68751,47.59766],[7.68732,47.59832],[7.68652,47.5987],[7.68509,47.59876],[7.68352,47.59858],[7.68294,47.5984],[7.68184,47.59757],[7.68053,47.59705],[7.67963,47.59631],[7.67798,47.59529],[7.67674,47.59427],[7.67554,47.59304],[7.67532,47.59251],[7.67485,47.59212],[7.67414,47.59196],[7.67216,47.5919],[7.66758,47.59195],[7.66711,47.59201],[7.66456,47.59269],[7.66159,47.59374],[7.6553,47.59534],[7.65483,47.59542],[7.65122,47.59571],[7.64898,47.59624],[7.64668,47.59674],[7.64578,47.59675],[7.6453,47.59656],[7.64425,47.59566],[7.64316,47.59511],[7.64204,47.59433],[7.64184,47.59399],[7.64195,47.59285],[7.64262,47.59193],[7.64239,47.59127],[7.6418,47.59096],[7.63992,47.59045],[7.63941,47.59023],[7.63661,47.58848],[7.63561,47.58756],[7.634,47.58579],[7.63112,47.58366],[7.6296,47.5825],[7.62807,47.5814],[7.62544,47.57983],[7.6252,47.57952],[7.62529,47.57884],[7.62619,47.57805],[7.62633,47.5779],[7.62643,47.57774],[7.62648,47.57757],[7.62648,47.57739],[7.62599,47.57679],[7.62351,47.57543],[7.62328,47.57529],[7.62134,47.57382],[7.62114,47.57364],[7.62103,47.57347],[7.62097,47.57311],[7.62103,47.57289],[7.62193,47.5708],[7.62248,47.56995],[7.62263,47.56977],[7.623,47.56953],[7.62347,47.5694],[7.62466,47.56948],[7.62514,47.56939],[7.62579,47.56889]]]},"properties":{"bfs_nr":2703,"name":"Riehen"}}]}